[
    {
        "lng": "121.272595",
        "lat": "31.380155",
        "areaCode": "上海市上海市嘉定区",
        "name": "上海市上海市嘉定区",
        "parent_area": "上海市上海市",
        "value": 1
    },
    {
        "lng": "121.480504",
        "lat": "30.92372",
        "areaCode": "上海市上海市奉贤区",
        "name": "上海市上海市奉贤区",
        "parent_area": "上海市上海市",
        "value": 1
    },
    {
        "lng": "121.443396",
        "lat": "31.194557",
        "areaCode": "上海市上海市徐汇区",
        "name": "上海市上海市徐汇区",
        "parent_area": "上海市上海市",
        "value": 2
    },
    {
        "lng": "121.53252",
        "lat": "31.265524",
        "areaCode": "上海市上海市杨浦区",
        "name": "上海市上海市杨浦区",
        "parent_area": "上海市上海市",
        "value": 1
    },
    {
        "lng": "121.550455",
        "lat": "31.227348",
        "areaCode": "上海市上海市浦东新区",
        "name": "上海市上海市浦东新区",
        "parent_area": "上海市上海市",
        "value": 10
    },
    {
        "lng": "121.511586",
        "lat": "31.269747",
        "areaCode": "上海市上海市虹口区",
        "name": "上海市上海市虹口区",
        "parent_area": "上海市上海市",
        "value": 1
    },
    {
        "lng": "121.34848",
        "lat": "30.747852",
        "areaCode": "上海市上海市金山区",
        "name": "上海市上海市金山区",
        "parent_area": "上海市上海市",
        "value": 1
    },
    {
        "lng": "121.388612",
        "lat": "31.118843",
        "areaCode": "上海市上海市闵行区",
        "name": "上海市上海市闵行区",
        "parent_area": "上海市上海市",
        "value": 1
    },
    {
        "lng": "121.480539",
        "lat": "31.235929",
        "areaCode": "上海市上海市闸北区",
        "name": "上海市上海市闸北区",
        "parent_area": "上海市上海市",
        "value": 1
    },
    {
        "lng": "121.130553",
        "lat": "31.155454",
        "areaCode": "上海市上海市青浦区",
        "name": "上海市上海市青浦区",
        "parent_area": "上海市上海市",
        "value": 2
    },
    {
        "lng": "121.491586",
        "lat": "31.237247",
        "areaCode": "上海市上海市黄浦区",
        "name": "上海市上海市黄浦区",
        "parent_area": "上海市上海市",
        "value": 1
    },
    {
        "lng": "100.23248",
        "lat": "26.883162",
        "areaCode": "云南省丽江市古城区",
        "name": "云南省丽江市古城区",
        "parent_area": "云南省丽江市",
        "value": 1
    },
    {
        "lng": "99.611617",
        "lat": "24.833985",
        "areaCode": "云南省保山市昌宁县",
        "name": "云南省保山市昌宁县",
        "parent_area": "云南省保山市",
        "value": 1
    },
    {
        "lng": "99.172071",
        "lat": "25.126888",
        "areaCode": "云南省保山市隆阳区",
        "name": "云南省保山市隆阳区",
        "parent_area": "云南省保山市",
        "value": 1
    },
    {
        "lng": "100.236519",
        "lat": "25.597605",
        "areaCode": "云南省大理白族自治州大理市",
        "name": "云南省大理白族自治州大理市",
        "parent_area": "云南省大理白族自治州",
        "value": 2
    },
    {
        "lng": "98.591359",
        "lat": "24.438011",
        "areaCode": "云南省德宏傣族景颇族自治州芒市",
        "name": "云南省德宏傣族景颇族自治州芒市",
        "parent_area": "云南省德宏傣族景颇族自治州",
        "value": 1
    },
    {
        "lng": "104.343551",
        "lat": "23.611487",
        "areaCode": "云南省文山壮族苗族自治州砚山县",
        "name": "云南省文山壮族苗族自治州砚山县",
        "parent_area": "云南省文山壮族苗族自治州",
        "value": 1
    },
    {
        "lng": "104.709549",
        "lat": "23.131586",
        "areaCode": "云南省文山壮族苗族自治州麻栗坡县",
        "name": "云南省文山壮族苗族自治州麻栗坡县",
        "parent_area": "云南省文山壮族苗族自治州",
        "value": 1
    },
    {
        "lng": "102.750482",
        "lat": "25.021196",
        "areaCode": "云南省昆明市官渡区",
        "name": "云南省昆明市官渡区",
        "parent_area": "云南省昆明市",
        "value": 3
    },
    {
        "lng": "103.147558",
        "lat": "24.925287",
        "areaCode": "云南省昆明市宜良县",
        "name": "云南省昆明市宜良县",
        "parent_area": "云南省昆明市",
        "value": 1
    },
    {
        "lng": "102.671557",
        "lat": "25.043199",
        "areaCode": "云南省昆明市西山区",
        "name": "云南省昆明市西山区",
        "parent_area": "云南省昆明市",
        "value": 2
    },
    {
        "lng": "104.422433",
        "lat": "28.636107",
        "areaCode": "云南省昭通市水富县",
        "name": "云南省昭通市水富县",
        "parent_area": "云南省昭通市",
        "value": 1
    },
    {
        "lng": "104.261474",
        "lat": "25.68028",
        "areaCode": "云南省曲靖市富源县",
        "name": "云南省曲靖市富源县",
        "parent_area": "云南省曲靖市",
        "value": 2
    },
    {
        "lng": "102.732423",
        "lat": "24.117891",
        "areaCode": "云南省玉溪市通海县",
        "name": "云南省玉溪市通海县",
        "parent_area": "云南省玉溪市",
        "value": 1
    },
    {
        "lng": "113.120587",
        "lat": "41.041146",
        "areaCode": "内蒙古自治区乌兰察布市集宁区",
        "name": "内蒙古自治区乌兰察布市集宁区",
        "parent_area": "内蒙古自治区乌兰察布市",
        "value": 1
    },
    {
        "lng": "109.845538",
        "lat": "40.647644",
        "areaCode": "内蒙古自治区包头市昆都仑区",
        "name": "内蒙古自治区包头市昆都仑区",
        "parent_area": "内蒙古自治区包头市",
        "value": 1
    },
    {
        "lng": "109.907416",
        "lat": "40.649473",
        "areaCode": "内蒙古自治区包头市青山区",
        "name": "内蒙古自治区包头市青山区",
        "parent_area": "内蒙古自治区包头市",
        "value": 1
    },
    {
        "lng": "118.276608",
        "lat": "48.223787",
        "areaCode": "内蒙古自治区呼伦贝尔市新巴尔虎左旗",
        "name": "内蒙古自治区呼伦贝尔市新巴尔虎左旗",
        "parent_area": "内蒙古自治区呼伦贝尔市",
        "value": 1
    },
    {
        "lng": "120.718347",
        "lat": "49.292024",
        "areaCode": "内蒙古自治区呼伦贝尔市牙克石市",
        "name": "内蒙古自治区呼伦贝尔市牙克石市",
        "parent_area": "内蒙古自治区呼伦贝尔市",
        "value": 1
    },
    {
        "lng": "111.82843",
        "lat": "40.384798",
        "areaCode": "内蒙古自治区呼和浩特市和林格尔县",
        "name": "内蒙古自治区呼和浩特市和林格尔县",
        "parent_area": "内蒙古自治区呼和浩特市",
        "value": 1
    },
    {
        "lng": "111.67162",
        "lat": "40.863877",
        "areaCode": "内蒙古自治区呼和浩特市新城区",
        "name": "内蒙古自治区呼和浩特市新城区",
        "parent_area": "内蒙古自治区呼和浩特市",
        "value": 1
    },
    {
        "lng": "108.273491",
        "lat": "41.094455",
        "areaCode": "内蒙古自治区巴彦淖尔市五原县",
        "name": "内蒙古自治区巴彦淖尔市五原县",
        "parent_area": "内蒙古自治区巴彦淖尔市",
        "value": 1
    },
    {
        "lng": "119.295405",
        "lat": "42.045125",
        "areaCode": "内蒙古自治区赤峰市元宝山区",
        "name": "内蒙古自治区赤峰市元宝山区",
        "parent_area": "内蒙古自治区赤峰市",
        "value": 2
    },
    {
        "lng": "119.927578",
        "lat": "42.296507",
        "areaCode": "内蒙古自治区赤峰市敖汉旗",
        "name": "内蒙古自治区赤峰市敖汉旗",
        "parent_area": "内蒙古自治区赤峰市",
        "value": 1
    },
    {
        "lng": "121.325386",
        "lat": "43.606369",
        "areaCode": "内蒙古自治区通辽市开鲁县",
        "name": "内蒙古自治区通辽市开鲁县",
        "parent_area": "内蒙古自治区通辽市",
        "value": 1
    },
    {
        "lng": "122.262457",
        "lat": "43.628712",
        "areaCode": "内蒙古自治区通辽市科尔沁区",
        "name": "内蒙古自治区通辽市科尔沁区",
        "parent_area": "内蒙古自治区通辽市",
        "value": 2
    },
    {
        "lng": "116.422401",
        "lat": "39.934827",
        "areaCode": "北京市北京市东城区",
        "name": "北京市北京市东城区",
        "parent_area": "北京市北京市",
        "value": 1
    },
    {
        "lng": "116.292402",
        "lat": "39.864937",
        "areaCode": "北京市北京市丰台区",
        "name": "北京市北京市丰台区",
        "parent_area": "北京市北京市",
        "value": 2
    },
    {
        "lng": "116.237618",
        "lat": "40.226413",
        "areaCode": "北京市北京市昌平区",
        "name": "北京市北京市昌平区",
        "parent_area": "北京市北京市",
        "value": 2
    },
    {
        "lng": "116.149444",
        "lat": "39.754326",
        "areaCode": "北京市北京市房山区",
        "name": "北京市北京市房山区",
        "parent_area": "北京市北京市",
        "value": 2
    },
    {
        "lng": "116.449559",
        "lat": "39.926375",
        "areaCode": "北京市北京市朝阳区",
        "name": "北京市北京市朝阳区",
        "parent_area": "北京市北京市",
        "value": 3
    },
    {
        "lng": "116.305434",
        "lat": "39.96549",
        "areaCode": "北京市北京市海淀区",
        "name": "北京市北京市海淀区",
        "parent_area": "北京市北京市",
        "value": 2
    },
    {
        "lng": "116.372514",
        "lat": "39.918124",
        "areaCode": "北京市北京市西城区",
        "name": "北京市北京市西城区",
        "parent_area": "北京市北京市",
        "value": 1
    },
    {
        "lng": "116.663415",
        "lat": "39.916017",
        "areaCode": "北京市北京市通州区",
        "name": "北京市北京市通州区",
        "parent_area": "北京市北京市",
        "value": 1
    },
    {
        "lng": "116.661424",
        "lat": "40.136351",
        "areaCode": "北京市北京市顺义区",
        "name": "北京市北京市顺义区",
        "parent_area": "北京市北京市",
        "value": 3
    },
    {
        "lng": "126.568545",
        "lat": "43.916343",
        "areaCode": "吉林省吉林市龙潭区",
        "name": "吉林省吉林市龙潭区",
        "parent_area": "吉林省吉林市",
        "value": 1
    },
    {
        "lng": "124.829449",
        "lat": "43.510833",
        "areaCode": "吉林省四平市公主岭市",
        "name": "吉林省四平市公主岭市",
        "parent_area": "吉林省四平市",
        "value": 1
    },
    {
        "lng": "129.017387",
        "lat": "42.552323",
        "areaCode": "吉林省延边朝鲜族自治州和龙市",
        "name": "吉林省延边朝鲜族自治州和龙市",
        "parent_area": "吉林省延边朝鲜族自治州",
        "value": 2
    },
    {
        "lng": "129.52052",
        "lat": "42.912717",
        "areaCode": "吉林省延边朝鲜族自治州延吉市",
        "name": "吉林省延边朝鲜族自治州延吉市",
        "parent_area": "吉林省延边朝鲜族自治州",
        "value": 1
    },
    {
        "lng": "124.823423",
        "lat": "45.178039",
        "areaCode": "吉林省松原市宁江区",
        "name": "吉林省松原市宁江区",
        "parent_area": "吉林省松原市",
        "value": 1
    },
    {
        "lng": "125.155373",
        "lat": "42.933308",
        "areaCode": "吉林省辽源市西安区",
        "name": "吉林省辽源市西安区",
        "parent_area": "吉林省辽源市",
        "value": 1
    },
    {
        "lng": "125.765392",
        "lat": "41.685682",
        "areaCode": "吉林省通化市通化县",
        "name": "吉林省通化市通化县",
        "parent_area": "吉林省通化市",
        "value": 1
    },
    {
        "lng": "126.199577",
        "lat": "41.1313",
        "areaCode": "吉林省通化市集安市",
        "name": "吉林省通化市集安市",
        "parent_area": "吉林省通化市",
        "value": 1
    },
    {
        "lng": "125.295401",
        "lat": "43.840641",
        "areaCode": "吉林省长春市朝阳区",
        "name": "吉林省长春市朝阳区",
        "parent_area": "吉林省长春市",
        "value": 1
    },
    {
        "lng": "103.57841",
        "lat": "29.743846",
        "areaCode": "四川省乐山市夹江县",
        "name": "四川省乐山市夹江县",
        "parent_area": "四川省乐山市",
        "value": 1
    },
    {
        "lng": "103.556436",
        "lat": "29.419272",
        "areaCode": "四川省乐山市沙湾区",
        "name": "四川省乐山市沙湾区",
        "parent_area": "四川省乐山市",
        "value": 1
    },
    {
        "lng": "104.674498",
        "lat": "29.533635",
        "areaCode": "四川省内江市威远县",
        "name": "四川省内江市威远县",
        "parent_area": "四川省内江市",
        "value": 1
    },
    {
        "lng": "106.043578",
        "lat": "31.353705",
        "areaCode": "四川省南充市南部县",
        "name": "四川省南充市南部县",
        "parent_area": "四川省南充市",
        "value": 1
    },
    {
        "lng": "106.078433",
        "lat": "30.764896",
        "areaCode": "四川省南充市嘉陵区",
        "name": "四川省南充市嘉陵区",
        "parent_area": "四川省南充市",
        "value": 1
    },
    {
        "lng": "106.418482",
        "lat": "31.034631",
        "areaCode": "四川省南充市蓬安县",
        "name": "四川省南充市蓬安县",
        "parent_area": "四川省南充市",
        "value": 1
    },
    {
        "lng": "105.907611",
        "lat": "31.000688",
        "areaCode": "四川省南充市西充县",
        "name": "四川省南充市西充县",
        "parent_area": "四川省南充市",
        "value": 2
    },
    {
        "lng": "106.12554",
        "lat": "30.787255",
        "areaCode": "四川省南充市高坪区",
        "name": "四川省南充市高坪区",
        "parent_area": "四川省南充市",
        "value": 1
    },
    {
        "lng": "104.352675",
        "lat": "28.834275",
        "areaCode": "四川省宜宾市屏山县",
        "name": "四川省宜宾市屏山县",
        "parent_area": "四川省宜宾市",
        "value": 1
    },
    {
        "lng": "104.626438",
        "lat": "28.772052",
        "areaCode": "四川省宜宾市翠屏区",
        "name": "四川省宜宾市翠屏区",
        "parent_area": "四川省宜宾市",
        "value": 1
    },
    {
        "lng": "106.302462",
        "lat": "30.355496",
        "areaCode": "四川省广安市武胜县",
        "name": "四川省广安市武胜县",
        "parent_area": "四川省广安市",
        "value": 2
    },
    {
        "lng": "106.936403",
        "lat": "30.341073",
        "areaCode": "四川省广安市邻水县",
        "name": "四川省广安市邻水县",
        "parent_area": "四川省广安市",
        "value": 4
    },
    {
        "lng": "103.930392",
        "lat": "30.580399",
        "areaCode": "四川省成都市双流县",
        "name": "四川省成都市双流县",
        "parent_area": "四川省成都市",
        "value": 2
    },
    {
        "lng": "104.049424",
        "lat": "30.648713",
        "areaCode": "四川省成都市武侯区",
        "name": "四川省成都市武侯区",
        "parent_area": "四川省成都市",
        "value": 2
    },
    {
        "lng": "103.512571",
        "lat": "30.2025",
        "areaCode": "四川省成都市蒲江县",
        "name": "四川省成都市蒲江县",
        "parent_area": "四川省成都市",
        "value": 1
    },
    {
        "lng": "103.470481",
        "lat": "30.416399",
        "areaCode": "四川省成都市邛崃市",
        "name": "四川省成都市邛崃市",
        "parent_area": "四川省成都市",
        "value": 1
    },
    {
        "lng": "103.653534",
        "lat": "30.994257",
        "areaCode": "四川省成都市都江堰市",
        "name": "四川省成都市都江堰市",
        "parent_area": "四川省成都市",
        "value": 1
    },
    {
        "lng": "104.281397",
        "lat": "30.562698",
        "areaCode": "四川省成都市龙泉驿区",
        "name": "四川省成都市龙泉驿区",
        "parent_area": "四川省成都市",
        "value": 2
    },
    {
        "lng": "105.444594",
        "lat": "28.919084",
        "areaCode": "四川省泸州市龙马潭区",
        "name": "四川省泸州市龙马潭区",
        "parent_area": "四川省泸州市",
        "value": 1
    },
    {
        "lng": "104.140477",
        "lat": "30.001664",
        "areaCode": "四川省眉山市仁寿县",
        "name": "四川省眉山市仁寿县",
        "parent_area": "四川省眉山市",
        "value": 1
    },
    {
        "lng": "105.10149",
        "lat": "31.101586",
        "areaCode": "四川省绵阳市三台县",
        "name": "四川省绵阳市三台县",
        "parent_area": "四川省绵阳市",
        "value": 1
    },
    {
        "lng": "104.752412",
        "lat": "31.784128",
        "areaCode": "四川省绵阳市江油市",
        "name": "四川省绵阳市江油市",
        "parent_area": "四川省绵阳市",
        "value": 1
    },
    {
        "lng": "105.395503",
        "lat": "31.214319",
        "areaCode": "四川省绵阳市盐亭县",
        "name": "四川省绵阳市盐亭县",
        "parent_area": "四川省绵阳市",
        "value": 1
    },
    {
        "lng": "104.423875",
        "lat": "29.450987",
        "areaCode": "四川省自贡市荣县",
        "name": "四川省自贡市荣县",
        "parent_area": "四川省自贡市",
        "value": 1
    },
    {
        "lng": "105.462467",
        "lat": "30.361496",
        "areaCode": "四川省遂宁市安居区",
        "name": "四川省遂宁市安居区",
        "parent_area": "四川省遂宁市",
        "value": 1
    },
    {
        "lng": "105.39451",
        "lat": "30.877139",
        "areaCode": "四川省遂宁市射洪县",
        "name": "四川省遂宁市射洪县",
        "parent_area": "四川省遂宁市",
        "value": 1
    },
    {
        "lng": "105.574523",
        "lat": "30.531471",
        "areaCode": "四川省遂宁市船山区",
        "name": "四川省遂宁市船山区",
        "parent_area": "四川省遂宁市",
        "value": 1
    },
    {
        "lng": "105.713446",
        "lat": "30.763751",
        "areaCode": "四川省遂宁市蓬溪县",
        "name": "四川省遂宁市蓬溪县",
        "parent_area": "四川省遂宁市",
        "value": 1
    },
    {
        "lng": "117.316601",
        "lat": "39.723194",
        "areaCode": "天津市天津市宝坻区",
        "name": "天津市天津市宝坻区",
        "parent_area": "天津市天津市",
        "value": 1
    },
    {
        "lng": "117.050597",
        "lat": "39.389871",
        "areaCode": "天津市天津市武清区",
        "name": "天津市天津市武清区",
        "parent_area": "天津市天津市",
        "value": 1
    },
    {
        "lng": "116.191494",
        "lat": "33.155596",
        "areaCode": "安徽省亳州市利辛县",
        "name": "安徽省亳州市利辛县",
        "parent_area": "安徽省亳州市",
        "value": 3
    },
    {
        "lng": "116.571589",
        "lat": "33.271658",
        "areaCode": "安徽省亳州市蒙城县",
        "name": "安徽省亳州市蒙城县",
        "parent_area": "安徽省亳州市",
        "value": 1
    },
    {
        "lng": "116.955602",
        "lat": "31.467692",
        "areaCode": "安徽省六安市舒城县",
        "name": "安徽省六安市舒城县",
        "parent_area": "安徽省六安市",
        "value": 2
    },
    {
        "lng": "116.805563",
        "lat": "32.561546",
        "areaCode": "安徽省六安市寿县",
        "name": "安徽省六安市寿县",
        "parent_area": "安徽省六安市",
        "value": 1
    },
    {
        "lng": "116.48655",
        "lat": "31.743626",
        "areaCode": "安徽省六安市裕安区",
        "name": "安徽省六安市裕安区",
        "parent_area": "安徽省六安市",
        "value": 3
    },
    {
        "lng": "116.545438",
        "lat": "31.756288",
        "areaCode": "安徽省六安市金安区",
        "name": "安徽省六安市金安区",
        "parent_area": "安徽省六安市",
        "value": 1
    },
    {
        "lng": "115.940441",
        "lat": "31.733462",
        "areaCode": "安徽省六安市金寨县",
        "name": "安徽省六安市金寨县",
        "parent_area": "安徽省六安市",
        "value": 4
    },
    {
        "lng": "116.284391",
        "lat": "32.359344",
        "areaCode": "安徽省六安市霍邱县",
        "name": "安徽省六安市霍邱县",
        "parent_area": "安徽省六安市",
        "value": 4
    },
    {
        "lng": "117.316576",
        "lat": "31.799293",
        "areaCode": "安徽省合肥市包河区",
        "name": "安徽省合肥市包河区",
        "parent_area": "安徽省合肥市",
        "value": 1
    },
    {
        "lng": "117.895576",
        "lat": "31.629002",
        "areaCode": "安徽省合肥市巢湖市",
        "name": "安徽省合肥市巢湖市",
        "parent_area": "安徽省合肥市",
        "value": 2
    },
    {
        "lng": "117.315587",
        "lat": "31.863787",
        "areaCode": "安徽省合肥市瑶海区",
        "name": "安徽省合肥市瑶海区",
        "parent_area": "安徽省合肥市",
        "value": 3
    },
    {
        "lng": "117.164558",
        "lat": "31.712962",
        "areaCode": "安徽省合肥市肥西县",
        "name": "安徽省合肥市肥西县",
        "parent_area": "安徽省合肥市",
        "value": 1
    },
    {
        "lng": "117.266461",
        "lat": "31.857378",
        "areaCode": "安徽省合肥市蜀山区",
        "name": "安徽省合肥市蜀山区",
        "parent_area": "安徽省合肥市",
        "value": 1
    },
    {
        "lng": "116.315476",
        "lat": "30.460113",
        "areaCode": "安徽省安庆市太湖县",
        "name": "安徽省安庆市太湖县",
        "parent_area": "安徽省安庆市",
        "value": 2
    },
    {
        "lng": "116.993441",
        "lat": "30.619676",
        "areaCode": "安徽省安庆市宜秀区",
        "name": "安徽省安庆市宜秀区",
        "parent_area": "安徽省安庆市",
        "value": 1
    },
    {
        "lng": "116.135524",
        "lat": "30.159787",
        "areaCode": "安徽省安庆市宿松县",
        "name": "安徽省安庆市宿松县",
        "parent_area": "安徽省安庆市",
        "value": 3
    },
    {
        "lng": "116.366555",
        "lat": "30.855228",
        "areaCode": "安徽省安庆市岳西县",
        "name": "安徽省安庆市岳西县",
        "parent_area": "安徽省安庆市",
        "value": 1
    },
    {
        "lng": "116.70059",
        "lat": "30.129968",
        "areaCode": "安徽省安庆市望江县",
        "name": "安徽省安庆市望江县",
        "parent_area": "安徽省安庆市",
        "value": 1
    },
    {
        "lng": "117.226437",
        "lat": "30.705671",
        "areaCode": "安徽省安庆市枞阳县",
        "name": "安徽省安庆市枞阳县",
        "parent_area": "安徽省安庆市",
        "value": 3
    },
    {
        "lng": "116.980466",
        "lat": "31.041969",
        "areaCode": "安徽省安庆市桐城市",
        "name": "安徽省安庆市桐城市",
        "parent_area": "安徽省安庆市",
        "value": 1
    },
    {
        "lng": "116.587611",
        "lat": "30.636756",
        "areaCode": "安徽省安庆市潜山县",
        "name": "安徽省安庆市潜山县",
        "parent_area": "安徽省安庆市",
        "value": 1
    },
    {
        "lng": "117.097514",
        "lat": "30.517523",
        "areaCode": "安徽省安庆市迎江区",
        "name": "安徽省安庆市迎江区",
        "parent_area": "安徽省安庆市",
        "value": 1
    },
    {
        "lng": "118.762549",
        "lat": "30.952158",
        "areaCode": "安徽省宣城市宣州区",
        "name": "安徽省宣城市宣州区",
        "parent_area": "安徽省宣城市",
        "value": 1
    },
    {
        "lng": "119.186466",
        "lat": "31.132682",
        "areaCode": "安徽省宣城市郎溪县",
        "name": "安徽省宣城市郎溪县",
        "parent_area": "安徽省宣城市",
        "value": 1
    },
    {
        "lng": "116.98348",
        "lat": "33.646131",
        "areaCode": "安徽省宿州市埇桥区",
        "name": "安徽省宿州市埇桥区",
        "parent_area": "安徽省宿州市",
        "value": 2
    },
    {
        "lng": "116.372524",
        "lat": "34.448428",
        "areaCode": "安徽省宿州市砀山县",
        "name": "安徽省宿州市砀山县",
        "parent_area": "安徽省宿州市",
        "value": 2
    },
    {
        "lng": "116.953585",
        "lat": "34.194269",
        "areaCode": "安徽省宿州市萧县",
        "name": "安徽省宿州市萧县",
        "parent_area": "安徽省宿州市",
        "value": 1
    },
    {
        "lng": "117.034481",
        "lat": "30.116535",
        "areaCode": "安徽省池州市东至县",
        "name": "安徽省池州市东至县",
        "parent_area": "安徽省池州市",
        "value": 1
    },
    {
        "lng": "117.57449",
        "lat": "30.693858",
        "areaCode": "安徽省池州市贵池区",
        "name": "安徽省池州市贵池区",
        "parent_area": "安徽省池州市",
        "value": 1
    },
    {
        "lng": "116.717573",
        "lat": "32.715104",
        "areaCode": "安徽省淮南市凤台县",
        "name": "安徽省淮南市凤台县",
        "parent_area": "安徽省淮南市",
        "value": 1
    },
    {
        "lng": "118.280584",
        "lat": "32.09194",
        "areaCode": "安徽省滁州市全椒县",
        "name": "安徽省滁州市全椒县",
        "parent_area": "安徽省滁州市",
        "value": 2
    },
    {
        "lng": "117.538585",
        "lat": "32.880977",
        "areaCode": "安徽省滁州市凤阳县",
        "name": "安徽省滁州市凤阳县",
        "parent_area": "安徽省滁州市",
        "value": 2
    },
    {
        "lng": "118.423482",
        "lat": "32.206132",
        "areaCode": "安徽省滁州市南谯区",
        "name": "安徽省滁州市南谯区",
        "parent_area": "安徽省滁州市",
        "value": 1
    },
    {
        "lng": "119.011385",
        "lat": "32.67341",
        "areaCode": "安徽省滁州市天长市",
        "name": "安徽省滁州市天长市",
        "parent_area": "安徽省滁州市",
        "value": 1
    },
    {
        "lng": "118.442412",
        "lat": "32.45845",
        "areaCode": "安徽省滁州市来安县",
        "name": "安徽省滁州市来安县",
        "parent_area": "安徽省滁州市",
        "value": 2
    },
    {
        "lng": "118.312441",
        "lat": "32.300867",
        "areaCode": "安徽省滁州市琅琊区",
        "name": "安徽省滁州市琅琊区",
        "parent_area": "安徽省滁州市",
        "value": 1
    },
    {
        "lng": "117.908579",
        "lat": "31.308844",
        "areaCode": "安徽省芜湖市无为县",
        "name": "安徽省芜湖市无为县",
        "parent_area": "安徽省芜湖市",
        "value": 3
    },
    {
        "lng": "118.582443",
        "lat": "31.141239",
        "areaCode": "安徽省芜湖市芜湖县",
        "name": "安徽省芜湖市芜湖县",
        "parent_area": "安徽省芜湖市",
        "value": 2
    },
    {
        "lng": "117.323548",
        "lat": "33.323274",
        "areaCode": "安徽省蚌埠市固镇县",
        "name": "安徽省蚌埠市固镇县",
        "parent_area": "安徽省蚌埠市",
        "value": 1
    },
    {
        "lng": "117.211506",
        "lat": "32.976004",
        "areaCode": "安徽省蚌埠市怀远县",
        "name": "安徽省蚌埠市怀远县",
        "parent_area": "安徽省蚌埠市",
        "value": 1
    },
    {
        "lng": "115.267616",
        "lat": "33.04596",
        "areaCode": "安徽省阜阳市临泉县",
        "name": "安徽省阜阳市临泉县",
        "parent_area": "安徽省阜阳市",
        "value": 5
    },
    {
        "lng": "115.628615",
        "lat": "33.16596",
        "areaCode": "安徽省阜阳市太和县",
        "name": "安徽省阜阳市太和县",
        "parent_area": "安徽省阜阳市",
        "value": 2
    },
    {
        "lng": "115.602546",
        "lat": "32.664097",
        "areaCode": "安徽省阜阳市阜南县",
        "name": "安徽省阜阳市阜南县",
        "parent_area": "安徽省阜阳市",
        "value": 4
    },
    {
        "lng": "115.863617",
        "lat": "32.917362",
        "areaCode": "安徽省阜阳市颍东区",
        "name": "安徽省阜阳市颍东区",
        "parent_area": "安徽省阜阳市",
        "value": 1
    },
    {
        "lng": "115.815426",
        "lat": "32.931314",
        "areaCode": "安徽省阜阳市颍泉区",
        "name": "安徽省阜阳市颍泉区",
        "parent_area": "安徽省阜阳市",
        "value": 2
    },
    {
        "lng": "115.813411",
        "lat": "32.889625",
        "areaCode": "安徽省阜阳市颍州区",
        "name": "安徽省阜阳市颍州区",
        "parent_area": "安徽省阜阳市",
        "value": 3
    },
    {
        "lng": "118.359513",
        "lat": "31.748244",
        "areaCode": "安徽省马鞍山市和县",
        "name": "安徽省马鞍山市和县",
        "parent_area": "安徽省马鞍山市",
        "value": 1
    },
    {
        "lng": "118.504605",
        "lat": "31.576649",
        "areaCode": "安徽省马鞍山市当涂县",
        "name": "安徽省马鞍山市当涂县",
        "parent_area": "安徽省马鞍山市",
        "value": 1
    },
    {
        "lng": "118.321418",
        "lat": "29.702144",
        "areaCode": "安徽省黄山市屯溪区",
        "name": "安徽省黄山市屯溪区",
        "parent_area": "安徽省黄山市",
        "value": 1
    },
    {
        "lng": "118.42146",
        "lat": "29.866288",
        "areaCode": "安徽省黄山市歙县",
        "name": "安徽省黄山市歙县",
        "parent_area": "安徽省黄山市",
        "value": 1
    },
    {
        "lng": "118.409547",
        "lat": "35.095676",
        "areaCode": "山东省临沂市河东区",
        "name": "山东省临沂市河东区",
        "parent_area": "山东省临沂市",
        "value": 2
    },
    {
        "lng": "118.077409",
        "lat": "34.863616",
        "areaCode": "山东省临沂市苍山县",
        "name": "山东省临沂市苍山县",
        "parent_area": "山东省临沂市",
        "value": 1
    },
    {
        "lng": "118.841541",
        "lat": "35.180812",
        "areaCode": "山东省临沂市莒南县",
        "name": "山东省临沂市莒南县",
        "parent_area": "山东省临沂市",
        "value": 1
    },
    {
        "lng": "118.373587",
        "lat": "34.619226",
        "areaCode": "山东省临沂市郯城县",
        "name": "山东省临沂市郯城县",
        "parent_area": "山东省临沂市",
        "value": 1
    },
    {
        "lng": "122.129538",
        "lat": "37.507968",
        "areaCode": "山东省威海市环翠区",
        "name": "山东省威海市环翠区",
        "parent_area": "山东省威海市",
        "value": 1
    },
    {
        "lng": "122.492505",
        "lat": "37.171318",
        "areaCode": "山东省威海市荣成市",
        "name": "山东省威海市荣成市",
        "parent_area": "山东省威海市",
        "value": 2
    },
    {
        "lng": "119.468624",
        "lat": "35.431049",
        "areaCode": "山东省日照市东港区",
        "name": "山东省日照市东港区",
        "parent_area": "山东省日照市",
        "value": 2
    },
    {
        "lng": "117.172565",
        "lat": "35.120035",
        "areaCode": "山东省枣庄市滕州市",
        "name": "山东省枣庄市滕州市",
        "parent_area": "山东省枣庄市",
        "value": 1
    },
    {
        "lng": "117.269458",
        "lat": "34.801125",
        "areaCode": "山东省枣庄市薛城区",
        "name": "山东省枣庄市薛城区",
        "parent_area": "山东省枣庄市",
        "value": 2
    },
    {
        "lng": "117.141411",
        "lat": "36.199445",
        "areaCode": "山东省泰安市泰山区",
        "name": "山东省泰安市泰山区",
        "parent_area": "山东省泰安市",
        "value": 2
    },
    {
        "lng": "116.775401",
        "lat": "36.188811",
        "areaCode": "山东省泰安市肥城市",
        "name": "山东省泰安市肥城市",
        "parent_area": "山东省泰安市",
        "value": 1
    },
    {
        "lng": "117.082567",
        "lat": "36.672163",
        "areaCode": "山东省济南市历下区",
        "name": "山东省济南市历下区",
        "parent_area": "山东省济南市",
        "value": 2
    },
    {
        "lng": "116.993399",
        "lat": "36.684068",
        "areaCode": "山东省济南市天桥区",
        "name": "山东省济南市天桥区",
        "parent_area": "山东省济南市",
        "value": 1
    },
    {
        "lng": "117.004399",
        "lat": "36.657552",
        "areaCode": "山东省济南市市中区",
        "name": "山东省济南市市中区",
        "parent_area": "山东省济南市",
        "value": 1
    },
    {
        "lng": "117.180621",
        "lat": "36.983971",
        "areaCode": "山东省济南市济阳县",
        "name": "山东省济南市济阳县",
        "parent_area": "山东省济南市",
        "value": 1
    },
    {
        "lng": "116.55447",
        "lat": "35.493731",
        "areaCode": "山东省济宁市任城区",
        "name": "山东省济宁市任城区",
        "parent_area": "山东省济宁市",
        "value": 1
    },
    {
        "lng": "116.348613",
        "lat": "35.413255",
        "areaCode": "山东省济宁市嘉祥县",
        "name": "山东省济宁市嘉祥县",
        "parent_area": "山东省济宁市",
        "value": 2
    },
    {
        "lng": "116.10262",
        "lat": "35.808064",
        "areaCode": "山东省济宁市梁山县",
        "name": "山东省济宁市梁山县",
        "parent_area": "山东省济宁市",
        "value": 1
    },
    {
        "lng": "116.505441",
        "lat": "35.717055",
        "areaCode": "山东省济宁市汶上县",
        "name": "山东省济宁市汶上县",
        "parent_area": "山东省济宁市",
        "value": 1
    },
    {
        "lng": "116.31853",
        "lat": "35.072569",
        "areaCode": "山东省济宁市金乡县",
        "name": "山东省济宁市金乡县",
        "parent_area": "山东省济宁市",
        "value": 2
    },
    {
        "lng": "118.177489",
        "lat": "36.190917",
        "areaCode": "山东省淄博市沂源县",
        "name": "山东省淄博市沂源县",
        "parent_area": "山东省淄博市",
        "value": 1
    },
    {
        "lng": "117.51651",
        "lat": "37.495803",
        "areaCode": "山东省滨州市惠民县",
        "name": "山东省滨州市惠民县",
        "parent_area": "山东省滨州市",
        "value": 1
    },
    {
        "lng": "117.584437",
        "lat": "37.647338",
        "areaCode": "山东省滨州市阳信县",
        "name": "山东省滨州市阳信县",
        "parent_area": "山东省滨州市",
        "value": 1
    },
    {
        "lng": "118.836488",
        "lat": "36.712996",
        "areaCode": "山东省潍坊市昌乐县",
        "name": "山东省潍坊市昌乐县",
        "parent_area": "山东省潍坊市",
        "value": 1
    },
    {
        "lng": "118.797415",
        "lat": "36.861922",
        "areaCode": "山东省潍坊市寿光市",
        "name": "山东省潍坊市寿光市",
        "parent_area": "山东省潍坊市",
        "value": 1
    },
    {
        "lng": "118.486537",
        "lat": "36.690417",
        "areaCode": "山东省潍坊市青州市",
        "name": "山东省潍坊市青州市",
        "parent_area": "山东省潍坊市",
        "value": 1
    },
    {
        "lng": "119.762411",
        "lat": "36.388957",
        "areaCode": "山东省潍坊市高密市",
        "name": "山东省潍坊市高密市",
        "parent_area": "山东省潍坊市",
        "value": 1
    },
    {
        "lng": "119.948593",
        "lat": "37.182637",
        "areaCode": "山东省烟台市莱州市",
        "name": "山东省烟台市莱州市",
        "parent_area": "山东省烟台市",
        "value": 1
    },
    {
        "lng": "120.718414",
        "lat": "36.984636",
        "areaCode": "山东省烟台市莱阳市",
        "name": "山东省烟台市莱阳市",
        "parent_area": "山东省烟台市",
        "value": 1
    },
    {
        "lng": "115.71147",
        "lat": "36.844289",
        "areaCode": "山东省聊城市临清市",
        "name": "山东省聊城市临清市",
        "parent_area": "山东省聊城市",
        "value": 1
    },
    {
        "lng": "116.261455",
        "lat": "36.586785",
        "areaCode": "山东省聊城市茌平县",
        "name": "山东省聊城市茌平县",
        "parent_area": "山东省聊城市",
        "value": 1
    },
    {
        "lng": "115.449396",
        "lat": "36.490243",
        "areaCode": "山东省聊城市冠县",
        "name": "山东省聊城市冠县",
        "parent_area": "山东省聊城市",
        "value": 1
    },
    {
        "lng": "115.096417",
        "lat": "35.295702",
        "areaCode": "山东省菏泽市东明县",
        "name": "山东省菏泽市东明县",
        "parent_area": "山东省菏泽市",
        "value": 1
    },
    {
        "lng": "116.111584",
        "lat": "34.784658",
        "areaCode": "山东省菏泽市单县",
        "name": "山东省菏泽市单县",
        "parent_area": "山东省菏泽市",
        "value": 2
    },
    {
        "lng": "115.579437",
        "lat": "35.077275",
        "areaCode": "山东省菏泽市定陶县",
        "name": "山东省菏泽市定陶县",
        "parent_area": "山东省菏泽市",
        "value": 1
    },
    {
        "lng": "115.548457",
        "lat": "34.831809",
        "areaCode": "山东省菏泽市曹县",
        "name": "山东省菏泽市曹县",
        "parent_area": "山东省菏泽市",
        "value": 1
    },
    {
        "lng": "115.950451",
        "lat": "35.605902",
        "areaCode": "山东省菏泽市郓城县",
        "name": "山东省菏泽市郓城县",
        "parent_area": "山东省菏泽市",
        "value": 1
    },
    {
        "lng": "115.516607",
        "lat": "35.569204",
        "areaCode": "山东省菏泽市鄄城县",
        "name": "山东省菏泽市鄄城县",
        "parent_area": "山东省菏泽市",
        "value": 1
    },
    {
        "lng": "120.204547",
        "lat": "35.966383",
        "areaCode": "山东省青岛市黄岛区",
        "name": "山东省青岛市黄岛区",
        "parent_area": "山东省青岛市",
        "value": 1
    },
    {
        "lng": "111.785606",
        "lat": "37.151063",
        "areaCode": "山西省吕梁市孝义市",
        "name": "山西省吕梁市孝义市",
        "parent_area": "山西省吕梁市",
        "value": 2
    },
    {
        "lng": "110.89539",
        "lat": "37.435493",
        "areaCode": "山西省吕梁市柳林县",
        "name": "山西省吕梁市柳林县",
        "parent_area": "山西省吕梁市",
        "value": 1
    },
    {
        "lng": "112.522577",
        "lat": "37.864974",
        "areaCode": "山西省太原市万柏林区",
        "name": "山西省太原市万柏林区",
        "parent_area": "山西省太原市",
        "value": 1
    },
    {
        "lng": "111.803591",
        "lat": "38.073195",
        "areaCode": "山西省太原市娄烦县",
        "name": "山西省太原市娄烦县",
        "parent_area": "山西省太原市",
        "value": 1
    },
    {
        "lng": "113.385452",
        "lat": "37.088555",
        "areaCode": "山西省晋中市左权县",
        "name": "山西省晋中市左权县",
        "parent_area": "山西省晋中市",
        "value": 2
    },
    {
        "lng": "112.981599",
        "lat": "37.07637",
        "areaCode": "山西省晋中市榆社县",
        "name": "山西省晋中市榆社县",
        "parent_area": "山西省晋中市",
        "value": 2
    },
    {
        "lng": "112.903471",
        "lat": "23.16192",
        "areaCode": "广东省佛山市三水区",
        "name": "广东省佛山市三水区",
        "parent_area": "广东省佛山市",
        "value": 1
    },
    {
        "lng": "113.149446",
        "lat": "23.035011",
        "areaCode": "广东省佛山市南海区",
        "name": "广东省佛山市南海区",
        "parent_area": "广东省佛山市",
        "value": 1
    },
    {
        "lng": "113.129505",
        "lat": "23.015374",
        "areaCode": "广东省佛山市禅城区",
        "name": "广东省佛山市禅城区",
        "parent_area": "广东省佛山市",
        "value": 2
    },
    {
        "lng": "113.300453",
        "lat": "22.810453",
        "areaCode": "广东省佛山市顺德区",
        "name": "广东省佛山市顺德区",
        "parent_area": "广东省佛山市",
        "value": 3
    },
    {
        "lng": "112.899472",
        "lat": "22.90635",
        "areaCode": "广东省佛山市高明区",
        "name": "广东省佛山市高明区",
        "parent_area": "广东省佛山市",
        "value": 1
    },
    {
        "lng": "113.368509",
        "lat": "23.130358",
        "areaCode": "广东省广州市天河区",
        "name": "广东省广州市天河区",
        "parent_area": "广东省广州市",
        "value": 2
    },
    {
        "lng": "113.39047",
        "lat": "22.943831",
        "areaCode": "广东省广州市番禺区",
        "name": "广东省广州市番禺区",
        "parent_area": "广东省广州市",
        "value": 2
    },
    {
        "lng": "113.279433",
        "lat": "23.164317",
        "areaCode": "广东省广州市白云区",
        "name": "广东省广州市白云区",
        "parent_area": "广东省广州市",
        "value": 2
    },
    {
        "lng": "113.250502",
        "lat": "23.131791",
        "areaCode": "广东省广州市荔湾区",
        "name": "广东省广州市荔湾区",
        "parent_area": "广东省广州市",
        "value": 1
    },
    {
        "lng": "113.271431",
        "lat": "23.135336",
        "areaCode": "广东省广州市萝岗区",
        "name": "广东省广州市萝岗区",
        "parent_area": "广东省广州市",
        "value": 1
    },
    {
        "lng": "113.273426",
        "lat": "23.13526",
        "areaCode": "广东省广州市越秀区",
        "name": "广东省广州市越秀区",
        "parent_area": "广东省广州市",
        "value": 1
    },
    {
        "lng": "113.487071",
        "lat": "23.187492",
        "areaCode": "广东省广州市黄埔区",
        "name": "广东省广州市黄埔区",
        "parent_area": "广东省广州市",
        "value": 1
    },
    {
        "lng": "114.296573",
        "lat": "23.178806",
        "areaCode": "广东省惠州市博罗县",
        "name": "广东省惠州市博罗县",
        "parent_area": "广东省惠州市",
        "value": 1
    },
    {
        "lng": "114.726426",
        "lat": "22.991443",
        "areaCode": "广东省惠州市惠东县",
        "name": "广东省惠州市惠东县",
        "parent_area": "广东省惠州市",
        "value": 1
    },
    {
        "lng": "114.38949",
        "lat": "23.089726",
        "areaCode": "广东省惠州市惠城区",
        "name": "广东省惠州市惠城区",
        "parent_area": "广东省惠州市",
        "value": 4
    },
    {
        "lng": "114.463464",
        "lat": "22.794721",
        "areaCode": "广东省惠州市惠阳区",
        "name": "广东省惠州市惠阳区",
        "parent_area": "广东省惠州市",
        "value": 1
    },
    {
        "lng": "116.172449",
        "lat": "23.303635",
        "areaCode": "广东省揭阳市普宁市",
        "name": "广东省揭阳市普宁市",
        "parent_area": "广东省揭阳市",
        "value": 1
    },
    {
        "lng": "116.088562",
        "lat": "24.270999",
        "areaCode": "广东省梅州市梅县",
        "name": "广东省梅州市梅县",
        "parent_area": "广东省梅州市",
        "value": 1
    },
    {
        "lng": "115.329445",
        "lat": "22.972744",
        "areaCode": "广东省汕尾市海丰县",
        "name": "广东省汕尾市海丰县",
        "parent_area": "广东省汕尾市",
        "value": 1
    },
    {
        "lng": "112.311438",
        "lat": "22.189035",
        "areaCode": "广东省江门市恩平市",
        "name": "广东省江门市恩平市",
        "parent_area": "广东省江门市",
        "value": 1
    },
    {
        "lng": "114.708439",
        "lat": "23.740298",
        "areaCode": "广东省河源市源城区",
        "name": "广东省河源市源城区",
        "parent_area": "广东省河源市",
        "value": 1
    },
    {
        "lng": "114.495444",
        "lat": "24.375808",
        "areaCode": "广东省河源市连平县",
        "name": "广东省河源市连平县",
        "parent_area": "广东省河源市",
        "value": 1
    },
    {
        "lng": "113.538441",
        "lat": "23.885475",
        "areaCode": "广东省清远市佛冈县",
        "name": "广东省清远市佛冈县",
        "parent_area": "广东省清远市",
        "value": 1
    },
    {
        "lng": "113.421443",
        "lat": "24.191939",
        "areaCode": "广东省清远市英德市",
        "name": "广东省清远市英德市",
        "parent_area": "广东省清远市",
        "value": 1
    },
    {
        "lng": "110.292448",
        "lat": "21.615816",
        "areaCode": "广东省湛江市廉江市",
        "name": "广东省湛江市廉江市",
        "parent_area": "广东省湛江市",
        "value": 1
    },
    {
        "lng": "110.372533",
        "lat": "21.272135",
        "areaCode": "广东省湛江市赤坎区",
        "name": "广东省湛江市赤坎区",
        "parent_area": "广东省湛江市",
        "value": 1
    },
    {
        "lng": "110.340579",
        "lat": "21.269189",
        "areaCode": "广东省湛江市麻章区",
        "name": "广东省湛江市麻章区",
        "parent_area": "广东省湛江市",
        "value": 1
    },
    {
        "lng": "113.550472",
        "lat": "22.273004",
        "areaCode": "广东省珠海市香洲区",
        "name": "广东省珠海市香洲区",
        "parent_area": "广东省珠海市",
        "value": 1
    },
    {
        "lng": "112.447424",
        "lat": "23.641036",
        "areaCode": "广东省肇庆市广宁县",
        "name": "广东省肇庆市广宁县",
        "parent_area": "广东省肇庆市",
        "value": 1
    },
    {
        "lng": "111.791554",
        "lat": "23.151373",
        "areaCode": "广东省肇庆市德庆县",
        "name": "广东省肇庆市德庆县",
        "parent_area": "广东省肇庆市",
        "value": 1
    },
    {
        "lng": "112.191469",
        "lat": "23.917842",
        "areaCode": "广东省肇庆市怀集县",
        "name": "广东省肇庆市怀集县",
        "parent_area": "广东省肇庆市",
        "value": 2
    },
    {
        "lng": "110.646431",
        "lat": "21.670231",
        "areaCode": "广东省茂名市化州市",
        "name": "广东省茂名市化州市",
        "parent_area": "广东省茂名市",
        "value": 1
    },
    {
        "lng": "110.859474",
        "lat": "21.924049",
        "areaCode": "广东省茂名市高州市",
        "name": "广东省茂名市高州市",
        "parent_area": "广东省茂名市",
        "value": 1
    },
    {
        "lng": "113.354579",
        "lat": "25.135592",
        "areaCode": "广东省韶关市乐昌市",
        "name": "广东省韶关市乐昌市",
        "parent_area": "广东省韶关市",
        "value": 2
    },
    {
        "lng": "109.124521",
        "lat": "21.481066",
        "areaCode": "广西壮族自治区北海市海城区",
        "name": "广西壮族自治区北海市海城区",
        "parent_area": "广西壮族自治区北海市",
        "value": 3
    },
    {
        "lng": "109.146545",
        "lat": "21.454769",
        "areaCode": "广西壮族自治区北海市银海区",
        "name": "广西壮族自治区北海市银海区",
        "parent_area": "广西壮族自治区北海市",
        "value": 2
    },
    {
        "lng": "108.375445",
        "lat": "22.860291",
        "areaCode": "广西壮族自治区南宁市兴宁区",
        "name": "广西壮族自治区南宁市兴宁区",
        "parent_area": "广西壮族自治区南宁市",
        "value": 1
    },
    {
        "lng": "108.279494",
        "lat": "22.787046",
        "areaCode": "广西壮族自治区南宁市江南区",
        "name": "广西壮族自治区南宁市江南区",
        "parent_area": "广西壮族自治区南宁市",
        "value": 1
    },
    {
        "lng": "108.49342",
        "lat": "22.7646",
        "areaCode": "广西壮族自治区南宁市邕宁区",
        "name": "广西壮族自治区南宁市邕宁区",
        "parent_area": "广西壮族自治区南宁市",
        "value": 1
    },
    {
        "lng": "108.183562",
        "lat": "23.713878",
        "areaCode": "广西壮族自治区南宁市马山县",
        "name": "广西壮族自治区南宁市马山县",
        "parent_area": "广西壮族自治区南宁市",
        "value": 1
    },
    {
        "lng": "107.207557",
        "lat": "22.836229",
        "areaCode": "广西壮族自治区崇左市大新县",
        "name": "广西壮族自治区崇左市大新县",
        "parent_area": "广西壮族自治区崇左市",
        "value": 1
    },
    {
        "lng": "109.408532",
        "lat": "24.367867",
        "areaCode": "广西壮族自治区柳州市柳北区",
        "name": "广西壮族自治区柳州市柳北区",
        "parent_area": "广西壮族自治区柳州市",
        "value": 1
    },
    {
        "lng": "109.391552",
        "lat": "24.341579",
        "areaCode": "广西壮族自治区柳州市柳南区",
        "name": "广西壮族自治区柳州市柳南区",
        "parent_area": "广西壮族自治区柳州市",
        "value": 1
    },
    {
        "lng": "110.270437",
        "lat": "25.279618",
        "areaCode": "广西壮族自治区桂林市秀峰区",
        "name": "广西壮族自治区桂林市秀峰区",
        "parent_area": "广西壮族自治区桂林市",
        "value": 1
    },
    {
        "lng": "108.338337",
        "lat": "24.803718",
        "areaCode": "广西壮族自治区河池市环江毛南族自治县",
        "name": "广西壮族自治区河池市环江毛南族自治县",
        "parent_area": "广西壮族自治区河池市",
        "value": 1
    },
    {
        "lng": "108.043507",
        "lat": "24.695679",
        "areaCode": "广西壮族自治区河池市金城江区",
        "name": "广西壮族自治区河池市金城江区",
        "parent_area": "广西壮族自治区河池市",
        "value": 1
    },
    {
        "lng": "109.982553",
        "lat": "22.278675",
        "areaCode": "广西壮族自治区玉林市博白县",
        "name": "广西壮族自治区玉林市博白县",
        "parent_area": "广西壮族自治区玉林市",
        "value": 1
    },
    {
        "lng": "110.157431",
        "lat": "22.634493",
        "areaCode": "广西壮族自治区玉林市玉州区",
        "name": "广西壮族自治区玉林市玉州区",
        "parent_area": "广西壮族自治区玉林市",
        "value": 1
    },
    {
        "lng": "106.625589",
        "lat": "23.907085",
        "areaCode": "广西壮族自治区百色市右江区",
        "name": "广西壮族自治区百色市右江区",
        "parent_area": "广西壮族自治区百色市",
        "value": 1
    },
    {
        "lng": "110.085526",
        "lat": "23.400049",
        "areaCode": "广西壮族自治区贵港市桂平市",
        "name": "广西壮族自治区贵港市桂平市",
        "parent_area": "广西壮族自治区贵港市",
        "value": 1
    },
    {
        "lng": "109.578433",
        "lat": "23.117564",
        "areaCode": "广西壮族自治区贵港市港北区",
        "name": "广西壮族自治区贵港市港北区",
        "parent_area": "广西壮族自治区贵港市",
        "value": 1
    },
    {
        "lng": "109.459427",
        "lat": "23.133251",
        "areaCode": "广西壮族自治区贵港市覃塘区",
        "name": "广西壮族自治区贵港市覃塘区",
        "parent_area": "广西壮族自治区贵港市",
        "value": 1
    },
    {
        "lng": "108.386483",
        "lat": "21.649566",
        "areaCode": "广西壮族自治区防城港市港口区",
        "name": "广西壮族自治区防城港市港口区",
        "parent_area": "广西壮族自治区防城港市",
        "value": 1
    },
    {
        "lng": "87.60467",
        "lat": "43.807262",
        "areaCode": "新疆维吾尔自治区乌鲁木齐市沙依巴克区",
        "name": "新疆维吾尔自治区乌鲁木齐市沙依巴克区",
        "parent_area": "新疆维吾尔自治区乌鲁木齐市",
        "value": 1
    },
    {
        "lng": "89.187123",
        "lat": "44.005718",
        "areaCode": "新疆维吾尔自治区昌吉回族自治州吉木萨尔县",
        "name": "新疆维吾尔自治区昌吉回族自治州吉木萨尔县",
        "parent_area": "新疆维吾尔自治区昌吉回族自治州",
        "value": 1
    },
    {
        "lng": "118.846567",
        "lat": "31.958527",
        "areaCode": "江苏省南京市江宁区",
        "name": "江苏省南京市江宁区",
        "parent_area": "江苏省南京市",
        "value": 4
    },
    {
        "lng": "118.634604",
        "lat": "32.064679",
        "areaCode": "江苏省南京市浦口区",
        "name": "江苏省南京市浦口区",
        "parent_area": "江苏省南京市",
        "value": 1
    },
    {
        "lng": "118.804413",
        "lat": "32.054757",
        "areaCode": "江苏省南京市玄武区",
        "name": "江苏省南京市玄武区",
        "parent_area": "江苏省南京市",
        "value": 3
    },
    {
        "lng": "118.785445",
        "lat": "31.997859",
        "areaCode": "江苏省南京市雨花台区",
        "name": "江苏省南京市雨花台区",
        "parent_area": "江苏省南京市",
        "value": 1
    },
    {
        "lng": "118.776519",
        "lat": "32.072405",
        "areaCode": "江苏省南京市鼓楼区",
        "name": "江苏省南京市鼓楼区",
        "parent_area": "江苏省南京市",
        "value": 1
    },
    {
        "lng": "121.192438",
        "lat": "32.335873",
        "areaCode": "江苏省南通市如东县",
        "name": "江苏省南通市如东县",
        "parent_area": "江苏省南通市",
        "value": 1
    },
    {
        "lng": "120.579466",
        "lat": "32.377851",
        "areaCode": "江苏省南通市如皋市",
        "name": "江苏省南通市如皋市",
        "parent_area": "江苏省南通市",
        "value": 3
    },
    {
        "lng": "121.188436",
        "lat": "31.873612",
        "areaCode": "江苏省南通市海门市",
        "name": "江苏省南通市海门市",
        "parent_area": "江苏省南通市",
        "value": 1
    },
    {
        "lng": "120.824452",
        "lat": "32.037345",
        "areaCode": "江苏省南通市港闸区",
        "name": "江苏省南通市港闸区",
        "parent_area": "江苏省南通市",
        "value": 1
    },
    {
        "lng": "121.081425",
        "lat": "32.070356",
        "areaCode": "江苏省南通市通州区",
        "name": "江苏省南通市通州区",
        "parent_area": "江苏省南通市",
        "value": 1
    },
    {
        "lng": "118.249567",
        "lat": "33.968678",
        "areaCode": "江苏省宿迁市宿城区",
        "name": "江苏省宿迁市宿城区",
        "parent_area": "江苏省宿迁市",
        "value": 1
    },
    {
        "lng": "118.810419",
        "lat": "34.117454",
        "areaCode": "江苏省宿迁市沭阳县",
        "name": "江苏省宿迁市沭阳县",
        "parent_area": "江苏省宿迁市",
        "value": 2
    },
    {
        "lng": "119.948612",
        "lat": "31.706447",
        "areaCode": "江苏省常州市武进区",
        "name": "江苏省常州市武进区",
        "parent_area": "江苏省常州市",
        "value": 2
    },
    {
        "lng": "119.604571",
        "lat": "31.728893",
        "areaCode": "江苏省常州市金坛市",
        "name": "江苏省常州市金坛市",
        "parent_area": "江苏省常州市",
        "value": 1
    },
    {
        "lng": "119.908463",
        "lat": "31.807647",
        "areaCode": "江苏省常州市钟楼区",
        "name": "江苏省常州市钟楼区",
        "parent_area": "江苏省常州市",
        "value": 2
    },
    {
        "lng": "117.258424",
        "lat": "34.259087",
        "areaCode": "江苏省徐州市云龙区",
        "name": "江苏省徐州市云龙区",
        "parent_area": "江苏省徐州市",
        "value": 1
    },
    {
        "lng": "117.20059",
        "lat": "34.249943",
        "areaCode": "江苏省徐州市泉山区",
        "name": "江苏省徐州市泉山区",
        "parent_area": "江苏省徐州市",
        "value": 2
    },
    {
        "lng": "117.947433",
        "lat": "33.918789",
        "areaCode": "江苏省徐州市睢宁县",
        "name": "江苏省徐州市睢宁县",
        "parent_area": "江苏省徐州市",
        "value": 2
    },
    {
        "lng": "117.17557",
        "lat": "34.1861",
        "areaCode": "江苏省徐州市铜山区",
        "name": "江苏省徐州市铜山区",
        "parent_area": "江苏省徐州市",
        "value": 1
    },
    {
        "lng": "119.438505",
        "lat": "32.400661",
        "areaCode": "江苏省扬州市广陵区",
        "name": "江苏省扬州市广陵区",
        "parent_area": "江苏省扬州市",
        "value": 1
    },
    {
        "lng": "119.576603",
        "lat": "32.440295",
        "areaCode": "江苏省扬州市江都区",
        "name": "江苏省扬州市江都区",
        "parent_area": "江苏省扬州市",
        "value": 1
    },
    {
        "lng": "120.304596",
        "lat": "31.686741",
        "areaCode": "江苏省无锡市惠山区",
        "name": "江苏省无锡市惠山区",
        "parent_area": "江苏省无锡市",
        "value": 1
    },
    {
        "lng": "120.291548",
        "lat": "31.53464",
        "areaCode": "江苏省无锡市滨湖区",
        "name": "江苏省无锡市滨湖区",
        "parent_area": "江苏省无锡市",
        "value": 4
    },
    {
        "lng": "119.857514",
        "lat": "32.917824",
        "areaCode": "江苏省泰州市兴化市",
        "name": "江苏省泰州市兴化市",
        "parent_area": "江苏省泰州市",
        "value": 1
    },
    {
        "lng": "120.133398",
        "lat": "32.515234",
        "areaCode": "江苏省泰州市姜堰区",
        "name": "江苏省泰州市姜堰区",
        "parent_area": "江苏省泰州市",
        "value": 2
    },
    {
        "lng": "120.283532",
        "lat": "31.98817",
        "areaCode": "江苏省泰州市靖江市",
        "name": "江苏省泰州市靖江市",
        "parent_area": "江苏省泰州市",
        "value": 2
    },
    {
        "lng": "119.266448",
        "lat": "33.787079",
        "areaCode": "江苏省淮安市涟水县",
        "name": "江苏省淮安市涟水县",
        "parent_area": "江苏省淮安市",
        "value": 1
    },
    {
        "lng": "119.147463",
        "lat": "33.509",
        "areaCode": "江苏省淮安市淮安区",
        "name": "江苏省淮安市淮安区",
        "parent_area": "江苏省淮安市",
        "value": 1
    },
    {
        "lng": "120.204578",
        "lat": "33.395893",
        "areaCode": "江苏省盐城市亭湖区",
        "name": "江苏省盐城市亭湖区",
        "parent_area": "江苏省盐城市",
        "value": 1
    },
    {
        "lng": "120.264446",
        "lat": "33.781014",
        "areaCode": "江苏省盐城市射阳县",
        "name": "江苏省盐城市射阳县",
        "parent_area": "江苏省盐城市",
        "value": 1
    },
    {
        "lng": "119.827621",
        "lat": "33.995647",
        "areaCode": "江苏省盐城市滨海县",
        "name": "江苏省盐城市滨海县",
        "parent_area": "江苏省盐城市",
        "value": 2
    },
    {
        "lng": "120.651567",
        "lat": "31.144644",
        "areaCode": "江苏省苏州市吴江区",
        "name": "江苏省苏州市吴江区",
        "parent_area": "江苏省苏州市",
        "value": 2
    },
    {
        "lng": "121.135595",
        "lat": "31.464599",
        "areaCode": "江苏省苏州市太仓市",
        "name": "江苏省苏州市太仓市",
        "parent_area": "江苏省苏州市",
        "value": 1
    },
    {
        "lng": "120.759496",
        "lat": "31.659538",
        "areaCode": "江苏省苏州市常熟市",
        "name": "江苏省苏州市常熟市",
        "parent_area": "江苏省苏州市",
        "value": 1
    },
    {
        "lng": "120.561554",
        "lat": "31.881141",
        "areaCode": "江苏省苏州市张家港市",
        "name": "江苏省苏州市张家港市",
        "parent_area": "江苏省苏州市",
        "value": 1
    },
    {
        "lng": "118.759565",
        "lat": "34.547919",
        "areaCode": "江苏省连云港市东海县",
        "name": "江苏省连云港市东海县",
        "parent_area": "江苏省连云港市",
        "value": 5
    },
    {
        "lng": "120.578472",
        "lat": "31.301933",
        "areaCode": "江苏省苏州市虎丘区",
        "name": "江苏省苏州市虎丘区",
        "parent_area": "江苏省苏州市",
        "value": 1
    },
    {
        "lng": "119.169408",
        "lat": "34.577456",
        "areaCode": "江苏省连云港市新浦区",
        "name": "江苏省连云港市新浦区",
        "parent_area": "江苏省连云港市",
        "value": 1
    },
    {
        "lng": "119.246534",
        "lat": "34.288616",
        "areaCode": "江苏省连云港市灌云县",
        "name": "江苏省连云港市灌云县",
        "parent_area": "江苏省连云港市",
        "value": 1
    },
    {
        "lng": "119.612501",
        "lat": "32.01592",
        "areaCode": "江苏省镇江市丹阳市",
        "name": "江苏省镇江市丹阳市",
        "parent_area": "江苏省镇江市",
        "value": 1
    },
    {
        "lng": "119.175433",
        "lat": "31.950923",
        "areaCode": "江苏省镇江市句容市",
        "name": "江苏省镇江市句容市",
        "parent_area": "江苏省镇江市",
        "value": 1
    },
    {
        "lng": "119.475604",
        "lat": "32.203785",
        "areaCode": "江苏省镇江市京口区",
        "name": "江苏省镇江市京口区",
        "parent_area": "江苏省镇江市",
        "value": 1
    },
    {
        "lng": "117.915584",
        "lat": "28.454187",
        "areaCode": "江西省上饶市上饶县",
        "name": "江西省上饶市上饶县",
        "parent_area": "江西省上饶市",
        "value": 1
    },
    {
        "lng": "116.701601",
        "lat": "28.707866",
        "areaCode": "江西省上饶市余干县",
        "name": "江西省上饶市余干县",
        "parent_area": "江西省上饶市",
        "value": 2
    },
    {
        "lng": "118.19742",
        "lat": "28.442615",
        "areaCode": "江西省上饶市广丰县",
        "name": "江西省上饶市广丰县",
        "parent_area": "江西省上饶市",
        "value": 2
    },
    {
        "lng": "117.58548",
        "lat": "28.952565",
        "areaCode": "江西省上饶市德兴市",
        "name": "江西省上饶市德兴市",
        "parent_area": "江西省上饶市",
        "value": 1
    },
    {
        "lng": "117.716422",
        "lat": "28.321505",
        "areaCode": "江西省上饶市铅山县",
        "name": "江西省上饶市铅山县",
        "parent_area": "江西省上饶市",
        "value": 1
    },
    {
        "lng": "116.710566",
        "lat": "29.011453",
        "areaCode": "江西省上饶市鄱阳县",
        "name": "江西省上饶市鄱阳县",
        "parent_area": "江西省上饶市",
        "value": 3
    },
    {
        "lng": "114.553568",
        "lat": "29.031176",
        "areaCode": "江西省九江市修水县",
        "name": "江西省九江市修水县",
        "parent_area": "江西省九江市",
        "value": 5
    },
    {
        "lng": "115.921771",
        "lat": "29.714379",
        "areaCode": "江西省九江市九江县",
        "name": "江西省九江市九江县",
        "parent_area": "江西省九江市",
        "value": 4
    },
    {
        "lng": "116.55551",
        "lat": "29.902122",
        "areaCode": "江西省九江市彭泽县",
        "name": "江西省九江市彭泽县",
        "parent_area": "江西省九江市",
        "value": 1
    },
    {
        "lng": "116.051426",
        "lat": "29.454539",
        "areaCode": "江西省九江市庐山区",
        "name": "江西省九江市庐山区",
        "parent_area": "江西省九江市",
        "value": 1
    },
    {
        "lng": "116.051426",
        "lat": "29.454539",
        "areaCode": "江西省九江市星子县",
        "name": "江西省九江市星子县",
        "parent_area": "江西省九江市",
        "value": 1
    },
    {
        "lng": "115.107442",
        "lat": "29.262352",
        "areaCode": "江西省九江市武宁县",
        "name": "江西省九江市武宁县",
        "parent_area": "江西省九江市",
        "value": 1
    },
    {
        "lng": "115.996558",
        "lat": "29.733094",
        "areaCode": "江西省九江市浔阳区",
        "name": "江西省九江市浔阳区",
        "parent_area": "江西省九江市",
        "value": 1
    },
    {
        "lng": "115.68743",
        "lat": "29.681951",
        "areaCode": "江西省九江市瑞昌市",
        "name": "江西省九江市瑞昌市",
        "parent_area": "江西省九江市",
        "value": 7
    },
    {
        "lng": "116.210552",
        "lat": "29.278965",
        "areaCode": "江西省九江市都昌县",
        "name": "江西省九江市都昌县",
        "parent_area": "江西省九江市",
        "value": 2
    },
    {
        "lng": "115.95046",
        "lat": "28.551604",
        "areaCode": "江西省南昌市南昌县",
        "name": "江西省南昌市南昌县",
        "parent_area": "江西省南昌市",
        "value": 4
    },
    {
        "lng": "115.905466",
        "lat": "28.691259",
        "areaCode": "江西省南昌市东湖区",
        "name": "江西省南昌市东湖区",
        "parent_area": "江西省南昌市",
        "value": 1
    },
    {
        "lng": "115.821451",
        "lat": "28.698749",
        "areaCode": "江西省南昌市新建县",
        "name": "江西省南昌市新建县",
        "parent_area": "江西省南昌市",
        "value": 2
    },
    {
        "lng": "115.555441",
        "lat": "28.850794",
        "areaCode": "江西省南昌市安义县",
        "name": "江西省南昌市安义县",
        "parent_area": "江西省南昌市",
        "value": 3
    },
    {
        "lng": "115.883536",
        "lat": "28.661977",
        "areaCode": "江西省南昌市西湖区",
        "name": "江西省南昌市西湖区",
        "parent_area": "江西省南昌市",
        "value": 1
    },
    {
        "lng": "116.248538",
        "lat": "28.382759",
        "areaCode": "江西省南昌市进贤县",
        "name": "江西省南昌市进贤县",
        "parent_area": "江西省南昌市",
        "value": 1
    },
    {
        "lng": "115.968552",
        "lat": "28.687596",
        "areaCode": "江西省南昌市青山湖区",
        "name": "江西省南昌市青山湖区",
        "parent_area": "江西省南昌市",
        "value": 3
    },
    {
        "lng": "115.001539",
        "lat": "27.149315",
        "areaCode": "江西省吉安市吉州区",
        "name": "江西省吉安市吉州区",
        "parent_area": "江西省吉安市",
        "value": 1
    },
    {
        "lng": "115.14257",
        "lat": "27.23526",
        "areaCode": "江西省吉安市吉水县",
        "name": "江西省吉安市吉水县",
        "parent_area": "江西省吉安市",
        "value": 1
    },
    {
        "lng": "115.393595",
        "lat": "27.746081",
        "areaCode": "江西省吉安市新干县",
        "name": "江西省吉安市新干县",
        "parent_area": "江西省吉安市",
        "value": 1
    },
    {
        "lng": "115.447402",
        "lat": "27.324342",
        "areaCode": "江西省吉安市永丰县",
        "name": "江西省吉安市永丰县",
        "parent_area": "江西省吉安市",
        "value": 1
    },
    {
        "lng": "114.915591",
        "lat": "26.795697",
        "areaCode": "江西省吉安市泰和县",
        "name": "江西省吉安市泰和县",
        "parent_area": "江西省吉安市",
        "value": 1
    },
    {
        "lng": "114.931541",
        "lat": "28.238815",
        "areaCode": "江西省宜春市上高县",
        "name": "江西省宜春市上高县",
        "parent_area": "江西省宜春市",
        "value": 1
    },
    {
        "lng": "115.777478",
        "lat": "28.166614",
        "areaCode": "江西省宜春市丰城市",
        "name": "江西省宜春市丰城市",
        "parent_area": "江西省宜春市",
        "value": 5
    },
    {
        "lng": "115.552419",
        "lat": "28.062153",
        "areaCode": "江西省宜春市樟树市",
        "name": "江西省宜春市樟树市",
        "parent_area": "江西省宜春市",
        "value": 1
    },
    {
        "lng": "114.434561",
        "lat": "27.802583",
        "areaCode": "江西省宜春市袁州区",
        "name": "江西省宜春市袁州区",
        "parent_area": "江西省宜春市",
        "value": 2
    },
    {
        "lng": "115.382565",
        "lat": "28.422857",
        "areaCode": "江西省宜春市高安市",
        "name": "江西省宜春市高安市",
        "parent_area": "江西省宜春市",
        "value": 1
    },
    {
        "lng": "115.369553",
        "lat": "28.867082",
        "areaCode": "江西省宜春市靖安县",
        "name": "江西省宜春市靖安县",
        "parent_area": "江西省宜春市",
        "value": 1
    },
    {
        "lng": "114.951424",
        "lat": "27.80684",
        "areaCode": "江西省新余市渝水区",
        "name": "江西省新余市渝水区",
        "parent_area": "江西省新余市",
        "value": 3
    },
    {
        "lng": "117.158511",
        "lat": "28.984364",
        "areaCode": "江西省景德镇市乐平市",
        "name": "江西省景德镇市乐平市",
        "parent_area": "江西省景德镇市",
        "value": 3
    },
    {
        "lng": "117.190579",
        "lat": "29.278854",
        "areaCode": "江西省景德镇市昌江区",
        "name": "江西省景德镇市昌江区",
        "parent_area": "江西省景德镇市",
        "value": 1
    },
    {
        "lng": "113.801538",
        "lat": "27.886416",
        "areaCode": "江西省萍乡市上栗县",
        "name": "江西省萍乡市上栗县",
        "parent_area": "江西省萍乡市",
        "value": 3
    },
    {
        "lng": "114.036519",
        "lat": "27.636605",
        "areaCode": "江西省萍乡市芦溪县",
        "name": "江西省萍乡市芦溪县",
        "parent_area": "江西省萍乡市",
        "value": 1
    },
    {
        "lng": "115.421499",
        "lat": "25.957894",
        "areaCode": "江西省赣州市于都县",
        "name": "江西省赣州市于都县",
        "parent_area": "江西省赣州市",
        "value": 1
    },
    {
        "lng": "115.79246",
        "lat": "25.606662",
        "areaCode": "江西省赣州市会昌县",
        "name": "江西省赣州市会昌县",
        "parent_area": "江西省赣州市",
        "value": 1
    },
    {
        "lng": "115.369552",
        "lat": "26.343883",
        "areaCode": "江西省赣州市兴国县",
        "name": "江西省赣州市兴国县",
        "parent_area": "江西省赣州市",
        "value": 1
    },
    {
        "lng": "114.368407",
        "lat": "25.407637",
        "areaCode": "江西省赣州市大余县",
        "name": "江西省赣州市大余县",
        "parent_area": "江西省赣州市",
        "value": 1
    },
    {
        "lng": "116.015494",
        "lat": "26.47598",
        "areaCode": "江西省赣州市宁都县",
        "name": "江西省赣州市宁都县",
        "parent_area": "江西省赣州市",
        "value": 1
    },
    {
        "lng": "114.314572",
        "lat": "25.687687",
        "areaCode": "江西省赣州市崇义县",
        "name": "江西省赣州市崇义县",
        "parent_area": "江西省赣州市",
        "value": 1
    },
    {
        "lng": "114.927551",
        "lat": "25.823747",
        "areaCode": "江西省赣州市章贡区",
        "name": "江西省赣州市章贡区",
        "parent_area": "江西省赣州市",
        "value": 2
    },
    {
        "lng": "114.796554",
        "lat": "24.916599",
        "areaCode": "江西省赣州市龙南县",
        "name": "江西省赣州市龙南县",
        "parent_area": "江西省赣州市",
        "value": 1
    },
    {
        "lng": "117.043548",
        "lat": "28.245078",
        "areaCode": "江西省鹰潭市月湖区",
        "name": "江西省鹰潭市月湖区",
        "parent_area": "江西省鹰潭市",
        "value": 1
    },
    {
        "lng": "114.989447",
        "lat": "38.75402",
        "areaCode": "河北省保定市唐县",
        "name": "河北省保定市唐县",
        "parent_area": "河北省保定市",
        "value": 1
    },
    {
        "lng": "115.98162",
        "lat": "39.491066",
        "areaCode": "河北省保定市涿州市",
        "name": "河北省保定市涿州市",
        "parent_area": "河北省保定市",
        "value": 1
    },
    {
        "lng": "115.590445",
        "lat": "38.494201",
        "areaCode": "河北省保定市蠡县",
        "name": "河北省保定市蠡县",
        "parent_area": "河北省保定市",
        "value": 3
    },
    {
        "lng": "116.114601",
        "lat": "39.00018",
        "areaCode": "河北省保定市雄县",
        "name": "河北省保定市雄县",
        "parent_area": "河北省保定市",
        "value": 1
    },
    {
        "lng": "118.706457",
        "lat": "40.004184",
        "areaCode": "河北省唐山市迁安市",
        "name": "河北省唐山市迁安市",
        "parent_area": "河北省唐山市",
        "value": 1
    },
    {
        "lng": "117.972375",
        "lat": "40.195533",
        "areaCode": "河北省唐山市遵化市",
        "name": "河北省唐山市遵化市",
        "parent_area": "河北省唐山市",
        "value": 1
    },
    {
        "lng": "116.30542",
        "lat": "39.444485",
        "areaCode": "河北省廊坊市固安县",
        "name": "河北省廊坊市固安县",
        "parent_area": "河北省廊坊市",
        "value": 1
    },
    {
        "lng": "118.707427",
        "lat": "41.023756",
        "areaCode": "河北省承德市平泉县",
        "name": "河北省承德市平泉县",
        "parent_area": "河北省承德市",
        "value": 1
    },
    {
        "lng": "117.745451",
        "lat": "41.319899",
        "areaCode": "河北省承德市隆化县",
        "name": "河北省承德市隆化县",
        "parent_area": "河北省承德市",
        "value": 1
    },
    {
        "lng": "117.110436",
        "lat": "38.059839",
        "areaCode": "河北省沧州市孟村回族自治县",
        "name": "河北省沧州市孟村回族自治县",
        "parent_area": "河北省沧州市",
        "value": 1
    },
    {
        "lng": "116.872433",
        "lat": "38.320367",
        "areaCode": "河北省沧州市新华区",
        "name": "河北省沧州市新华区",
        "parent_area": "河北省沧州市",
        "value": 1
    },
    {
        "lng": "116.884398",
        "lat": "38.299453",
        "areaCode": "河北省沧州市沧县",
        "name": "河北省沧州市沧县",
        "parent_area": "河北省沧州市",
        "value": 1
    },
    {
        "lng": "116.584628",
        "lat": "38.089257",
        "areaCode": "河北省沧州市泊头市",
        "name": "河北省沧州市泊头市",
        "parent_area": "河北省沧州市",
        "value": 2
    },
    {
        "lng": "116.12956",
        "lat": "38.195981",
        "areaCode": "河北省沧州市献县",
        "name": "河北省沧州市献县",
        "parent_area": "河北省沧州市",
        "value": 1
    },
    {
        "lng": "114.532566",
        "lat": "37.772339",
        "areaCode": "河北省石家庄市元氏县",
        "name": "河北省石家庄市元氏县",
        "parent_area": "河北省石家庄市",
        "value": 1
    },
    {
        "lng": "115.050529",
        "lat": "38.039491",
        "areaCode": "河北省石家庄市晋州市",
        "name": "河北省石家庄市晋州市",
        "parent_area": "河北省石家庄市",
        "value": 1
    },
    {
        "lng": "114.577481",
        "lat": "38.151714",
        "areaCode": "河北省石家庄市正定县",
        "name": "河北省石家庄市正定县",
        "parent_area": "河北省石家庄市",
        "value": 1
    },
    {
        "lng": "114.389478",
        "lat": "38.314629",
        "areaCode": "河北省石家庄市灵寿县",
        "name": "河北省石家庄市灵寿县",
        "parent_area": "河北省石家庄市",
        "value": 1
    },
    {
        "lng": "114.559607",
        "lat": "38.444239",
        "areaCode": "河北省石家庄市行唐县",
        "name": "河北省石家庄市行唐县",
        "parent_area": "河北省石家庄市",
        "value": 1
    },
    {
        "lng": "115.224451",
        "lat": "37.949309",
        "areaCode": "河北省石家庄市辛集市",
        "name": "河北省石家庄市辛集市",
        "parent_area": "河北省石家庄市",
        "value": 1
    },
    {
        "lng": "119.491526",
        "lat": "39.841006",
        "areaCode": "河北省秦皇岛市北戴河区",
        "name": "河北省秦皇岛市北戴河区",
        "parent_area": "河北省秦皇岛市",
        "value": 1
    },
    {
        "lng": "115.58543",
        "lat": "37.557086",
        "areaCode": "河北省衡水市冀州市",
        "name": "河北省衡水市冀州市",
        "parent_area": "河北省衡水市",
        "value": 2
    },
    {
        "lng": "115.989614",
        "lat": "38.046857",
        "areaCode": "河北省衡水市武强县",
        "name": "河北省衡水市武强县",
        "parent_area": "河北省衡水市",
        "value": 1
    },
    {
        "lng": "115.273618",
        "lat": "36.981582",
        "areaCode": "河北省邢台市威县",
        "name": "河北省邢台市威县",
        "parent_area": "河北省邢台市",
        "value": 1
    },
    {
        "lng": "114.776616",
        "lat": "37.355908",
        "areaCode": "河北省邢台市隆尧县",
        "name": "河北省邢台市隆尧县",
        "parent_area": "河北省邢台市",
        "value": 1
    },
    {
        "lng": "114.499433",
        "lat": "36.642673",
        "areaCode": "河北省邯郸市丛台区",
        "name": "河北省邯郸市丛台区",
        "parent_area": "河北省邯郸市",
        "value": 1
    },
    {
        "lng": "114.380432",
        "lat": "36.380359",
        "areaCode": "河北省邯郸市磁县",
        "name": "河北省邯郸市磁县",
        "parent_area": "河北省邯郸市",
        "value": 2
    },
    {
        "lng": "115.193395",
        "lat": "36.817362",
        "areaCode": "河北省邯郸市邱县",
        "name": "河北省邯郸市邱县",
        "parent_area": "河北省邯郸市",
        "value": 1
    },
    {
        "lng": "114.925533",
        "lat": "32.015907",
        "areaCode": "河南省信阳市光山县",
        "name": "河南省信阳市光山县",
        "parent_area": "河南省信阳市",
        "value": 13
    },
    {
        "lng": "111.109451",
        "lat": "34.726915",
        "areaCode": "河南省三门峡市陕县",
        "name": "河南省三门峡市陕县",
        "parent_area": "河南省三门峡市",
        "value": 1
    },
    {
        "lng": "115.413513",
        "lat": "31.804345",
        "areaCode": "河南省信阳市商城县",
        "name": "河南省信阳市商城县",
        "parent_area": "河南省信阳市",
        "value": 4
    },
    {
        "lng": "115.660488",
        "lat": "32.174174",
        "areaCode": "河南省信阳市固始县",
        "name": "河南省信阳市固始县",
        "parent_area": "河南省信阳市",
        "value": 7
    },
    {
        "lng": "114.747453",
        "lat": "32.348956",
        "areaCode": "河南省信阳市息县",
        "name": "河南省信阳市息县",
        "parent_area": "河南省信阳市",
        "value": 7
    },
    {
        "lng": "114.132407",
        "lat": "32.107325",
        "areaCode": "河南省信阳市平桥区",
        "name": "河南省信阳市平桥区",
        "parent_area": "河南省信阳市",
        "value": 8
    },
    {
        "lng": "114.885525",
        "lat": "31.649738",
        "areaCode": "河南省信阳市新县",
        "name": "河南省信阳市新县",
        "parent_area": "河南省信阳市",
        "value": 3
    },
    {
        "lng": "114.065581",
        "lat": "32.122554",
        "areaCode": "河南省信阳市浉河区",
        "name": "河南省信阳市浉河区",
        "parent_area": "河南省信阳市",
        "value": 6
    },
    {
        "lng": "115.426439",
        "lat": "32.47947",
        "areaCode": "河南省信阳市淮滨县",
        "name": "河南省信阳市淮滨县",
        "parent_area": "河南省信阳市",
        "value": 3
    },
    {
        "lng": "115.058471",
        "lat": "32.137531",
        "areaCode": "河南省信阳市潢川县",
        "name": "河南省信阳市潢川县",
        "parent_area": "河南省信阳市",
        "value": 8
    },
    {
        "lng": "114.51953",
        "lat": "32.20915",
        "areaCode": "河南省信阳市罗山县",
        "name": "河南省信阳市罗山县",
        "parent_area": "河南省信阳市",
        "value": 7
    },
    {
        "lng": "111.855425",
        "lat": "33.051203",
        "areaCode": "河南省南阳市内乡县",
        "name": "河南省南阳市内乡县",
        "parent_area": "河南省南阳市",
        "value": 4
    },
    {
        "lng": "112.541462",
        "lat": "32.992484",
        "areaCode": "河南省南阳市卧龙区",
        "name": "河南省南阳市卧龙区",
        "parent_area": "河南省南阳市",
        "value": 1
    },
    {
        "lng": "112.813424",
        "lat": "32.687721",
        "areaCode": "河南省南阳市唐河县",
        "name": "河南省南阳市唐河县",
        "parent_area": "河南省南阳市",
        "value": 7
    },
    {
        "lng": "112.546454",
        "lat": "33.00987",
        "areaCode": "河南省南阳市宛城区",
        "name": "河南省南阳市宛城区",
        "parent_area": "河南省南阳市",
        "value": 7
    },
    {
        "lng": "112.36655",
        "lat": "32.526632",
        "areaCode": "河南省南阳市新野县",
        "name": "河南省南阳市新野县",
        "parent_area": "河南省南阳市",
        "value": 2
    },
    {
        "lng": "113.434473",
        "lat": "32.385131",
        "areaCode": "河南省南阳市桐柏县",
        "name": "河南省南阳市桐柏县",
        "parent_area": "河南省南阳市",
        "value": 1
    },
    {
        "lng": "111.497432",
        "lat": "33.144185",
        "areaCode": "河南省南阳市淅川县",
        "name": "河南省南阳市淅川县",
        "parent_area": "河南省南阳市",
        "value": 1
    },
    {
        "lng": "112.954493",
        "lat": "33.062237",
        "areaCode": "河南省南阳市社旗县",
        "name": "河南省南阳市社旗县",
        "parent_area": "河南省南阳市",
        "value": 3
    },
    {
        "lng": "112.09342",
        "lat": "32.693917",
        "areaCode": "河南省南阳市邓州市",
        "name": "河南省南阳市邓州市",
        "parent_area": "河南省南阳市",
        "value": 7
    },
    {
        "lng": "112.241544",
        "lat": "33.039719",
        "areaCode": "河南省南阳市镇平县",
        "name": "河南省南阳市镇平县",
        "parent_area": "河南省南阳市",
        "value": 3
    },
    {
        "lng": "116.137512",
        "lat": "34.243523",
        "areaCode": "河南省商丘市夏邑县",
        "name": "河南省商丘市夏邑县",
        "parent_area": "河南省商丘市",
        "value": 4
    },
    {
        "lng": "115.320418",
        "lat": "34.466634",
        "areaCode": "河南省商丘市宁陵县",
        "name": "河南省商丘市宁陵县",
        "parent_area": "河南省商丘市",
        "value": 2
    },
    {
        "lng": "115.312435",
        "lat": "34.09736",
        "areaCode": "河南省商丘市柘城县",
        "name": "河南省商丘市柘城县",
        "parent_area": "河南省商丘市",
        "value": 2
    },
    {
        "lng": "115.154576",
        "lat": "34.652479",
        "areaCode": "河南省商丘市民权县",
        "name": "河南省商丘市民权县",
        "parent_area": "河南省商丘市",
        "value": 2
    },
    {
        "lng": "116.455566",
        "lat": "33.934801",
        "areaCode": "河南省商丘市永城市",
        "name": "河南省商丘市永城市",
        "parent_area": "河南省商丘市",
        "value": 4
    },
    {
        "lng": "115.659476",
        "lat": "34.394152",
        "areaCode": "河南省商丘市睢阳区",
        "name": "河南省商丘市睢阳区",
        "parent_area": "河南省商丘市",
        "value": 1
    },
    {
        "lng": "115.834473",
        "lat": "34.405332",
        "areaCode": "河南省商丘市虞城县",
        "name": "河南省商丘市虞城县",
        "parent_area": "河南省商丘市",
        "value": 2
    },
    {
        "lng": "113.250515",
        "lat": "33.68579",
        "areaCode": "河南省平顶山市湛河区",
        "name": "河南省平顶山市湛河区",
        "parent_area": "河南省平顶山市",
        "value": 1
    },
    {
        "lng": "113.219606",
        "lat": "33.977486",
        "areaCode": "河南省平顶山市郏县",
        "name": "河南省平顶山市郏县",
        "parent_area": "河南省平顶山市",
        "value": 1
    },
    {
        "lng": "112.914434",
        "lat": "33.744879",
        "areaCode": "河南省平顶山市鲁山县",
        "name": "河南省平顶山市鲁山县",
        "parent_area": "河南省平顶山市",
        "value": 2
    },
    {
        "lng": "114.827461",
        "lat": "34.828493",
        "areaCode": "河南省开封市兰考县",
        "name": "河南省开封市兰考县",
        "parent_area": "河南省开封市",
        "value": 2
    },
    {
        "lng": "114.199561",
        "lat": "34.417228",
        "areaCode": "河南省开封市尉氏县",
        "name": "河南省开封市尉氏县",
        "parent_area": "河南省开封市",
        "value": 1
    },
    {
        "lng": "114.447533",
        "lat": "34.76274",
        "areaCode": "河南省开封市开封县",
        "name": "河南省开封市开封县",
        "parent_area": "河南省开封市",
        "value": 2
    },
    {
        "lng": "114.473436",
        "lat": "34.486772",
        "areaCode": "河南省开封市通许县",
        "name": "河南省开封市通许县",
        "parent_area": "河南省开封市",
        "value": 2
    },
    {
        "lng": "114.071601",
        "lat": "35.404069",
        "areaCode": "河南省新乡市卫辉市",
        "name": "河南省新乡市卫辉市",
        "parent_area": "河南省新乡市",
        "value": 2
    },
    {
        "lng": "113.946624",
        "lat": "35.071164",
        "areaCode": "河南省新乡市原阳县",
        "name": "河南省新乡市原阳县",
        "parent_area": "河南省新乡市",
        "value": 1
    },
    {
        "lng": "113.881416",
        "lat": "35.310136",
        "areaCode": "河南省新乡市红旗区",
        "name": "河南省新乡市红旗区",
        "parent_area": "河南省新乡市",
        "value": 1
    },
    {
        "lng": "114.67561",
        "lat": "35.207198",
        "areaCode": "河南省新乡市长垣县",
        "name": "河南省新乡市长垣县",
        "parent_area": "河南省新乡市",
        "value": 1
    },
    {
        "lng": "112.432407",
        "lat": "34.427646",
        "areaCode": "河南省洛阳市伊川县",
        "name": "河南省洛阳市伊川县",
        "parent_area": "河南省洛阳市",
        "value": 2
    },
    {
        "lng": "112.796421",
        "lat": "34.733797",
        "areaCode": "河南省洛阳市偃师市",
        "name": "河南省洛阳市偃师市",
        "parent_area": "河南省洛阳市",
        "value": 1
    },
    {
        "lng": "112.479503",
        "lat": "34.159843",
        "areaCode": "河南省洛阳市汝阳县",
        "name": "河南省洛阳市汝阳县",
        "parent_area": "河南省洛阳市",
        "value": 1
    },
    {
        "lng": "111.659587",
        "lat": "34.394985",
        "areaCode": "河南省洛阳市洛宁县",
        "name": "河南省洛阳市洛宁县",
        "parent_area": "河南省洛阳市",
        "value": 1
    },
    {
        "lng": "112.402552",
        "lat": "34.663469",
        "areaCode": "河南省洛阳市涧西区",
        "name": "河南省洛阳市涧西区",
        "parent_area": "河南省洛阳市",
        "value": 1
    },
    {
        "lng": "114.100467",
        "lat": "33.592468",
        "areaCode": "河南省漯河市召陵区",
        "name": "河南省漯河市召陵区",
        "parent_area": "河南省漯河市",
        "value": 4
    },
    {
        "lng": "113.937578",
        "lat": "33.832692",
        "areaCode": "河南省漯河市临颍县",
        "name": "河南省漯河市临颍县",
        "parent_area": "河南省漯河市",
        "value": 3
    },
    {
        "lng": "113.990414",
        "lat": "33.578423",
        "areaCode": "河南省漯河市源汇区",
        "name": "河南省漯河市源汇区",
        "parent_area": "河南省漯河市",
        "value": 2
    },
    {
        "lng": "113.61549",
        "lat": "33.443578",
        "areaCode": "河南省漯河市舞阳县",
        "name": "河南省漯河市舞阳县",
        "parent_area": "河南省漯河市",
        "value": 3
    },
    {
        "lng": "114.013394",
        "lat": "33.593416",
        "areaCode": "河南省漯河市郾城区",
        "name": "河南省漯河市郾城区",
        "parent_area": "河南省漯河市",
        "value": 1
    },
    {
        "lng": "113.086569",
        "lat": "34.946135",
        "areaCode": "河南省焦作市温县",
        "name": "河南省焦作市温县",
        "parent_area": "河南省焦作市",
        "value": 1
    },
    {
        "lng": "113.237572",
        "lat": "35.24631",
        "areaCode": "河南省焦作市解放区",
        "name": "河南省焦作市解放区",
        "parent_area": "河南省焦作市",
        "value": 1
    },
    {
        "lng": "113.328544",
        "lat": "35.261894",
        "areaCode": "河南省焦作市马村区",
        "name": "河南省焦作市马村区",
        "parent_area": "河南省焦作市",
        "value": 1
    },
    {
        "lng": "113.495224",
        "lat": "34.148267",
        "areaCode": "河南省许昌市禹州市",
        "name": "河南省许昌市禹州市",
        "parent_area": "河南省许昌市",
        "value": 3
    },
    {
        "lng": "113.51342",
        "lat": "33.857912",
        "areaCode": "河南省许昌市襄城县",
        "name": "河南省许昌市襄城县",
        "parent_area": "河南省许昌市",
        "value": 2
    },
    {
        "lng": "113.829478",
        "lat": "34.130525",
        "areaCode": "河南省许昌市许昌县",
        "name": "河南省许昌市许昌县",
        "parent_area": "河南省许昌市",
        "value": 2
    },
    {
        "lng": "114.184638",
        "lat": "34.108882",
        "areaCode": "河南省许昌市鄢陵县",
        "name": "河南省许昌市鄢陵县",
        "parent_area": "河南省许昌市",
        "value": 2
    },
    {
        "lng": "113.837541",
        "lat": "34.053251",
        "areaCode": "河南省许昌市魏都区",
        "name": "河南省许昌市魏都区",
        "parent_area": "河南省许昌市",
        "value": 2
    },
    {
        "lng": "113.619476",
        "lat": "34.754451",
        "areaCode": "河南省郑州市中原区",
        "name": "河南省郑州市中原区",
        "parent_area": "河南省郑州市",
        "value": 1
    },
    {
        "lng": "113.982485",
        "lat": "34.725011",
        "areaCode": "河南省郑州市中牟县",
        "name": "河南省郑州市中牟县",
        "parent_area": "河南省郑州市",
        "value": 2
    },
    {
        "lng": "113.631419",
        "lat": "34.753439",
        "areaCode": "河南省郑州市二七区",
        "name": "河南省郑州市二七区",
        "parent_area": "河南省郑州市",
        "value": 1
    },
    {
        "lng": "113.028431",
        "lat": "34.754097",
        "areaCode": "河南省郑州市巩义市",
        "name": "河南省郑州市巩义市",
        "parent_area": "河南省郑州市",
        "value": 1
    },
    {
        "lng": "113.397391",
        "lat": "34.545898",
        "areaCode": "河南省郑州市新密市",
        "name": "河南省郑州市新密市",
        "parent_area": "河南省郑州市",
        "value": 1
    },
    {
        "lng": "113.746434",
        "lat": "34.401766",
        "areaCode": "河南省郑州市新郑市",
        "name": "河南省郑州市新郑市",
        "parent_area": "河南省郑州市",
        "value": 1
    },
    {
        "lng": "113.683525",
        "lat": "34.759674",
        "areaCode": "河南省郑州市管城回族区",
        "name": "河南省郑州市管城回族区",
        "parent_area": "河南省郑州市",
        "value": 1
    },
    {
        "lng": "113.389423",
        "lat": "34.793811",
        "areaCode": "河南省郑州市荥阳市",
        "name": "河南省郑州市荥阳市",
        "parent_area": "河南省郑州市",
        "value": 2
    },
    {
        "lng": "113.666448",
        "lat": "34.80607",
        "areaCode": "河南省郑州市金水区",
        "name": "河南省郑州市金水区",
        "parent_area": "河南省郑州市",
        "value": 4
    },
    {
        "lng": "114.270487",
        "lat": "33.268511",
        "areaCode": "河南省驻马店市上蔡县",
        "name": "河南省驻马店市上蔡县",
        "parent_area": "河南省驻马店市",
        "value": 2
    },
    {
        "lng": "114.625429",
        "lat": "32.967982",
        "areaCode": "河南省驻马店市平舆县",
        "name": "河南省驻马店市平舆县",
        "parent_area": "河南省驻马店市",
        "value": 4
    },
    {
        "lng": "114.992469",
        "lat": "32.755269",
        "areaCode": "河南省驻马店市新蔡县",
        "name": "河南省驻马店市新蔡县",
        "parent_area": "河南省驻马店市",
        "value": 1
    },
    {
        "lng": "114.399497",
        "lat": "32.611641",
        "areaCode": "河南省驻马店市正阳县",
        "name": "河南省驻马店市正阳县",
        "parent_area": "河南省驻马店市",
        "value": 3
    },
    {
        "lng": "114.369409",
        "lat": "33.013141",
        "areaCode": "河南省驻马店市汝南县",
        "name": "河南省驻马店市汝南县",
        "parent_area": "河南省驻马店市",
        "value": 3
    },
    {
        "lng": "113.333558",
        "lat": "32.729731",
        "areaCode": "河南省驻马店市泌阳县",
        "name": "河南省驻马店市泌阳县",
        "parent_area": "河南省驻马店市",
        "value": 2
    },
    {
        "lng": "114.032495",
        "lat": "32.808176",
        "areaCode": "河南省驻马店市确山县",
        "name": "河南省驻马店市确山县",
        "parent_area": "河南省驻马店市",
        "value": 5
    },
    {
        "lng": "114.027474",
        "lat": "33.393861",
        "areaCode": "河南省驻马店市西平县",
        "name": "河南省驻马店市西平县",
        "parent_area": "河南省驻马店市",
        "value": 3
    },
    {
        "lng": "114.000387",
        "lat": "32.97952",
        "areaCode": "河南省驻马店市驿城区",
        "name": "河南省驻马店市驿城区",
        "parent_area": "河南省驻马店市",
        "value": 2
    },
    {
        "lng": "114.190621",
        "lat": "35.90337",
        "areaCode": "河南省鹤壁市山城区",
        "name": "河南省鹤壁市山城区",
        "parent_area": "河南省鹤壁市",
        "value": 1
    },
    {
        "lng": "114.557608",
        "lat": "35.681917",
        "areaCode": "河南省鹤壁市浚县",
        "name": "河南省鹤壁市浚县",
        "parent_area": "河南省鹤壁市",
        "value": 1
    },
    {
        "lng": "114.21549",
        "lat": "35.627277",
        "areaCode": "河南省鹤壁市淇县",
        "name": "河南省鹤壁市淇县",
        "parent_area": "河南省鹤壁市",
        "value": 1
    },
    {
        "lng": "121.402554",
        "lat": "29.110355",
        "areaCode": "浙江省台州市三门县",
        "name": "浙江省台州市三门县",
        "parent_area": "浙江省台州市",
        "value": 1
    },
    {
        "lng": "121.151585",
        "lat": "28.864049",
        "areaCode": "浙江省台州市临海市",
        "name": "浙江省台州市临海市",
        "parent_area": "浙江省台州市",
        "value": 2
    },
    {
        "lng": "121.449408",
        "lat": "28.679258",
        "areaCode": "浙江省台州市椒江区",
        "name": "浙江省台州市椒江区",
        "parent_area": "浙江省台州市",
        "value": 4
    },
    {
        "lng": "121.392589",
        "lat": "28.377655",
        "areaCode": "浙江省台州市温岭市",
        "name": "浙江省台州市温岭市",
        "parent_area": "浙江省台州市",
        "value": 2
    },
    {
        "lng": "120.686565",
        "lat": "30.517924",
        "areaCode": "浙江省嘉兴市海宁市",
        "name": "浙江省嘉兴市海宁市",
        "parent_area": "浙江省嘉兴市",
        "value": 2
    },
    {
        "lng": "121.557403",
        "lat": "29.865721",
        "areaCode": "浙江省宁波市海曙区",
        "name": "浙江省宁波市海曙区",
        "parent_area": "浙江省宁波市",
        "value": 1
    },
    {
        "lng": "121.555427",
        "lat": "29.824206",
        "areaCode": "浙江省宁波市鄞州区",
        "name": "浙江省宁波市鄞州区",
        "parent_area": "浙江省宁波市",
        "value": 1
    },
    {
        "lng": "120.306592",
        "lat": "30.424739",
        "areaCode": "浙江省杭州市余杭区",
        "name": "浙江省杭州市余杭区",
        "parent_area": "浙江省杭州市",
        "value": 1
    },
    {
        "lng": "120.211539",
        "lat": "30.263311",
        "areaCode": "浙江省杭州市江干区",
        "name": "浙江省杭州市江干区",
        "parent_area": "浙江省杭州市",
        "value": 1
    },
    {
        "lng": "119.048392",
        "lat": "29.61495",
        "areaCode": "浙江省杭州市淳安县",
        "name": "浙江省杭州市淳安县",
        "parent_area": "浙江省杭州市",
        "value": 1
    },
    {
        "lng": "120.218471",
        "lat": "30.214333",
        "areaCode": "浙江省杭州市滨江区",
        "name": "浙江省杭州市滨江区",
        "parent_area": "浙江省杭州市",
        "value": 1
    },
    {
        "lng": "120.270471",
        "lat": "30.187511",
        "areaCode": "浙江省杭州市萧山区",
        "name": "浙江省杭州市萧山区",
        "parent_area": "浙江省杭州市",
        "value": 1
    },
    {
        "lng": "120.136438",
        "lat": "30.265916",
        "areaCode": "浙江省杭州市西湖区",
        "name": "浙江省杭州市西湖区",
        "parent_area": "浙江省杭州市",
        "value": 1
    },
    {
        "lng": "120.572515",
        "lat": "27.667724",
        "areaCode": "浙江省温州市平阳县",
        "name": "浙江省温州市平阳县",
        "parent_area": "浙江省温州市",
        "value": 1
    },
    {
        "lng": "120.688524",
        "lat": "28.15645",
        "areaCode": "浙江省温州市永嘉县",
        "name": "浙江省温州市永嘉县",
        "parent_area": "浙江省温州市",
        "value": 1
    },
    {
        "lng": "120.661582",
        "lat": "27.783951",
        "areaCode": "浙江省温州市瑞安市",
        "name": "浙江省温州市瑞安市",
        "parent_area": "浙江省温州市",
        "value": 4
    },
    {
        "lng": "120.433595",
        "lat": "27.523067",
        "areaCode": "浙江省温州市苍南县",
        "name": "浙江省温州市苍南县",
        "parent_area": "浙江省温州市",
        "value": 1
    },
    {
        "lng": "120.191605",
        "lat": "30.862955",
        "areaCode": "浙江省湖州市吴兴区",
        "name": "浙江省湖州市吴兴区",
        "parent_area": "浙江省湖州市",
        "value": 1
    },
    {
        "lng": "120.87451",
        "lat": "30.038243",
        "areaCode": "浙江省绍兴市上虞市",
        "name": "浙江省绍兴市上虞市",
        "parent_area": "浙江省绍兴市",
        "value": 1
    },
    {
        "lng": "120.837437",
        "lat": "29.567327",
        "areaCode": "浙江省绍兴市嵊州市",
        "name": "浙江省绍兴市嵊州市",
        "parent_area": "浙江省绍兴市",
        "value": 2
    },
    {
        "lng": "120.588437",
        "lat": "29.99531",
        "areaCode": "浙江省绍兴市越城区",
        "name": "浙江省绍兴市越城区",
        "parent_area": "浙江省绍兴市",
        "value": 2
    },
    {
        "lng": "118.877584",
        "lat": "28.974204",
        "areaCode": "浙江省衢州市柯城区",
        "name": "浙江省衢州市柯城区",
        "parent_area": "浙江省衢州市",
        "value": 1
    },
    {
        "lng": "118.633583",
        "lat": "28.742868",
        "areaCode": "浙江省衢州市江山市",
        "name": "浙江省衢州市江山市",
        "parent_area": "浙江省衢州市",
        "value": 2
    },
    {
        "lng": "119.699582",
        "lat": "29.104765",
        "areaCode": "浙江省金华市金东区",
        "name": "浙江省金华市金东区",
        "parent_area": "浙江省金华市",
        "value": 1
    },
    {
        "lng": "109.518557",
        "lat": "18.258736",
        "areaCode": "海南省三亚市市辖区",
        "name": "海南省三亚市市辖区",
        "parent_area": "海南省三亚市",
        "value": 3
    },
    {
        "lng": "110.300436",
        "lat": "20.013642",
        "areaCode": "海南省海口市秀英区",
        "name": "海南省海口市秀英区",
        "parent_area": "海南省海口市",
        "value": 1
    },
    {
        "lng": "111.519532",
        "lat": "32.546253",
        "areaCode": "湖北省十堰市丹江口市",
        "name": "湖北省十堰市丹江口市",
        "parent_area": "湖北省十堰市",
        "value": 7
    },
    {
        "lng": "110.775424",
        "lat": "32.6584",
        "areaCode": "湖北省十堰市张湾区",
        "name": "湖北省十堰市张湾区",
        "parent_area": "湖北省十堰市",
        "value": 3
    },
    {
        "lng": "110.235582",
        "lat": "32.230304",
        "areaCode": "湖北省十堰市竹山县",
        "name": "湖北省十堰市竹山县",
        "parent_area": "湖北省十堰市",
        "value": 5
    },
    {
        "lng": "110.747462",
        "lat": "32.061685",
        "areaCode": "湖北省十堰市房县",
        "name": "湖北省十堰市房县",
        "parent_area": "湖北省十堰市",
        "value": 8
    },
    {
        "lng": "110.81958",
        "lat": "32.597287",
        "areaCode": "湖北省十堰市茅箭区",
        "name": "湖北省十堰市茅箭区",
        "parent_area": "湖北省十堰市",
        "value": 9
    },
    {
        "lng": "109.721542",
        "lat": "32.32412",
        "areaCode": "湖北省十堰市竹溪县",
        "name": "湖北省十堰市竹溪县",
        "parent_area": "湖北省十堰市",
        "value": 5
    },
    {
        "lng": "110.818577",
        "lat": "32.840592",
        "areaCode": "湖北省十堰市郧县",
        "name": "湖北省十堰市郧县",
        "parent_area": "湖北省十堰市",
        "value": 6
    },
    {
        "lng": "110.432473",
        "lat": "32.999167",
        "areaCode": "湖北省十堰市郧西县",
        "name": "湖北省十堰市郧西县",
        "parent_area": "湖北省十堰市",
        "value": 8
    },
    {
        "lng": "114.30457",
        "lat": "29.858154",
        "areaCode": "湖北省咸宁市咸安区",
        "name": "湖北省咸宁市咸安区",
        "parent_area": "湖北省咸宁市",
        "value": 55
    },
    {
        "lng": "113.94557",
        "lat": "29.976354",
        "areaCode": "湖北省咸宁市嘉鱼县",
        "name": "湖北省咸宁市嘉鱼县",
        "parent_area": "湖北省咸宁市",
        "value": 90
    },
    {
        "lng": "114.046563",
        "lat": "29.561334",
        "areaCode": "湖北省咸宁市崇阳县",
        "name": "湖北省咸宁市崇阳县",
        "parent_area": "湖北省咸宁市",
        "value": 37
    },
    {
        "lng": "113.906437",
        "lat": "29.730666",
        "areaCode": "湖北省咸宁市赤壁市",
        "name": "湖北省咸宁市赤壁市",
        "parent_area": "湖北省咸宁市",
        "value": 83
    },
    {
        "lng": "113.823568",
        "lat": "29.250858",
        "areaCode": "湖北省咸宁市通城县",
        "name": "湖北省咸宁市通城县",
        "parent_area": "湖北省咸宁市",
        "value": 31
    },
    {
        "lng": "114.489393",
        "lat": "29.612634",
        "areaCode": "湖北省咸宁市通山县",
        "name": "湖北省咸宁市通山县",
        "parent_area": "湖北省咸宁市",
        "value": 58
    },
    {
        "lng": "113.759412",
        "lat": "31.027218",
        "areaCode": "湖北省孝感市云梦县",
        "name": "湖北省孝感市云梦县",
        "parent_area": "湖北省孝感市",
        "value": 51
    },
    {
        "lng": "114.133413",
        "lat": "31.56722",
        "areaCode": "湖北省孝感市大悟县",
        "name": "湖北省孝感市大悟县",
        "parent_area": "湖北省孝感市",
        "value": 80
    },
    {
        "lng": "113.91749",
        "lat": "30.922978",
        "areaCode": "湖北省孝感市孝南区",
        "name": "湖北省孝感市孝南区",
        "parent_area": "湖北省孝感市",
        "value": 97
    },
    {
        "lng": "114.004409",
        "lat": "31.26454",
        "areaCode": "湖北省孝感市孝昌县",
        "name": "湖北省孝感市孝昌县",
        "parent_area": "湖北省孝感市",
        "value": 62
    },
    {
        "lng": "113.695583",
        "lat": "31.261415",
        "areaCode": "湖北省孝感市安陆市",
        "name": "湖北省孝感市安陆市",
        "parent_area": "湖北省孝感市",
        "value": 61
    },
    {
        "lng": "113.579567",
        "lat": "30.933977",
        "areaCode": "湖北省孝感市应城市",
        "name": "湖北省孝感市应城市",
        "parent_area": "湖北省孝感市",
        "value": 85
    },
    {
        "lng": "113.845549",
        "lat": "30.666914",
        "areaCode": "湖北省孝感市汉川市",
        "name": "湖北省孝感市汉川市",
        "parent_area": "湖北省孝感市",
        "value": 140
    },
    {
        "lng": "111.052581",
        "lat": "30.171156",
        "areaCode": "湖北省宜昌市五峰土家族自治县",
        "name": "湖北省宜昌市五峰土家族自治县",
        "parent_area": "湖北省宜昌市",
        "value": 4
    },
    {
        "lng": "111.367422",
        "lat": "30.650737",
        "areaCode": "湖北省宜昌市伍家岗区",
        "name": "湖北省宜昌市伍家岗区",
        "parent_area": "湖北省宜昌市",
        "value": 4
    },
    {
        "lng": "110.753446",
        "lat": "31.354464",
        "areaCode": "湖北省宜昌市兴山县",
        "name": "湖北省宜昌市兴山县",
        "parent_area": "湖北省宜昌市",
        "value": 3
    },
    {
        "lng": "111.33253",
        "lat": "30.774833",
        "areaCode": "湖北省宜昌市夷陵区",
        "name": "湖北省宜昌市夷陵区",
        "parent_area": "湖北省宜昌市",
        "value": 15
    },
    {
        "lng": "111.456516",
        "lat": "30.384404",
        "areaCode": "湖北省宜昌市宜都市",
        "name": "湖北省宜昌市宜都市",
        "parent_area": "湖北省宜昌市",
        "value": 9
    },
    {
        "lng": "111.794569",
        "lat": "30.826989",
        "areaCode": "湖北省宜昌市当阳市",
        "name": "湖北省宜昌市当阳市",
        "parent_area": "湖北省宜昌市",
        "value": 12
    },
    {
        "lng": "111.76654",
        "lat": "30.431731",
        "areaCode": "湖北省宜昌市枝江市",
        "name": "湖北省宜昌市枝江市",
        "parent_area": "湖北省宜昌市",
        "value": 13
    },
    {
        "lng": "111.441574",
        "lat": "30.536466",
        "areaCode": "湖北省宜昌市猇亭区",
        "name": "湖北省宜昌市猇亭区",
        "parent_area": "湖北省宜昌市",
        "value": 3
    },
    {
        "lng": "110.984449",
        "lat": "30.831932",
        "areaCode": "湖北省宜昌市秭归县",
        "name": "湖北省宜昌市秭归县",
        "parent_area": "湖北省宜昌市",
        "value": 7
    },
    {
        "lng": "111.29256",
        "lat": "30.716749",
        "areaCode": "湖北省宜昌市西陵区",
        "name": "湖北省宜昌市西陵区",
        "parent_area": "湖北省宜昌市",
        "value": 6
    },
    {
        "lng": "111.64653",
        "lat": "31.066628",
        "areaCode": "湖北省宜昌市远安县",
        "name": "湖北省宜昌市远安县",
        "parent_area": "湖北省宜昌市",
        "value": 5
    },
    {
        "lng": "111.213507",
        "lat": "30.478646",
        "areaCode": "湖北省宜昌市长阳土家族自治县",
        "name": "湖北省宜昌市长阳土家族自治县",
        "parent_area": "湖北省宜昌市",
        "value": 8
    },
    {
        "lng": "108.942481",
        "lat": "30.297203",
        "areaCode": "湖北省恩施土家族苗族自治州利川市",
        "name": "湖北省恩施土家族苗族自治州利川市",
        "parent_area": "湖北省恩施土家族苗族自治州",
        "value": 18
    },
    {
        "lng": "109.146608",
        "lat": "29.671078",
        "areaCode": "湖北省恩施土家族苗族自治州咸丰县",
        "name": "湖北省恩施土家族苗族自治州咸丰县",
        "parent_area": "湖北省恩施土家族苗族自治州",
        "value": 4
    },
    {
        "lng": "109.497568",
        "lat": "29.992604",
        "areaCode": "湖北省恩施土家族苗族自治州宣恩县",
        "name": "湖北省恩施土家族苗族自治州宣恩县",
        "parent_area": "湖北省恩施土家族苗族自治州",
        "value": 5
    },
    {
        "lng": "110.347575",
        "lat": "31.048064",
        "areaCode": "湖北省恩施土家族苗族自治州巴东县",
        "name": "湖北省恩施土家族苗族自治州巴东县",
        "parent_area": "湖北省恩施土家族苗族自治州",
        "value": 16
    },
    {
        "lng": "109.728556",
        "lat": "30.607907",
        "areaCode": "湖北省恩施土家族苗族自治州建始县",
        "name": "湖北省恩施土家族苗族自治州建始县",
        "parent_area": "湖北省恩施土家族苗族自治州",
        "value": 12
    },
    {
        "lng": "109.48655",
        "lat": "30.301037",
        "areaCode": "湖北省恩施土家族苗族自治州恩施市",
        "name": "湖北省恩施土家族苗族自治州恩施市",
        "parent_area": "湖北省恩施土家族苗族自治州",
        "value": 11
    },
    {
        "lng": "109.413495",
        "lat": "29.499444",
        "areaCode": "湖北省恩施土家族苗族自治州来凤县",
        "name": "湖北省恩施土家族苗族自治州来凤县",
        "parent_area": "湖北省恩施土家族苗族自治州",
        "value": 7
    },
    {
        "lng": "110.040424",
        "lat": "29.896116",
        "areaCode": "湖北省恩施土家族苗族自治州鹤峰县",
        "name": "湖北省恩施土家族苗族自治州鹤峰县",
        "parent_area": "湖北省恩施土家族苗族自治州",
        "value": 4
    },
    {
        "lng": "114.143459",
        "lat": "30.62592",
        "areaCode": "湖北省武汉市东西湖区",
        "name": "湖北省武汉市东西湖区",
        "parent_area": "湖北省武汉市",
        "value": 1303
    },
    {
        "lng": "114.807543",
        "lat": "30.847244",
        "areaCode": "湖北省武汉市新洲区",
        "name": "湖北省武汉市新洲区",
        "parent_area": "湖北省武汉市",
        "value": 1142
    },
    {
        "lng": "114.322549",
        "lat": "30.559567",
        "areaCode": "湖北省武汉市武昌区",
        "name": "湖北省武汉市武昌区",
        "parent_area": "湖北省武汉市",
        "value": 3191
    },
    {
        "lng": "114.225446",
        "lat": "30.560052",
        "areaCode": "湖北省武汉市汉阳区",
        "name": "湖北省武汉市汉阳区",
        "parent_area": "湖北省武汉市",
        "value": 408
    },
    {
        "lng": "114.091515",
        "lat": "30.314809",
        "areaCode": "湖北省武汉市汉南区",
        "name": "湖北省武汉市汉南区",
        "parent_area": "湖北省武汉市",
        "value": 33
    },
    {
        "lng": "114.328551",
        "lat": "30.381564",
        "areaCode": "湖北省武汉市江夏区",
        "name": "湖北省武汉市江夏区",
        "parent_area": "湖北省武汉市",
        "value": 3308
    },
    {
        "lng": "114.316579",
        "lat": "30.605403",
        "areaCode": "湖北省武汉市江岸区",
        "name": "湖北省武汉市江岸区",
        "parent_area": "湖北省武汉市",
        "value": 1741
    },
    {
        "lng": "114.277506",
        "lat": "30.607282",
        "areaCode": "湖北省武汉市江汉区",
        "name": "湖北省武汉市江汉区",
        "parent_area": "湖北省武汉市",
        "value": 252
    },
    {
        "lng": "114.350456",
        "lat": "30.506334",
        "areaCode": "湖北省武汉市洪山区",
        "name": "湖北省武汉市洪山区",
        "parent_area": "湖北省武汉市",
        "value": 1018
    },
    {
        "lng": "114.22146",
        "lat": "30.587584",
        "areaCode": "湖北省武汉市硚口区",
        "name": "湖北省武汉市硚口区",
        "parent_area": "湖北省武汉市",
        "value": 540
    },
    {
        "lng": "114.03548",
        "lat": "30.588114",
        "areaCode": "湖北省武汉市蔡甸区",
        "name": "湖北省武汉市蔡甸区",
        "parent_area": "湖北省武汉市",
        "value": 1443
    },
    {
        "lng": "114.391493",
        "lat": "30.646593",
        "areaCode": "湖北省武汉市青山区",
        "name": "湖北省武汉市青山区",
        "parent_area": "湖北省武汉市",
        "value": 151
    },
    {
        "lng": "114.382454",
        "lat": "30.887534",
        "areaCode": "湖北省武汉市黄陂区",
        "name": "湖北省武汉市黄陂区",
        "parent_area": "湖北省武汉市",
        "value": 3152
    },
    {
        "lng": "112.236502",
        "lat": "30.064401",
        "areaCode": "湖北省荆州市公安县",
        "name": "湖北省荆州市公安县",
        "parent_area": "湖北省荆州市",
        "value": 34
    },
    {
        "lng": "111.77358",
        "lat": "30.175342",
        "areaCode": "湖北省荆州市松滋市",
        "name": "湖北省荆州市松滋市",
        "parent_area": "湖北省荆州市",
        "value": 25
    },
    {
        "lng": "112.431452",
        "lat": "30.048043",
        "areaCode": "湖北省荆州市江陵县",
        "name": "湖北省荆州市江陵县",
        "parent_area": "湖北省荆州市",
        "value": 12
    },
    {
        "lng": "112.261577",
        "lat": "30.316572",
        "areaCode": "湖北省荆州市沙市区",
        "name": "湖北省荆州市沙市区",
        "parent_area": "湖北省荆州市",
        "value": 23
    },
    {
        "lng": "113.482553",
        "lat": "29.83277",
        "areaCode": "湖北省荆州市洪湖市",
        "name": "湖北省荆州市洪湖市",
        "parent_area": "湖北省荆州市",
        "value": 79
    },
    {
        "lng": "112.91142",
        "lat": "29.845735",
        "areaCode": "湖北省荆州市监利县",
        "name": "湖北省荆州市监利县",
        "parent_area": "湖北省荆州市",
        "value": 52
    },
    {
        "lng": "112.43142",
        "lat": "29.727034",
        "areaCode": "湖北省荆州市石首市",
        "name": "湖北省荆州市石首市",
        "parent_area": "湖北省荆州市",
        "value": 21
    },
    {
        "lng": "112.196414",
        "lat": "30.358989",
        "areaCode": "湖北省荆州市荆州区",
        "name": "湖北省荆州市荆州区",
        "parent_area": "湖北省荆州市",
        "value": 14
    },
    {
        "lng": "112.208388",
        "lat": "31.058429",
        "areaCode": "湖北省荆门市东宝区",
        "name": "湖北省荆门市东宝区",
        "parent_area": "湖北省荆门市",
        "value": 10
    },
    {
        "lng": "113.126548",
        "lat": "31.024331",
        "areaCode": "湖北省荆门市京山县",
        "name": "湖北省荆门市京山县",
        "parent_area": "湖北省荆门市",
        "value": 57
    },
    {
        "lng": "112.214428",
        "lat": "30.979911",
        "areaCode": "湖北省荆门市掇刀区",
        "name": "湖北省荆门市掇刀区",
        "parent_area": "湖北省荆门市",
        "value": 16
    },
    {
        "lng": "112.595485",
        "lat": "30.715315",
        "areaCode": "湖北省荆门市沙洋县",
        "name": "湖北省荆门市沙洋县",
        "parent_area": "湖北省荆门市",
        "value": 18
    },
    {
        "lng": "112.594471",
        "lat": "31.17403",
        "areaCode": "湖北省荆门市钟祥市",
        "name": "湖北省荆门市钟祥市",
        "parent_area": "湖北省荆门市",
        "value": 59
    },
    {
        "lng": "111.267441",
        "lat": "31.883847",
        "areaCode": "湖北省襄阳市保康县",
        "name": "湖北省襄阳市保康县",
        "parent_area": "湖北省襄阳市",
        "value": 3
    },
    {
        "lng": "111.845386",
        "lat": "31.78113",
        "areaCode": "湖北省襄阳市南漳县",
        "name": "湖北省襄阳市南漳县",
        "parent_area": "湖北省襄阳市",
        "value": 19
    },
    {
        "lng": "112.284524",
        "lat": "31.778264",
        "areaCode": "湖北省襄阳市宜城市",
        "name": "湖北省襄阳市宜城市",
        "parent_area": "湖北省襄阳市",
        "value": 12
    },
    {
        "lng": "112.778471",
        "lat": "32.13473",
        "areaCode": "湖北省襄阳市枣阳市",
        "name": "湖北省襄阳市枣阳市",
        "parent_area": "湖北省襄阳市",
        "value": 34
    },
    {
        "lng": "112.142599",
        "lat": "32.050572",
        "areaCode": "湖北省襄阳市樊城区",
        "name": "湖北省襄阳市樊城区",
        "parent_area": "湖北省襄阳市",
        "value": 20
    },
    {
        "lng": "112.140572",
        "lat": "32.016175",
        "areaCode": "湖北省襄阳市襄城区",
        "name": "湖北省襄阳市襄城区",
        "parent_area": "湖北省襄阳市",
        "value": 15
    },
    {
        "lng": "111.681556",
        "lat": "32.39246",
        "areaCode": "湖北省襄阳市老河口市",
        "name": "湖北省襄阳市老河口市",
        "parent_area": "湖北省襄阳市",
        "value": 11
    },
    {
        "lng": "112.218434",
        "lat": "32.093376",
        "areaCode": "湖北省襄阳市襄州区",
        "name": "湖北省襄阳市襄州区",
        "parent_area": "湖北省襄阳市",
        "value": 35
    },
    {
        "lng": "111.758312",
        "lat": "32.146163",
        "areaCode": "湖北省襄阳市谷城县",
        "name": "湖北省襄阳市谷城县",
        "parent_area": "湖北省襄阳市",
        "value": 22
    },
    {
        "lng": "114.736426",
        "lat": "30.5406",
        "areaCode": "湖北省鄂州市华容区",
        "name": "湖北省鄂州市华容区",
        "parent_area": "湖北省鄂州市",
        "value": 38
    },
    {
        "lng": "114.691507",
        "lat": "30.105907",
        "areaCode": "湖北省鄂州市梁子湖区",
        "name": "湖北省鄂州市梁子湖区",
        "parent_area": "湖北省鄂州市",
        "value": 25
    },
    {
        "lng": "114.8986",
        "lat": "30.406389",
        "areaCode": "湖北省鄂州市鄂城区",
        "name": "湖北省鄂州市鄂城区",
        "parent_area": "湖北省鄂州市",
        "value": 86
    },
    {
        "lng": "113.832593",
        "lat": "31.622476",
        "areaCode": "湖北省随州市广水市",
        "name": "湖北省随州市广水市",
        "parent_area": "湖北省随州市",
        "value": 61
    },
    {
        "lng": "113.377513",
        "lat": "31.722123",
        "areaCode": "湖北省随州市曾都区",
        "name": "湖北省随州市曾都区",
        "parent_area": "湖北省随州市",
        "value": 53
    },
    {
        "lng": "113.306458",
        "lat": "31.859972",
        "areaCode": "湖北省随州市随县",
        "name": "湖北省随州市随县",
        "parent_area": "湖北省随州市",
        "value": 38
    },
    {
        "lng": "114.878524",
        "lat": "30.649368",
        "areaCode": "湖北省黄冈市团风县",
        "name": "湖北省黄冈市团风县",
        "parent_area": "湖北省黄冈市",
        "value": 34
    },
    {
        "lng": "115.567392",
        "lat": "29.850441",
        "areaCode": "湖北省黄冈市武穴市",
        "name": "湖北省黄冈市武穴市",
        "parent_area": "湖北省黄冈市",
        "value": 61
    },
    {
        "lng": "115.271569",
        "lat": "30.457461",
        "areaCode": "湖北省黄冈市浠水县",
        "name": "湖北省黄冈市浠水县",
        "parent_area": "湖北省黄冈市",
        "value": 100
    },
    {
        "lng": "114.624426",
        "lat": "31.294297",
        "areaCode": "湖北省黄冈市红安县",
        "name": "湖北省黄冈市红安县",
        "parent_area": "湖北省黄冈市",
        "value": 97
    },
    {
        "lng": "115.405547",
        "lat": "30.78891",
        "areaCode": "湖北省黄冈市罗田县",
        "name": "湖北省黄冈市罗田县",
        "parent_area": "湖北省黄冈市",
        "value": 71
    },
    {
        "lng": "115.687422",
        "lat": "30.74135",
        "areaCode": "湖北省黄冈市英山县",
        "name": "湖北省黄冈市英山县",
        "parent_area": "湖北省黄冈市",
        "value": 43
    },
    {
        "lng": "115.442399",
        "lat": "30.232535",
        "areaCode": "湖北省黄冈市蕲春县",
        "name": "湖北省黄冈市蕲春县",
        "parent_area": "湖北省黄冈市",
        "value": 66
    },
    {
        "lng": "115.016562",
        "lat": "31.176996",
        "areaCode": "湖北省黄冈市麻城市",
        "name": "湖北省黄冈市麻城市",
        "parent_area": "湖北省黄冈市",
        "value": 127
    },
    {
        "lng": "115.950462",
        "lat": "30.076605",
        "areaCode": "湖北省黄冈市黄梅县",
        "name": "湖北省黄冈市黄梅县",
        "parent_area": "湖北省黄冈市",
        "value": 53
    },
    {
        "lng": "114.886532",
        "lat": "30.440224",
        "areaCode": "湖北省黄冈市黄州区",
        "name": "湖北省黄冈市黄州区",
        "parent_area": "湖北省黄冈市",
        "value": 34
    },
    {
        "lng": "114.986436",
        "lat": "30.101668",
        "areaCode": "湖北省黄石市大冶市",
        "name": "湖北省黄石市大冶市",
        "parent_area": "湖北省黄石市",
        "value": 65
    },
    {
        "lng": "114.967416",
        "lat": "30.180046",
        "areaCode": "湖北省黄石市下陆区",
        "name": "湖北省黄石市下陆区",
        "parent_area": "湖北省黄石市",
        "value": 13
    },
    {
        "lng": "114.907571",
        "lat": "30.212251",
        "areaCode": "湖北省黄石市铁山区",
        "name": "湖北省黄石市铁山区",
        "parent_area": "湖北省黄石市",
        "value": 1
    },
    {
        "lng": "115.116481",
        "lat": "30.210695",
        "areaCode": "湖北省黄石市西塞山区",
        "name": "湖北省黄石市西塞山区",
        "parent_area": "湖北省黄石市",
        "value": 7
    },
    {
        "lng": "115.221427",
        "lat": "29.836542",
        "areaCode": "湖北省黄石市阳新县",
        "name": "湖北省黄石市阳新县",
        "parent_area": "湖北省黄石市",
        "value": 69
    },
    {
        "lng": "115.072417",
        "lat": "30.229053",
        "areaCode": "湖北省黄石市黄石港区",
        "name": "湖北省黄石市黄石港区",
        "parent_area": "湖北省黄石市",
        "value": 10
    },
    {
        "lng": "112.18146",
        "lat": "27.462983",
        "areaCode": "湖南省娄底市双峰县",
        "name": "湖南省娄底市双峰县",
        "parent_area": "湖南省娄底市",
        "value": 2
    },
    {
        "lng": "111.334515",
        "lat": "27.732667",
        "areaCode": "湖南省娄底市新化县",
        "name": "湖南省娄底市新化县",
        "parent_area": "湖南省娄底市",
        "value": 3
    },
    {
        "lng": "111.670562",
        "lat": "27.698168",
        "areaCode": "湖南省娄底市涟源市",
        "name": "湖南省娄底市涟源市",
        "parent_area": "湖南省娄底市",
        "value": 3
    },
    {
        "lng": "113.456562",
        "lat": "29.482801",
        "areaCode": "湖南省岳阳市临湘市",
        "name": "湖南省岳阳市临湘市",
        "parent_area": "湖南省岳阳市",
        "value": 11
    },
    {
        "lng": "112.547462",
        "lat": "29.536286",
        "areaCode": "湖南省岳阳市华容县",
        "name": "湖南省岳阳市华容县",
        "parent_area": "湖南省岳阳市",
        "value": 1
    },
    {
        "lng": "113.122544",
        "lat": "29.150269",
        "areaCode": "湖南省岳阳市岳阳县",
        "name": "湖南省岳阳市岳阳县",
        "parent_area": "湖南省岳阳市",
        "value": 2
    },
    {
        "lng": "113.136481",
        "lat": "29.377995",
        "areaCode": "湖南省岳阳市岳阳楼区",
        "name": "湖南省岳阳市岳阳楼区",
        "parent_area": "湖南省岳阳市",
        "value": 2
    },
    {
        "lng": "113.587604",
        "lat": "28.707564",
        "areaCode": "湖南省岳阳市平江县",
        "name": "湖南省岳阳市平江县",
        "parent_area": "湖南省岳阳市",
        "value": 5
    },
    {
        "lng": "112.889522",
        "lat": "28.676676",
        "areaCode": "湖南省岳阳市湘阴县",
        "name": "湖南省岳阳市湘阴县",
        "parent_area": "湖南省岳阳市",
        "value": 2
    },
    {
        "lng": "112.177506",
        "lat": "29.41732",
        "areaCode": "湖南省常德市安乡县",
        "name": "湖南省常德市安乡县",
        "parent_area": "湖南省常德市",
        "value": 1
    },
    {
        "lng": "111.689545",
        "lat": "29.060783",
        "areaCode": "湖南省常德市武陵区",
        "name": "湖南省常德市武陵区",
        "parent_area": "湖南省常德市",
        "value": 1
    },
    {
        "lng": "111.765534",
        "lat": "29.638946",
        "areaCode": "湖南省常德市澧县",
        "name": "湖南省常德市澧县",
        "parent_area": "湖南省常德市",
        "value": 9
    },
    {
        "lng": "111.386451",
        "lat": "29.590366",
        "areaCode": "湖南省常德市石门县",
        "name": "湖南省常德市石门县",
        "parent_area": "湖南省常德市",
        "value": 2
    },
    {
        "lng": "111.687522",
        "lat": "29.024443",
        "areaCode": "湖南省常德市鼎城区",
        "name": "湖南省常德市鼎城区",
        "parent_area": "湖南省常德市",
        "value": 1
    },
    {
        "lng": "110.170413",
        "lat": "29.405923",
        "areaCode": "湖南省张家界市桑植县",
        "name": "湖南省张家界市桑植县",
        "parent_area": "湖南省张家界市",
        "value": 2
    },
    {
        "lng": "110.544432",
        "lat": "29.126191",
        "areaCode": "湖南省张家界市永定区",
        "name": "湖南省张家界市永定区",
        "parent_area": "湖南省张家界市",
        "value": 2
    },
    {
        "lng": "110.400431",
        "lat": "28.459018",
        "areaCode": "湖南省怀化市沅陵县",
        "name": "湖南省怀化市沅陵县",
        "parent_area": "湖南省怀化市",
        "value": 2
    },
    {
        "lng": "109.84351",
        "lat": "27.215077",
        "areaCode": "湖南省怀化市洪江市",
        "name": "湖南省怀化市洪江市",
        "parent_area": "湖南省怀化市",
        "value": 2
    },
    {
        "lng": "110.601551",
        "lat": "27.913963",
        "areaCode": "湖南省怀化市溆浦县",
        "name": "湖南省怀化市溆浦县",
        "parent_area": "湖南省怀化市",
        "value": 1
    },
    {
        "lng": "110.190487",
        "lat": "28.012605",
        "areaCode": "湖南省怀化市辰溪县",
        "name": "湖南省怀化市辰溪县",
        "parent_area": "湖南省怀化市",
        "value": 1
    },
    {
        "lng": "109.790445",
        "lat": "26.16422",
        "areaCode": "湖南省怀化市通道侗族自治县",
        "name": "湖南省怀化市通道侗族自治县",
        "parent_area": "湖南省怀化市",
        "value": 1
    },
    {
        "lng": "110.0464",
        "lat": "27.585226",
        "areaCode": "湖南省怀化市鹤城区",
        "name": "湖南省怀化市鹤城区",
        "parent_area": "湖南省怀化市",
        "value": 1
    },
    {
        "lng": "113.089541",
        "lat": "27.833084",
        "areaCode": "湖南省株洲市天元区",
        "name": "湖南省株洲市天元区",
        "parent_area": "湖南省株洲市",
        "value": 2
    },
    {
        "lng": "113.158419",
        "lat": "27.791509",
        "areaCode": "湖南省株洲市芦淞区",
        "name": "湖南省株洲市芦淞区",
        "parent_area": "湖南省株洲市",
        "value": 1
    },
    {
        "lng": "113.545472",
        "lat": "26.783589",
        "areaCode": "湖南省株洲市茶陵县",
        "name": "湖南省株洲市茶陵县",
        "parent_area": "湖南省株洲市",
        "value": 1
    },
    {
        "lng": "113.180452",
        "lat": "27.862156",
        "areaCode": "湖南省株洲市荷塘区",
        "name": "湖南省株洲市荷塘区",
        "parent_area": "湖南省株洲市",
        "value": 2
    },
    {
        "lng": "113.503483",
        "lat": "27.652325",
        "areaCode": "湖南省株洲市醴陵市",
        "name": "湖南省株洲市醴陵市",
        "parent_area": "湖南省株洲市",
        "value": 3
    },
    {
        "lng": "111.952453",
        "lat": "25.577052",
        "areaCode": "湖南省永州市宁远县",
        "name": "湖南省永州市宁远县",
        "parent_area": "湖南省永州市",
        "value": 2
    },
    {
        "lng": "112.210409",
        "lat": "25.909826",
        "areaCode": "湖南省永州市新田县",
        "name": "湖南省永州市新田县",
        "parent_area": "湖南省永州市",
        "value": 1
    },
    {
        "lng": "111.84742",
        "lat": "26.586435",
        "areaCode": "湖南省永州市祁阳县",
        "name": "湖南省永州市祁阳县",
        "parent_area": "湖南省永州市",
        "value": 2
    },
    {
        "lng": "111.607404",
        "lat": "25.53253",
        "areaCode": "湖南省永州市道县",
        "name": "湖南省永州市道县",
        "parent_area": "湖南省永州市",
        "value": 1
    },
    {
        "lng": "111.637502",
        "lat": "26.227682",
        "areaCode": "湖南省永州市零陵区",
        "name": "湖南省永州市零陵区",
        "parent_area": "湖南省永州市",
        "value": 3
    },
    {
        "lng": "112.975589",
        "lat": "27.877721",
        "areaCode": "湖南省湘潭市岳塘区",
        "name": "湖南省湘潭市岳塘区",
        "parent_area": "湖南省湘潭市",
        "value": 2
    },
    {
        "lng": "112.541492",
        "lat": "27.740191",
        "areaCode": "湖南省湘潭市湘乡市",
        "name": "湖南省湘潭市湘乡市",
        "parent_area": "湖南省湘潭市",
        "value": 2
    },
    {
        "lng": "112.957505",
        "lat": "27.784983",
        "areaCode": "湖南省湘潭市湘潭县",
        "name": "湖南省湘潭市湘潭县",
        "parent_area": "湖南省湘潭市",
        "value": 1
    },
    {
        "lng": "112.405561",
        "lat": "26.42672",
        "areaCode": "湖南省衡阳市常宁市",
        "name": "湖南省衡阳市常宁市",
        "parent_area": "湖南省衡阳市",
        "value": 2
    },
    {
        "lng": "112.626594",
        "lat": "26.900265",
        "areaCode": "湖南省衡阳市珠晖区",
        "name": "湖南省衡阳市珠晖区",
        "parent_area": "湖南省衡阳市",
        "value": 1
    },
    {
        "lng": "112.573444",
        "lat": "26.91772",
        "areaCode": "湖南省衡阳市蒸湘区",
        "name": "湖南省衡阳市蒸湘区",
        "parent_area": "湖南省衡阳市",
        "value": 2
    },
    {
        "lng": "112.684403",
        "lat": "26.744532",
        "areaCode": "湖南省衡阳市衡南县",
        "name": "湖南省衡阳市衡南县",
        "parent_area": "湖南省衡阳市",
        "value": 3
    },
    {
        "lng": "112.875563",
        "lat": "27.235996",
        "areaCode": "湖南省衡阳市衡山县",
        "name": "湖南省衡阳市衡山县",
        "parent_area": "湖南省衡阳市",
        "value": 2
    },
    {
        "lng": "112.377553",
        "lat": "26.975295",
        "areaCode": "湖南省衡阳市衡阳县",
        "name": "湖南省衡阳市衡阳县",
        "parent_area": "湖南省衡阳市",
        "value": 3
    },
    {
        "lng": "110.328537",
        "lat": "26.396203",
        "areaCode": "湖南省邵阳市城步苗族自治县",
        "name": "湖南省邵阳市城步苗族自治县",
        "parent_area": "湖南省邵阳市",
        "value": 1
    },
    {
        "lng": "111.464449",
        "lat": "27.327132",
        "areaCode": "湖南省邵阳市新邵县",
        "name": "湖南省邵阳市新邵县",
        "parent_area": "湖南省邵阳市",
        "value": 1
    },
    {
        "lng": "110.638408",
        "lat": "26.732899",
        "areaCode": "湖南省邵阳市武冈市",
        "name": "湖南省邵阳市武冈市",
        "parent_area": "湖南省邵阳市",
        "value": 1
    },
    {
        "lng": "110.16242",
        "lat": "26.588423",
        "areaCode": "湖南省邵阳市绥宁县",
        "name": "湖南省邵阳市绥宁县",
        "parent_area": "湖南省邵阳市",
        "value": 2
    },
    {
        "lng": "111.750491",
        "lat": "27.264507",
        "areaCode": "湖南省邵阳市邵东县",
        "name": "湖南省邵阳市邵东县",
        "parent_area": "湖南省邵阳市",
        "value": 5
    },
    {
        "lng": "111.280508",
        "lat": "26.996528",
        "areaCode": "湖南省邵阳市邵阳县",
        "name": "湖南省邵阳市邵阳县",
        "parent_area": "湖南省邵阳市",
        "value": 1
    },
    {
        "lng": "111.039507",
        "lat": "27.119946",
        "areaCode": "湖南省邵阳市隆回县",
        "name": "湖南省邵阳市隆回县",
        "parent_area": "湖南省邵阳市",
        "value": 1
    },
    {
        "lng": "112.570411",
        "lat": "25.282527",
        "areaCode": "湖南省郴州市临武县",
        "name": "湖南省郴州市临武县",
        "parent_area": "湖南省郴州市",
        "value": 1
    },
    {
        "lng": "113.275424",
        "lat": "26.715683",
        "areaCode": "湖南省郴州市安仁县",
        "name": "湖南省郴州市安仁县",
        "parent_area": "湖南省郴州市",
        "value": 1
    },
    {
        "lng": "113.122533",
        "lat": "26.132968",
        "areaCode": "湖南省郴州市永兴县",
        "name": "湖南省郴州市永兴县",
        "parent_area": "湖南省郴州市",
        "value": 1
    },
    {
        "lng": "112.996592",
        "lat": "28.118211",
        "areaCode": "湖南省长沙市天心区",
        "name": "湖南省长沙市天心区",
        "parent_area": "湖南省长沙市",
        "value": 1
    },
    {
        "lng": "112.558407",
        "lat": "28.284105",
        "areaCode": "湖南省长沙市宁乡县",
        "name": "湖南省长沙市宁乡县",
        "parent_area": "湖南省长沙市",
        "value": 1
    },
    {
        "lng": "112.937448",
        "lat": "28.241489",
        "areaCode": "湖南省长沙市岳麓区",
        "name": "湖南省长沙市岳麓区",
        "parent_area": "湖南省长沙市",
        "value": 2
    },
    {
        "lng": "112.992585",
        "lat": "28.261379",
        "areaCode": "湖南省长沙市开福区",
        "name": "湖南省长沙市开福区",
        "parent_area": "湖南省长沙市",
        "value": 1
    },
    {
        "lng": "117.248306",
        "lat": "31.853672",
        "areaCode": "湖南省长沙市望城区",
        "name": "湖南省长沙市望城区",
        "parent_area": "湖南省长沙市",
        "value": 2
    },
    {
        "lng": "113.649398",
        "lat": "28.169832",
        "areaCode": "湖南省长沙市浏阳市",
        "name": "湖南省长沙市浏阳市",
        "parent_area": "湖南省长沙市",
        "value": 4
    },
    {
        "lng": "113.039408",
        "lat": "28.191913",
        "areaCode": "湖南省长沙市芙蓉区",
        "name": "湖南省长沙市芙蓉区",
        "parent_area": "湖南省长沙市",
        "value": 2
    },
    {
        "lng": "113.087559",
        "lat": "28.251818",
        "areaCode": "湖南省长沙市长沙县",
        "name": "湖南省长沙市长沙县",
        "parent_area": "湖南省长沙市",
        "value": 1
    },
    {
        "lng": "113.042422",
        "lat": "28.142233",
        "areaCode": "湖南省长沙市雨花区",
        "name": "湖南省长沙市雨花区",
        "parent_area": "湖南省长沙市",
        "value": 2
    },
    {
        "lng": "103.792414",
        "lat": "36.072129",
        "areaCode": "甘肃省兰州市七里河区",
        "name": "甘肃省兰州市七里河区",
        "parent_area": "甘肃省兰州市",
        "value": 1
    },
    {
        "lng": "103.831475",
        "lat": "36.063181",
        "areaCode": "甘肃省兰州市城关区",
        "name": "甘肃省兰州市城关区",
        "parent_area": "甘肃省兰州市",
        "value": 3
    },
    {
        "lng": "106.21139",
        "lat": "34.994905",
        "areaCode": "甘肃省天水市张家川回族自治县",
        "name": "甘肃省天水市张家川回族自治县",
        "parent_area": "甘肃省天水市",
        "value": 1
    },
    {
        "lng": "104.897428",
        "lat": "34.727669",
        "areaCode": "甘肃省天水市武山县",
        "name": "甘肃省天水市武山县",
        "parent_area": "甘肃省天水市",
        "value": 1
    },
    {
        "lng": "105.681575",
        "lat": "34.864876",
        "areaCode": "甘肃省天水市秦安县",
        "name": "甘肃省天水市秦安县",
        "parent_area": "甘肃省天水市",
        "value": 2
    },
    {
        "lng": "105.895597",
        "lat": "34.576337",
        "areaCode": "甘肃省天水市麦积区",
        "name": "甘肃省天水市麦积区",
        "parent_area": "甘肃省天水市",
        "value": 1
    },
    {
        "lng": "104.641381",
        "lat": "35.010197",
        "areaCode": "甘肃省定西市陇西县",
        "name": "甘肃省定西市陇西县",
        "parent_area": "甘肃省定西市",
        "value": 1
    },
    {
        "lng": "102.648575",
        "lat": "37.934122",
        "areaCode": "甘肃省武威市凉州区",
        "name": "甘肃省武威市凉州区",
        "parent_area": "甘肃省武威市",
        "value": 2
    },
    {
        "lng": "102.90363",
        "lat": "37.475802",
        "areaCode": "甘肃省武威市古浪县",
        "name": "甘肃省武威市古浪县",
        "parent_area": "甘肃省武威市",
        "value": 1
    },
    {
        "lng": "98.514322",
        "lat": "39.751246",
        "areaCode": "甘肃省酒泉市肃州区",
        "name": "甘肃省酒泉市肃州区",
        "parent_area": "甘肃省酒泉市",
        "value": 1
    },
    {
        "lng": "116.660426",
        "lat": "26.267956",
        "areaCode": "福建省三明市宁化县",
        "name": "福建省三明市宁化县",
        "parent_area": "福建省三明市",
        "value": 1
    },
    {
        "lng": "117.477409",
        "lat": "26.73521",
        "areaCode": "福建省三明市将乐县",
        "name": "福建省三明市将乐县",
        "parent_area": "福建省三明市",
        "value": 1
    },
    {
        "lng": "117.798561",
        "lat": "26.402813",
        "areaCode": "福建省三明市沙县",
        "name": "福建省三明市沙县",
        "parent_area": "福建省三明市",
        "value": 3
    },
    {
        "lng": "118.547439",
        "lat": "27.92339",
        "areaCode": "福建省南平市浦城县",
        "name": "福建省南平市浦城县",
        "parent_area": "福建省南平市",
        "value": 1
    },
    {
        "lng": "118.088408",
        "lat": "24.451948",
        "areaCode": "福建省厦门市思明区",
        "name": "福建省厦门市思明区",
        "parent_area": "福建省厦门市",
        "value": 1
    },
    {
        "lng": "118.153588",
        "lat": "24.517573",
        "areaCode": "福建省厦门市湖里区",
        "name": "福建省厦门市湖里区",
        "parent_area": "福建省厦门市",
        "value": 1
    },
    {
        "lng": "119.654406",
        "lat": "27.094324",
        "areaCode": "福建省宁德市福安市",
        "name": "福建省宁德市福安市",
        "parent_area": "福建省宁德市",
        "value": 1
    },
    {
        "lng": "118.392572",
        "lat": "24.966362",
        "areaCode": "福建省泉州市南安市",
        "name": "福建省泉州市南安市",
        "parent_area": "福建省泉州市",
        "value": 4
    },
    {
        "lng": "118.558431",
        "lat": "24.787825",
        "areaCode": "福建省泉州市晋江市",
        "name": "福建省泉州市晋江市",
        "parent_area": "福建省泉州市",
        "value": 1
    },
    {
        "lng": "118.300486",
        "lat": "25.327974",
        "areaCode": "福建省泉州市永春县",
        "name": "福建省泉州市永春县",
        "parent_area": "福建省泉州市",
        "value": 1
    },
    {
        "lng": "117.346448",
        "lat": "23.964073",
        "areaCode": "福建省漳州市云霄县",
        "name": "福建省漳州市云霄县",
        "parent_area": "福建省漳州市",
        "value": 1
    },
    {
        "lng": "119.320528",
        "lat": "26.058528",
        "areaCode": "福建省福州市台江区",
        "name": "福建省福州市台江区",
        "parent_area": "福建省福州市",
        "value": 1
    },
    {
        "lng": "118.938431",
        "lat": "25.872787",
        "areaCode": "福建省福州市永泰县",
        "name": "福建省福州市永泰县",
        "parent_area": "福建省福州市",
        "value": 3
    },
    {
        "lng": "119.546479",
        "lat": "26.203583",
        "areaCode": "福建省福州市连江县",
        "name": "福建省福州市连江县",
        "parent_area": "福建省福州市",
        "value": 3
    },
    {
        "lng": "119.529438",
        "lat": "25.969257",
        "areaCode": "福建省福州市长乐市",
        "name": "福建省福州市长乐市",
        "parent_area": "福建省福州市",
        "value": 1
    },
    {
        "lng": "119.138482",
        "lat": "26.156035",
        "areaCode": "福建省福州市闽侯县",
        "name": "福建省福州市闽侯县",
        "parent_area": "福建省福州市",
        "value": 1
    },
    {
        "lng": "119.019482",
        "lat": "25.439754",
        "areaCode": "福建省莆田市荔城区",
        "name": "福建省莆田市荔城区",
        "parent_area": "福建省莆田市",
        "value": 2
    },
    {
        "lng": "116.760446",
        "lat": "25.716337",
        "areaCode": "福建省龙岩市连城县",
        "name": "福建省龙岩市连城县",
        "parent_area": "福建省龙岩市",
        "value": 1
    },
    {
        "lng": "116.363568",
        "lat": "25.839185",
        "areaCode": "福建省龙岩市长汀县",
        "name": "福建省龙岩市长汀县",
        "parent_area": "福建省龙岩市",
        "value": 1
    },
    {
        "lng": "105.483429",
        "lat": "26.219214",
        "areaCode": "贵州省六盘水市六枝特区",
        "name": "贵州省六盘水市六枝特区",
        "parent_area": "贵州省六盘水市",
        "value": 2
    },
    {
        "lng": "104.85053",
        "lat": "26.580704",
        "areaCode": "贵州省六盘水市钟山区",
        "name": "贵州省六盘水市钟山区",
        "parent_area": "贵州省六盘水市",
        "value": 1
    },
    {
        "lng": "106.720528",
        "lat": "26.574336",
        "areaCode": "贵州省贵阳市南明区",
        "name": "贵州省贵阳市南明区",
        "parent_area": "贵州省贵阳市",
        "value": 1
    },
    {
        "lng": "106.676441",
        "lat": "26.415879",
        "areaCode": "贵州省贵阳市花溪区",
        "name": "贵州省贵阳市花溪区",
        "parent_area": "贵州省贵阳市",
        "value": 1
    },
    {
        "lng": "106.407527",
        "lat": "27.797752",
        "areaCode": "贵州省遵义市仁怀市",
        "name": "贵州省遵义市仁怀市",
        "parent_area": "贵州省遵义市",
        "value": 1
    },
    {
        "lng": "106.836504",
        "lat": "27.542501",
        "areaCode": "贵州省遵义市遵义县",
        "name": "贵州省遵义市遵义县",
        "parent_area": "贵州省遵义市",
        "value": 3
    },
    {
        "lng": "108.259417",
        "lat": "27.944548",
        "areaCode": "贵州省铜仁市思南县",
        "name": "贵州省铜仁市思南县",
        "parent_area": "贵州省铜仁市",
        "value": 1
    },
    {
        "lng": "108.8454",
        "lat": "27.705922",
        "areaCode": "贵州省铜仁市江口县",
        "name": "贵州省铜仁市江口县",
        "parent_area": "贵州省铜仁市",
        "value": 1
    },
    {
        "lng": "122.974495",
        "lat": "39.686956",
        "areaCode": "辽宁省大连市庄河市",
        "name": "辽宁省大连市庄河市",
        "parent_area": "辽宁省大连市",
        "value": 1
    },
    {
        "lng": "121.789436",
        "lat": "39.056433",
        "areaCode": "辽宁省大连市金州区",
        "name": "辽宁省大连市金州区",
        "parent_area": "辽宁省大连市",
        "value": 2
    },
    {
        "lng": "120.443567",
        "lat": "41.598469",
        "areaCode": "辽宁省朝阳市龙城区",
        "name": "辽宁省朝阳市龙城区",
        "parent_area": "辽宁省朝阳市",
        "value": 1
    },
    {
        "lng": "123.823474",
        "lat": "41.314939",
        "areaCode": "辽宁省本溪市明山区",
        "name": "辽宁省本溪市明山区",
        "parent_area": "辽宁省本溪市",
        "value": 2
    },
    {
        "lng": "123.45599",
        "lat": "41.720916",
        "areaCode": "辽宁省沈阳市东陵区",
        "name": "辽宁省沈阳市东陵区",
        "parent_area": "辽宁省沈阳市",
        "value": 1
    },
    {
        "lng": "123.314633",
        "lat": "41.799668",
        "areaCode": "辽宁省沈阳市于洪区",
        "name": "辽宁省沈阳市于洪区",
        "parent_area": "辽宁省沈阳市",
        "value": 1
    },
    {
        "lng": "123.337511",
        "lat": "42.749925",
        "areaCode": "辽宁省沈阳市康平县",
        "name": "辽宁省沈阳市康平县",
        "parent_area": "辽宁省沈阳市",
        "value": 1
    },
    {
        "lng": "123.533605",
        "lat": "42.058914",
        "areaCode": "辽宁省沈阳市沈北新区",
        "name": "辽宁省沈阳市沈北新区",
        "parent_area": "辽宁省沈阳市",
        "value": 1
    },
    {
        "lng": "122.772378",
        "lat": "41.523149",
        "areaCode": "辽宁省沈阳市辽中县",
        "name": "辽宁省沈阳市辽中县",
        "parent_area": "辽宁省沈阳市",
        "value": 1
    },
    {
        "lng": "122.127573",
        "lat": "40.23234",
        "areaCode": "辽宁省营口市鲅鱼圈区",
        "name": "辽宁省营口市鲅鱼圈区",
        "parent_area": "辽宁省营口市",
        "value": 2
    },
    {
        "lng": "123.735372",
        "lat": "42.229226",
        "areaCode": "辽宁省铁岭市铁岭县",
        "name": "辽宁省铁岭市铁岭县",
        "parent_area": "辽宁省铁岭市",
        "value": 1
    },
    {
        "lng": "121.15759",
        "lat": "41.120691",
        "areaCode": "辽宁省锦州市凌河区",
        "name": "辽宁省锦州市凌河区",
        "parent_area": "辽宁省锦州市",
        "value": 1
    },
    {
        "lng": "121.362539",
        "lat": "41.166488",
        "areaCode": "辽宁省锦州市凌海市",
        "name": "辽宁省锦州市凌海市",
        "parent_area": "辽宁省锦州市",
        "value": 1
    },
    {
        "lng": "121.110453",
        "lat": "41.115109",
        "areaCode": "辽宁省锦州市太和区",
        "name": "辽宁省锦州市太和区",
        "parent_area": "辽宁省锦州市",
        "value": 1
    },
    {
        "lng": "122.130557",
        "lat": "41.671593",
        "areaCode": "辽宁省锦州市黑山县",
        "name": "辽宁省锦州市黑山县",
        "parent_area": "辽宁省锦州市",
        "value": 1
    },
    {
        "lng": "122.9974",
        "lat": "41.096332",
        "areaCode": "辽宁省鞍山市铁东区",
        "name": "辽宁省鞍山市铁东区",
        "parent_area": "辽宁省鞍山市",
        "value": 1
    },
    {
        "lng": "108.415558",
        "lat": "30.813622",
        "areaCode": "重庆市重庆市万州区",
        "name": "重庆市重庆市万州区",
        "parent_area": "重庆市重庆市",
        "value": 3
    },
    {
        "lng": "106.517559",
        "lat": "29.507928",
        "areaCode": "重庆市重庆市九龙坡区",
        "name": "重庆市重庆市九龙坡区",
        "parent_area": "重庆市重庆市",
        "value": 1
    },
    {
        "lng": "108.703448",
        "lat": "30.936611",
        "areaCode": "重庆市重庆市云阳县",
        "name": "重庆市重庆市云阳县",
        "parent_area": "重庆市重庆市",
        "value": 2
    },
    {
        "lng": "106.402281",
        "lat": "29.811157",
        "areaCode": "重庆市重庆市北碚区",
        "name": "重庆市重庆市北碚区",
        "parent_area": "重庆市重庆市",
        "value": 1
    },
    {
        "lng": "106.66843",
        "lat": "29.502683",
        "areaCode": "重庆市重庆市南岸区",
        "name": "重庆市重庆市南岸区",
        "parent_area": "重庆市重庆市",
        "value": 2
    },
    {
        "lng": "106.282541",
        "lat": "29.978181",
        "areaCode": "重庆市重庆市合川区",
        "name": "重庆市重庆市合川区",
        "parent_area": "重庆市重庆市",
        "value": 2
    },
    {
        "lng": "107.339566",
        "lat": "30.333294",
        "areaCode": "重庆市重庆市垫江县",
        "name": "重庆市重庆市垫江县",
        "parent_area": "重庆市重庆市",
        "value": 1
    },
    {
        "lng": "106.488534",
        "lat": "29.490107",
        "areaCode": "重庆市重庆市大渡口区",
        "name": "重庆市重庆市大渡口区",
        "parent_area": "重庆市重庆市",
        "value": 1
    },
    {
        "lng": "109.470473",
        "lat": "31.024602",
        "areaCode": "重庆市重庆市奉节县",
        "name": "重庆市重庆市奉节县",
        "parent_area": "重庆市重庆市",
        "value": 5
    },
    {
        "lng": "109.885546",
        "lat": "31.080519",
        "areaCode": "重庆市重庆市巫山县",
        "name": "重庆市重庆市巫山县",
        "parent_area": "重庆市重庆市",
        "value": 1
    },
    {
        "lng": "109.576403",
        "lat": "31.40488",
        "areaCode": "重庆市重庆市巫溪县",
        "name": "重庆市重庆市巫溪县",
        "parent_area": "重庆市重庆市",
        "value": 1
    },
    {
        "lng": "108.399498",
        "lat": "31.166644",
        "areaCode": "重庆市重庆市开县",
        "name": "重庆市重庆市开县",
        "parent_area": "重庆市重庆市",
        "value": 3
    },
    {
        "lng": "108.044538",
        "lat": "30.305268",
        "areaCode": "重庆市重庆市忠县",
        "name": "重庆市重庆市忠县",
        "parent_area": "重庆市重庆市",
        "value": 2
    },
    {
        "lng": "107.776097",
        "lat": "30.660553",
        "areaCode": "重庆市重庆市梁平县",
        "name": "重庆市重庆市梁平县",
        "parent_area": "重庆市重庆市",
        "value": 1
    },
    {
        "lng": "106.580415",
        "lat": "29.612832",
        "areaCode": "重庆市重庆市江北区",
        "name": "重庆市重庆市江北区",
        "parent_area": "重庆市重庆市",
        "value": 1
    },
    {
        "lng": "106.464465",
        "lat": "29.547193",
        "areaCode": "重庆市重庆市沙坪坝区",
        "name": "重庆市重庆市沙坪坝区",
        "parent_area": "重庆市重庆市",
        "value": 1
    },
    {
        "lng": "107.39642",
        "lat": "29.709278",
        "areaCode": "重庆市重庆市涪陵区",
        "name": "重庆市重庆市涪陵区",
        "parent_area": "重庆市重庆市",
        "value": 1
    },
    {
        "lng": "106.57544",
        "lat": "29.55909",
        "areaCode": "重庆市重庆市渝中区",
        "name": "重庆市重庆市渝中区",
        "parent_area": "重庆市重庆市",
        "value": 2
    },
    {
        "lng": "106.637559",
        "lat": "29.723927",
        "areaCode": "重庆市重庆市渝北区",
        "name": "重庆市重庆市渝北区",
        "parent_area": "重庆市重庆市",
        "value": 2
    },
    {
        "lng": "105.847399",
        "lat": "30.197314",
        "areaCode": "重庆市重庆市潼南县",
        "name": "重庆市重庆市潼南县",
        "parent_area": "重庆市重庆市",
        "value": 1
    },
    {
        "lng": "108.120414",
        "lat": "30.006109",
        "areaCode": "重庆市重庆市石柱土家族自治县",
        "name": "重庆市重庆市石柱土家族自治县",
        "parent_area": "重庆市重庆市",
        "value": 1
    },
    {
        "lng": "109.013574",
        "lat": "28.453448",
        "areaCode": "重庆市重庆市秀山土家族苗族自治县",
        "name": "重庆市重庆市秀山土家族苗族自治县",
        "parent_area": "重庆市重庆市",
        "value": 1
    },
    {
        "lng": "108.774586",
        "lat": "28.84704",
        "areaCode": "重庆市重庆市酉阳土家族苗族自治县",
        "name": "重庆市重庆市酉阳土家族苗族自治县",
        "parent_area": "重庆市重庆市",
        "value": 1
    },
    {
        "lng": "106.063449",
        "lat": "29.850509",
        "areaCode": "重庆市重庆市铜梁县",
        "name": "重庆市重庆市铜梁县",
        "parent_area": "重庆市重庆市",
        "value": 1
    },
    {
        "lng": "107.087531",
        "lat": "29.86352",
        "areaCode": "重庆市重庆市长寿区",
        "name": "重庆市重庆市长寿区",
        "parent_area": "重庆市重庆市",
        "value": 1
    },
    {
        "lng": "108.777591",
        "lat": "29.538813",
        "areaCode": "重庆市重庆市黔江区",
        "name": "重庆市重庆市黔江区",
        "parent_area": "重庆市重庆市",
        "value": 2
    },
    {
        "lng": "108.084566",
        "lat": "35.049611",
        "areaCode": "陕西省咸阳市彬县",
        "name": "陕西省咸阳市彬县",
        "parent_area": "陕西省咸阳市",
        "value": 1
    },
    {
        "lng": "107.805561",
        "lat": "35.211657",
        "areaCode": "陕西省咸阳市长武县",
        "name": "陕西省咸阳市长武县",
        "parent_area": "陕西省咸阳市",
        "value": 1
    },
    {
        "lng": "109.368547",
        "lat": "32.394804",
        "areaCode": "陕西省安康市平利县",
        "name": "陕西省安康市平利县",
        "parent_area": "陕西省安康市",
        "value": 1
    },
    {
        "lng": "109.371557",
        "lat": "32.839864",
        "areaCode": "陕西省安康市旬阳县",
        "name": "陕西省安康市旬阳县",
        "parent_area": "陕西省安康市",
        "value": 2
    },
    {
        "lng": "108.515507",
        "lat": "32.899121",
        "areaCode": "陕西省安康市汉阴县",
        "name": "陕西省安康市汉阴县",
        "parent_area": "陕西省安康市",
        "value": 1
    },
    {
        "lng": "110.119587",
        "lat": "32.814846",
        "areaCode": "陕西省安康市白河县",
        "name": "陕西省安康市白河县",
        "parent_area": "陕西省安康市",
        "value": 1
    },
    {
        "lng": "108.541594",
        "lat": "32.525786",
        "areaCode": "陕西省安康市紫阳县",
        "name": "陕西省安康市紫阳县",
        "parent_area": "陕西省安康市",
        "value": 1
    },
    {
        "lng": "107.407379",
        "lat": "34.527616",
        "areaCode": "陕西省宝鸡市凤翔县",
        "name": "陕西省宝鸡市凤翔县",
        "parent_area": "陕西省宝鸡市",
        "value": 1
    },
    {
        "lng": "107.325529",
        "lat": "34.064248",
        "areaCode": "陕西省宝鸡市太白县",
        "name": "陕西省宝鸡市太白县",
        "parent_area": "陕西省宝鸡市",
        "value": 1
    },
    {
        "lng": "107.153424",
        "lat": "34.382351",
        "areaCode": "陕西省宝鸡市金台区",
        "name": "陕西省宝鸡市金台区",
        "parent_area": "陕西省宝鸡市",
        "value": 1
    },
    {
        "lng": "107.393438",
        "lat": "34.360756",
        "areaCode": "陕西省宝鸡市陈仓区",
        "name": "陕西省宝鸡市陈仓区",
        "parent_area": "陕西省宝鸡市",
        "value": 1
    },
    {
        "lng": "108.228422",
        "lat": "34.169385",
        "areaCode": "陕西省西安市周至县",
        "name": "陕西省西安市周至县",
        "parent_area": "陕西省西安市",
        "value": 1
    },
    {
        "lng": "108.953401",
        "lat": "34.299148",
        "areaCode": "陕西省西安市未央区",
        "name": "陕西省西安市未央区",
        "parent_area": "陕西省西安市",
        "value": 2
    },
    {
        "lng": "108.940498",
        "lat": "34.236474",
        "areaCode": "陕西省西安市碑林区",
        "name": "陕西省西安市碑林区",
        "parent_area": "陕西省西安市",
        "value": 1
    },
    {
        "lng": "108.95144",
        "lat": "34.220635",
        "areaCode": "陕西省西安市雁塔区",
        "name": "陕西省西安市雁塔区",
        "parent_area": "陕西省西安市",
        "value": 1
    },
    {
        "lng": "130.560385",
        "lat": "46.245077",
        "areaCode": "黑龙江省佳木斯市桦南县",
        "name": "黑龙江省佳木斯市桦南县",
        "parent_area": "黑龙江省佳木斯市",
        "value": 2
    },
    {
        "lng": "129.57452",
        "lat": "46.33126",
        "areaCode": "黑龙江省哈尔滨市依兰县",
        "name": "黑龙江省哈尔滨市依兰县",
        "parent_area": "黑龙江省哈尔滨市",
        "value": 1
    },
    {
        "lng": "126.675638",
        "lat": "45.765866",
        "areaCode": "黑龙江省哈尔滨市南岗区",
        "name": "黑龙江省哈尔滨市南岗区",
        "parent_area": "黑龙江省哈尔滨市",
        "value": 1
    },
    {
        "lng": "126.319623",
        "lat": "45.388112",
        "areaCode": "黑龙江省哈尔滨市双城市",
        "name": "黑龙江省哈尔滨市双城市",
        "parent_area": "黑龙江省哈尔滨市",
        "value": 1
    },
    {
        "lng": "126.643547",
        "lat": "45.603862",
        "areaCode": "黑龙江省哈尔滨市平房区",
        "name": "黑龙江省哈尔滨市平房区",
        "parent_area": "黑龙江省哈尔滨市",
        "value": 1
    },
    {
        "lng": "126.623432",
        "lat": "45.761844",
        "areaCode": "黑龙江省哈尔滨市道里区",
        "name": "黑龙江省哈尔滨市道里区",
        "parent_area": "黑龙江省哈尔滨市",
        "value": 1
    },
    {
        "lng": "125.13351",
        "lat": "46.638936",
        "areaCode": "黑龙江省大庆市萨尔图区",
        "name": "黑龙江省大庆市萨尔图区",
        "parent_area": "黑龙江省大庆市",
        "value": 1
    },
    {
        "lng": "124.877599",
        "lat": "46.658078",
        "areaCode": "黑龙江省大庆市让胡路区",
        "name": "黑龙江省大庆市让胡路区",
        "parent_area": "黑龙江省大庆市",
        "value": 1
    },
    {
        "lng": "129.489368",
        "lat": "44.346984",
        "areaCode": "黑龙江省牡丹江市宁安市",
        "name": "黑龙江省牡丹江市宁安市",
        "parent_area": "黑龙江省牡丹江市",
        "value": 2
    },
    {
        "lng": "126.936509",
        "lat": "47.456904",
        "areaCode": "黑龙江省绥化市海伦市",
        "name": "黑龙江省绥化市海伦市",
        "parent_area": "黑龙江省绥化市",
        "value": 2
    },
    {
        "lng": "130.911385",
        "lat": "45.216972",
        "areaCode": "黑龙江省鸡西市恒山区",
        "name": "黑龙江省鸡西市恒山区",
        "parent_area": "黑龙江省鸡西市",
        "value": 1
    },
    {
        "lng": "130.835495",
        "lat": "47.583422",
        "areaCode": "黑龙江省鹤岗市萝北县",
        "name": "黑龙江省鹤岗市萝北县",
        "parent_area": "黑龙江省鹤岗市",
        "value": 1
    }
]