[
    {
        "lng": "121.480504",
        "lat": "30.92372",
        "areaCode": "上海市上海市奉贤区",
        "name": "上海市上海市奉贤区",
        "parent_area": "上海市上海市",
        "value": 1
    },
    {
        "lng": "121.496563",
        "lat": "31.410279",
        "areaCode": "上海市上海市宝山区",
        "name": "上海市上海市宝山区",
        "parent_area": "上海市上海市",
        "value": 1
    },
    {
        "lng": "121.23448",
        "lat": "31.037135",
        "areaCode": "上海市上海市松江区",
        "name": "上海市上海市松江区",
        "parent_area": "上海市上海市",
        "value": 1
    },
    {
        "lng": "121.550455",
        "lat": "31.227348",
        "areaCode": "上海市上海市浦东新区",
        "name": "上海市上海市浦东新区",
        "parent_area": "上海市上海市",
        "value": 7
    },
    {
        "lng": "121.388612",
        "lat": "31.118843",
        "areaCode": "上海市上海市闵行区",
        "name": "上海市上海市闵行区",
        "parent_area": "上海市上海市",
        "value": 1
    },
    {
        "lng": "100.23248",
        "lat": "26.883162",
        "areaCode": "云南省丽江市古城区",
        "name": "云南省丽江市古城区",
        "parent_area": "云南省丽江市",
        "value": 1
    },
    {
        "lng": "100.243527",
        "lat": "26.827392",
        "areaCode": "云南省丽江市玉龙纳西族自治县",
        "name": "云南省丽江市玉龙纳西族自治县",
        "parent_area": "云南省丽江市",
        "value": 2
    },
    {
        "lng": "100.236519",
        "lat": "25.597605",
        "areaCode": "云南省大理白族自治州大理市",
        "name": "云南省大理白族自治州大理市",
        "parent_area": "云南省大理白族自治州",
        "value": 1
    },
    {
        "lng": "100.557447",
        "lat": "25.489873",
        "areaCode": "云南省大理白族自治州祥云县",
        "name": "云南省大理白族自治州祥云县",
        "parent_area": "云南省大理白族自治州",
        "value": 3
    },
    {
        "lng": "102.713423",
        "lat": "25.049835",
        "areaCode": "云南省昆明市五华区",
        "name": "云南省昆明市五华区",
        "parent_area": "云南省昆明市",
        "value": 1
    },
    {
        "lng": "102.671557",
        "lat": "25.043199",
        "areaCode": "云南省昆明市西山区",
        "name": "云南省昆明市西山区",
        "parent_area": "云南省昆明市",
        "value": 2
    },
    {
        "lng": "104.054443",
        "lat": "27.63169",
        "areaCode": "云南省昭通市彝良县",
        "name": "云南省昭通市彝良县",
        "parent_area": "云南省昭通市",
        "value": 1
    },
    {
        "lng": "104.422433",
        "lat": "28.636107",
        "areaCode": "云南省昭通市水富县",
        "name": "云南省昭通市水富县",
        "parent_area": "云南省昭通市",
        "value": 1
    },
    {
        "lng": "104.241579",
        "lat": "28.114384",
        "areaCode": "云南省昭通市盐津县",
        "name": "云南省昭通市盐津县",
        "parent_area": "云南省昭通市",
        "value": 1
    },
    {
        "lng": "104.111576",
        "lat": "26.225598",
        "areaCode": "云南省曲靖市宣威市",
        "name": "云南省曲靖市宣威市",
        "parent_area": "云南省曲靖市",
        "value": 1
    },
    {
        "lng": "104.31551",
        "lat": "24.89052",
        "areaCode": "云南省曲靖市罗平县",
        "name": "云南省曲靖市罗平县",
        "parent_area": "云南省曲靖市",
        "value": 1
    },
    {
        "lng": "101.330567",
        "lat": "25.727601",
        "areaCode": "云南省楚雄彝族自治州大姚县",
        "name": "云南省楚雄彝族自治州大姚县",
        "parent_area": "云南省楚雄彝族自治州",
        "value": 1
    },
    {
        "lng": "103.166519",
        "lat": "23.364942",
        "areaCode": "云南省红河哈尼族彝族自治州个旧市",
        "name": "云南省红河哈尼族彝族自治州个旧市",
        "parent_area": "云南省红河哈尼族彝族自治州",
        "value": 1
    },
    {
        "lng": "100.806443",
        "lat": "22.017004",
        "areaCode": "云南省西双版纳傣族自治州景洪市",
        "name": "云南省西双版纳傣族自治州景洪市",
        "parent_area": "云南省西双版纳傣族自治州",
        "value": 1
    },
    {
        "lng": "110.530389",
        "lat": "40.575127",
        "areaCode": "内蒙古自治区包头市土默特右旗",
        "name": "内蒙古自治区包头市土默特右旗",
        "parent_area": "内蒙古自治区包头市",
        "value": 1
    },
    {
        "lng": "109.845538",
        "lat": "40.647644",
        "areaCode": "内蒙古自治区包头市昆都仑区",
        "name": "内蒙古自治区包头市昆都仑区",
        "parent_area": "内蒙古自治区包头市",
        "value": 1
    },
    {
        "lng": "111.82843",
        "lat": "40.384798",
        "areaCode": "内蒙古自治区呼和浩特市和林格尔县",
        "name": "内蒙古自治区呼和浩特市和林格尔县",
        "parent_area": "内蒙古自治区呼和浩特市",
        "value": 1
    },
    {
        "lng": "111.457497",
        "lat": "41.102419",
        "areaCode": "内蒙古自治区呼和浩特市武川县",
        "name": "内蒙古自治区呼和浩特市武川县",
        "parent_area": "内蒙古自治区呼和浩特市",
        "value": 1
    },
    {
        "lng": "118.710474",
        "lat": "41.932214",
        "areaCode": "内蒙古自治区赤峰市喀喇沁旗",
        "name": "内蒙古自治区赤峰市喀喇沁旗",
        "parent_area": "内蒙古自治区赤峰市",
        "value": 1
    },
    {
        "lng": "119.350609",
        "lat": "41.600245",
        "areaCode": "内蒙古自治区赤峰市宁城县",
        "name": "内蒙古自治区赤峰市宁城县",
        "parent_area": "内蒙古自治区赤峰市",
        "value": 1
    },
    {
        "lng": "109.96956",
        "lat": "39.827987",
        "areaCode": "内蒙古自治区鄂尔多斯市东胜区",
        "name": "内蒙古自治区鄂尔多斯市东胜区",
        "parent_area": "内蒙古自治区鄂尔多斯市",
        "value": 1
    },
    {
        "lng": "111.246398",
        "lat": "39.87054",
        "areaCode": "内蒙古自治区鄂尔多斯市准格尔旗",
        "name": "内蒙古自治区鄂尔多斯市准格尔旗",
        "parent_area": "内蒙古自治区鄂尔多斯市",
        "value": 1
    },
    {
        "lng": "111.958363",
        "lat": "43.6488",
        "areaCode": "内蒙古自治区锡林郭勒盟二连浩特市",
        "name": "内蒙古自治区锡林郭勒盟二连浩特市",
        "parent_area": "内蒙古自治区锡林郭勒盟",
        "value": 1
    },
    {
        "lng": "116.422401",
        "lat": "39.934827",
        "areaCode": "北京市北京市东城区",
        "name": "北京市北京市东城区",
        "parent_area": "北京市北京市",
        "value": 3
    },
    {
        "lng": "116.292402",
        "lat": "39.864937",
        "areaCode": "北京市北京市丰台区",
        "name": "北京市北京市丰台区",
        "parent_area": "北京市北京市",
        "value": 1
    },
    {
        "lng": "116.348625",
        "lat": "39.732555",
        "areaCode": "北京市北京市大兴区",
        "name": "北京市北京市大兴区",
        "parent_area": "北京市北京市",
        "value": 1
    },
    {
        "lng": "116.849547",
        "lat": "40.382176",
        "areaCode": "北京市北京市密云县",
        "name": "北京市北京市密云县",
        "parent_area": "北京市北京市",
        "value": 1
    },
    {
        "lng": "116.237618",
        "lat": "40.226413",
        "areaCode": "北京市北京市昌平区",
        "name": "北京市北京市昌平区",
        "parent_area": "北京市北京市",
        "value": 2
    },
    {
        "lng": "116.149444",
        "lat": "39.754326",
        "areaCode": "北京市北京市房山区",
        "name": "北京市北京市房山区",
        "parent_area": "北京市北京市",
        "value": 1
    },
    {
        "lng": "116.449559",
        "lat": "39.926375",
        "areaCode": "北京市北京市朝阳区",
        "name": "北京市北京市朝阳区",
        "parent_area": "北京市北京市",
        "value": 6
    },
    {
        "lng": "116.305434",
        "lat": "39.96549",
        "areaCode": "北京市北京市海淀区",
        "name": "北京市北京市海淀区",
        "parent_area": "北京市北京市",
        "value": 1
    },
    {
        "lng": "116.663415",
        "lat": "39.916017",
        "areaCode": "北京市北京市通州区",
        "name": "北京市北京市通州区",
        "parent_area": "北京市北京市",
        "value": 2
    },
    {
        "lng": "116.661424",
        "lat": "40.136351",
        "areaCode": "北京市北京市顺义区",
        "name": "北京市北京市顺义区",
        "parent_area": "北京市北京市",
        "value": 1
    },
    {
        "lng": "120.310694",
        "lat": "22.723707",
        "areaCode": "台湾省高雄市楠梓区",
        "name": "台湾省高雄市楠梓区",
        "parent_area": "台湾省高雄市",
        "value": 1
    },
    {
        "lng": "126.56857",
        "lat": "43.827152",
        "areaCode": "吉林省吉林市丰满区",
        "name": "吉林省吉林市丰满区",
        "parent_area": "吉林省吉林市",
        "value": 1
    },
    {
        "lng": "126.971377",
        "lat": "44.41227",
        "areaCode": "吉林省吉林市舒兰市",
        "name": "吉林省吉林市舒兰市",
        "parent_area": "吉林省吉林市",
        "value": 1
    },
    {
        "lng": "129.52052",
        "lat": "42.912717",
        "areaCode": "吉林省延边朝鲜族自治州延吉市",
        "name": "吉林省延边朝鲜族自治州延吉市",
        "parent_area": "吉林省延边朝鲜族自治州",
        "value": 1
    },
    {
        "lng": "128.238612",
        "lat": "43.378291",
        "areaCode": "吉林省延边朝鲜族自治州敦化市",
        "name": "吉林省延边朝鲜族自治州敦化市",
        "parent_area": "吉林省延边朝鲜族自治州",
        "value": 1
    },
    {
        "lng": "124.830456",
        "lat": "45.123416",
        "areaCode": "吉林省松原市前郭尔罗斯蒙古族自治县",
        "name": "吉林省松原市前郭尔罗斯蒙古族自治县",
        "parent_area": "吉林省松原市",
        "value": 2
    },
    {
        "lng": "125.295401",
        "lat": "43.840641",
        "areaCode": "吉林省长春市朝阳区",
        "name": "吉林省长春市朝阳区",
        "parent_area": "吉林省长春市",
        "value": 1
    },
    {
        "lng": "103.57841",
        "lat": "29.743846",
        "areaCode": "四川省乐山市夹江县",
        "name": "四川省乐山市夹江县",
        "parent_area": "四川省乐山市",
        "value": 1
    },
    {
        "lng": "103.491546",
        "lat": "29.606976",
        "areaCode": "四川省乐山市峨眉山市",
        "name": "四川省乐山市峨眉山市",
        "parent_area": "四川省乐山市",
        "value": 2
    },
    {
        "lng": "105.082547",
        "lat": "29.598486",
        "areaCode": "四川省内江市东兴区",
        "name": "四川省内江市东兴区",
        "parent_area": "四川省内江市",
        "value": 2
    },
    {
        "lng": "105.074574",
        "lat": "29.59271",
        "areaCode": "四川省内江市市中区",
        "name": "四川省内江市市中区",
        "parent_area": "四川省内江市",
        "value": 2
    },
    {
        "lng": "104.858495",
        "lat": "29.770234",
        "areaCode": "四川省内江市资中县",
        "name": "四川省内江市资中县",
        "parent_area": "四川省内江市",
        "value": 1
    },
    {
        "lng": "106.30943",
        "lat": "31.277597",
        "areaCode": "四川省南充市仪陇县",
        "name": "四川省南充市仪陇县",
        "parent_area": "四川省南充市",
        "value": 2
    },
    {
        "lng": "106.043578",
        "lat": "31.353705",
        "areaCode": "四川省南充市南部县",
        "name": "四川省南充市南部县",
        "parent_area": "四川省南充市",
        "value": 2
    },
    {
        "lng": "106.078433",
        "lat": "30.764896",
        "areaCode": "四川省南充市嘉陵区",
        "name": "四川省南充市嘉陵区",
        "parent_area": "四川省南充市",
        "value": 2
    },
    {
        "lng": "106.572408",
        "lat": "31.083003",
        "areaCode": "四川省南充市营山县",
        "name": "四川省南充市营山县",
        "parent_area": "四川省南充市",
        "value": 3
    },
    {
        "lng": "105.907611",
        "lat": "31.000688",
        "areaCode": "四川省南充市西充县",
        "name": "四川省南充市西充县",
        "parent_area": "四川省南充市",
        "value": 2
    },
    {
        "lng": "106.011565",
        "lat": "31.564075",
        "areaCode": "四川省南充市阆中市",
        "name": "四川省南充市阆中市",
        "parent_area": "四川省南充市",
        "value": 3
    },
    {
        "lng": "106.12554",
        "lat": "30.787255",
        "areaCode": "四川省南充市高坪区",
        "name": "四川省南充市高坪区",
        "parent_area": "四川省南充市",
        "value": 1
    },
    {
        "lng": "104.976513",
        "lat": "28.851504",
        "areaCode": "四川省宜宾市南溪区",
        "name": "四川省宜宾市南溪区",
        "parent_area": "四川省宜宾市",
        "value": 3
    },
    {
        "lng": "105.073595",
        "lat": "28.72961",
        "areaCode": "四川省宜宾市江安县",
        "name": "四川省宜宾市江安县",
        "parent_area": "四川省宜宾市",
        "value": 2
    },
    {
        "lng": "104.626438",
        "lat": "28.772052",
        "areaCode": "四川省宜宾市翠屏区",
        "name": "四川省宜宾市翠屏区",
        "parent_area": "四川省宜宾市",
        "value": 1
    },
    {
        "lng": "106.834483",
        "lat": "32.352532",
        "areaCode": "四川省巴中市南江县",
        "name": "四川省巴中市南江县",
        "parent_area": "四川省巴中市",
        "value": 1
    },
    {
        "lng": "106.775513",
        "lat": "31.857686",
        "areaCode": "四川省巴中市巴州区",
        "name": "四川省巴中市巴州区",
        "parent_area": "四川省巴中市",
        "value": 3
    },
    {
        "lng": "107.110593",
        "lat": "31.566186",
        "areaCode": "四川省巴中市平昌县",
        "name": "四川省巴中市平昌县",
        "parent_area": "四川省巴中市",
        "value": 2
    },
    {
        "lng": "107.251517",
        "lat": "31.917714",
        "areaCode": "四川省巴中市通江县",
        "name": "四川省巴中市通江县",
        "parent_area": "四川省巴中市",
        "value": 3
    },
    {
        "lng": "105.531576",
        "lat": "32.293479",
        "areaCode": "四川省广元市剑阁县",
        "name": "四川省广元市剑阁县",
        "parent_area": "四川省广元市",
        "value": 1
    },
    {
        "lng": "106.296491",
        "lat": "32.235097",
        "areaCode": "四川省广元市旺苍县",
        "name": "四川省广元市旺苍县",
        "parent_area": "四川省广元市",
        "value": 1
    },
    {
        "lng": "105.941483",
        "lat": "31.738684",
        "areaCode": "四川省广元市苍溪县",
        "name": "四川省广元市苍溪县",
        "parent_area": "四川省广元市",
        "value": 1
    },
    {
        "lng": "106.446411",
        "lat": "30.54412",
        "areaCode": "四川省广安市岳池县",
        "name": "四川省广安市岳池县",
        "parent_area": "四川省广安市",
        "value": 2
    },
    {
        "lng": "106.648531",
        "lat": "30.479768",
        "areaCode": "四川省广安市广安区",
        "name": "四川省广安市广安区",
        "parent_area": "四川省广安市",
        "value": 2
    },
    {
        "lng": "106.936403",
        "lat": "30.341073",
        "areaCode": "四川省广安市邻水县",
        "name": "四川省广安市邻水县",
        "parent_area": "四川省广安市",
        "value": 3
    },
    {
        "lng": "104.423439",
        "lat": "31.148596",
        "areaCode": "四川省德阳市旌阳区",
        "name": "四川省德阳市旌阳区",
        "parent_area": "四川省德阳市",
        "value": 1
    },
    {
        "lng": "103.930392",
        "lat": "30.580399",
        "areaCode": "四川省成都市双流县",
        "name": "四川省成都市双流县",
        "parent_area": "四川省成都市",
        "value": 1
    },
    {
        "lng": "103.52753",
        "lat": "30.593155",
        "areaCode": "四川省成都市大邑县",
        "name": "四川省成都市大邑县",
        "parent_area": "四川省成都市",
        "value": 1
    },
    {
        "lng": "104.108592",
        "lat": "30.665589",
        "areaCode": "四川省成都市成华区",
        "name": "四川省成都市成华区",
        "parent_area": "四川省成都市",
        "value": 1
    },
    {
        "lng": "103.817433",
        "lat": "30.416364",
        "areaCode": "四川省成都市新津县",
        "name": "四川省成都市新津县",
        "parent_area": "四川省成都市",
        "value": 1
    },
    {
        "lng": "104.049424",
        "lat": "30.648713",
        "areaCode": "四川省成都市武侯区",
        "name": "四川省成都市武侯区",
        "parent_area": "四川省成都市",
        "value": 1
    },
    {
        "lng": "103.863573",
        "lat": "30.688487",
        "areaCode": "四川省成都市温江区",
        "name": "四川省成都市温江区",
        "parent_area": "四川省成都市",
        "value": 1
    },
    {
        "lng": "103.653534",
        "lat": "30.994257",
        "areaCode": "四川省成都市都江堰市",
        "name": "四川省成都市都江堰市",
        "parent_area": "四川省成都市",
        "value": 1
    },
    {
        "lng": "104.418443",
        "lat": "30.868358",
        "areaCode": "四川省成都市金堂县",
        "name": "四川省成都市金堂县",
        "parent_area": "四川省成都市",
        "value": 1
    },
    {
        "lng": "104.057404",
        "lat": "30.697356",
        "areaCode": "四川省成都市金牛区",
        "name": "四川省成都市金牛区",
        "parent_area": "四川省成都市",
        "value": 1
    },
    {
        "lng": "104.089562",
        "lat": "30.661904",
        "areaCode": "四川省成都市锦江区",
        "name": "四川省成都市锦江区",
        "parent_area": "四川省成都市",
        "value": 2
    },
    {
        "lng": "104.281397",
        "lat": "30.562698",
        "areaCode": "四川省成都市龙泉驿区",
        "name": "四川省成都市龙泉驿区",
        "parent_area": "四川省成都市",
        "value": 2
    },
    {
        "lng": "102.11644",
        "lat": "26.896968",
        "areaCode": "四川省攀枝花市米易县",
        "name": "四川省攀枝花市米易县",
        "parent_area": "四川省攀枝花市",
        "value": 1
    },
    {
        "lng": "105.837368",
        "lat": "28.818006",
        "areaCode": "四川省泸州市合江县",
        "name": "四川省泸州市合江县",
        "parent_area": "四川省泸州市",
        "value": 1
    },
    {
        "lng": "105.38831",
        "lat": "29.157828",
        "areaCode": "四川省泸州市泸县",
        "name": "四川省泸州市泸县",
        "parent_area": "四川省泸州市",
        "value": 2
    },
    {
        "lng": "105.378005",
        "lat": "28.779001",
        "areaCode": "四川省泸州市纳溪区",
        "name": "四川省泸州市纳溪区",
        "parent_area": "四川省泸州市",
        "value": 1
    },
    {
        "lng": "104.772429",
        "lat": "31.479904",
        "areaCode": "四川省绵阳市游仙区",
        "name": "四川省绵阳市游仙区",
        "parent_area": "四川省绵阳市",
        "value": 1
    },
    {
        "lng": "104.783447",
        "lat": "29.343499",
        "areaCode": "四川省自贡市自流井区",
        "name": "四川省自贡市自流井区",
        "parent_area": "四川省自贡市",
        "value": 1
    },
    {
        "lng": "105.027477",
        "lat": "30.282348",
        "areaCode": "四川省资阳市乐至县",
        "name": "四川省资阳市乐至县",
        "parent_area": "四川省资阳市",
        "value": 1
    },
    {
        "lng": "105.342454",
        "lat": "30.103393",
        "areaCode": "四川省资阳市安岳县",
        "name": "四川省资阳市安岳县",
        "parent_area": "四川省资阳市",
        "value": 1
    },
    {
        "lng": "107.21158",
        "lat": "30.742077",
        "areaCode": "四川省达州市大竹县",
        "name": "四川省达州市大竹县",
        "parent_area": "四川省达州市",
        "value": 1
    },
    {
        "lng": "107.733534",
        "lat": "31.359755",
        "areaCode": "四川省达州市宣汉县",
        "name": "四川省达州市宣汉县",
        "parent_area": "四川省达州市",
        "value": 1
    },
    {
        "lng": "107.875425",
        "lat": "31.089372",
        "areaCode": "四川省达州市开江县",
        "name": "四川省达州市开江县",
        "parent_area": "四川省达州市",
        "value": 3
    },
    {
        "lng": "106.979583",
        "lat": "30.842299",
        "areaCode": "四川省达州市渠县",
        "name": "四川省达州市渠县",
        "parent_area": "四川省达州市",
        "value": 2
    },
    {
        "lng": "107.518411",
        "lat": "31.202393",
        "areaCode": "四川省达州市达县",
        "name": "四川省达州市达县",
        "parent_area": "四川省达州市",
        "value": 2
    },
    {
        "lng": "105.462467",
        "lat": "30.361496",
        "areaCode": "四川省遂宁市安居区",
        "name": "四川省遂宁市安居区",
        "parent_area": "四川省遂宁市",
        "value": 1
    },
    {
        "lng": "105.39451",
        "lat": "30.877139",
        "areaCode": "四川省遂宁市射洪县",
        "name": "四川省遂宁市射洪县",
        "parent_area": "四川省遂宁市",
        "value": 1
    },
    {
        "lng": "105.574523",
        "lat": "30.531471",
        "areaCode": "四川省遂宁市船山区",
        "name": "四川省遂宁市船山区",
        "parent_area": "四川省遂宁市",
        "value": 1
    },
    {
        "lng": "105.713446",
        "lat": "30.763751",
        "areaCode": "四川省遂宁市蓬溪县",
        "name": "四川省遂宁市蓬溪县",
        "parent_area": "四川省遂宁市",
        "value": 1
    },
    {
        "lng": "103.61058",
        "lat": "32.661797",
        "areaCode": "四川省阿坝藏族羌族自治州松潘县",
        "name": "四川省阿坝藏族羌族自治州松潘县",
        "parent_area": "四川省阿坝藏族羌族自治州",
        "value": 1
    },
    {
        "lng": "103.115486",
        "lat": "30.075914",
        "areaCode": "四川省雅安市名山区",
        "name": "四川省雅安市名山区",
        "parent_area": "四川省雅安市",
        "value": 1
    },
    {
        "lng": "102.853436",
        "lat": "29.799194",
        "areaCode": "四川省雅安市荥经县",
        "name": "四川省雅安市荥经县",
        "parent_area": "四川省雅安市",
        "value": 1
    },
    {
        "lng": "117.221467",
        "lat": "39.12339",
        "areaCode": "天津市天津市和平区",
        "name": "天津市天津市和平区",
        "parent_area": "天津市天津市",
        "value": 1
    },
    {
        "lng": "117.050597",
        "lat": "39.389871",
        "areaCode": "天津市天津市武清区",
        "name": "天津市天津市武清区",
        "parent_area": "天津市天津市",
        "value": 2
    },
    {
        "lng": "106.156581",
        "lat": "38.496817",
        "areaCode": "宁夏回族自治区银川市西夏区",
        "name": "宁夏回族自治区银川市西夏区",
        "parent_area": "宁夏回族自治区银川市",
        "value": 1
    },
    {
        "lng": "116.191494",
        "lat": "33.155596",
        "areaCode": "安徽省亳州市利辛县",
        "name": "安徽省亳州市利辛县",
        "parent_area": "安徽省亳州市",
        "value": 6
    },
    {
        "lng": "116.221609",
        "lat": "33.498567",
        "areaCode": "安徽省亳州市涡阳县",
        "name": "安徽省亳州市涡阳县",
        "parent_area": "安徽省亳州市",
        "value": 3
    },
    {
        "lng": "116.571589",
        "lat": "33.271658",
        "areaCode": "安徽省亳州市蒙城县",
        "name": "安徽省亳州市蒙城县",
        "parent_area": "安徽省亳州市",
        "value": 3
    },
    {
        "lng": "115.785472",
        "lat": "33.882663",
        "areaCode": "安徽省亳州市谯城区",
        "name": "安徽省亳州市谯城区",
        "parent_area": "安徽省亳州市",
        "value": 3
    },
    {
        "lng": "116.805563",
        "lat": "32.561546",
        "areaCode": "安徽省六安市寿县",
        "name": "安徽省六安市寿县",
        "parent_area": "安徽省六安市",
        "value": 2
    },
    {
        "lng": "116.48655",
        "lat": "31.743626",
        "areaCode": "安徽省六安市裕安区",
        "name": "安徽省六安市裕安区",
        "parent_area": "安徽省六安市",
        "value": 2
    },
    {
        "lng": "116.545438",
        "lat": "31.756288",
        "areaCode": "安徽省六安市金安区",
        "name": "安徽省六安市金安区",
        "parent_area": "安徽省六安市",
        "value": 2
    },
    {
        "lng": "115.940441",
        "lat": "31.733462",
        "areaCode": "安徽省六安市金寨县",
        "name": "安徽省六安市金寨县",
        "parent_area": "安徽省六安市",
        "value": 3
    },
    {
        "lng": "116.284391",
        "lat": "32.359344",
        "areaCode": "安徽省六安市霍邱县",
        "name": "安徽省六安市霍邱县",
        "parent_area": "安徽省六安市",
        "value": 2
    },
    {
        "lng": "117.316576",
        "lat": "31.799293",
        "areaCode": "安徽省合肥市包河区",
        "name": "安徽省合肥市包河区",
        "parent_area": "安徽省合肥市",
        "value": 2
    },
    {
        "lng": "117.895576",
        "lat": "31.629002",
        "areaCode": "安徽省合肥市巢湖市",
        "name": "安徽省合肥市巢湖市",
        "parent_area": "安徽省合肥市",
        "value": 2
    },
    {
        "lng": "117.293577",
        "lat": "31.261328",
        "areaCode": "安徽省合肥市庐江县",
        "name": "安徽省合肥市庐江县",
        "parent_area": "安徽省合肥市",
        "value": 3
    },
    {
        "lng": "117.271459",
        "lat": "31.884887",
        "areaCode": "安徽省合肥市庐阳区",
        "name": "安徽省合肥市庐阳区",
        "parent_area": "安徽省合肥市",
        "value": 1
    },
    {
        "lng": "117.315587",
        "lat": "31.863787",
        "areaCode": "安徽省合肥市瑶海区",
        "name": "安徽省合肥市瑶海区",
        "parent_area": "安徽省合肥市",
        "value": 3
    },
    {
        "lng": "117.164558",
        "lat": "31.712962",
        "areaCode": "安徽省合肥市肥西县",
        "name": "安徽省合肥市肥西县",
        "parent_area": "安徽省合肥市",
        "value": 3
    },
    {
        "lng": "117.475401",
        "lat": "31.89389",
        "areaCode": "安徽省合肥市肥东县",
        "name": "安徽省合肥市肥东县",
        "parent_area": "安徽省合肥市",
        "value": 1
    },
    {
        "lng": "117.266461",
        "lat": "31.857378",
        "areaCode": "安徽省合肥市蜀山区",
        "name": "安徽省合肥市蜀山区",
        "parent_area": "安徽省合肥市",
        "value": 1
    },
    {
        "lng": "116.315476",
        "lat": "30.460113",
        "areaCode": "安徽省安庆市太湖县",
        "name": "安徽省安庆市太湖县",
        "parent_area": "安徽省安庆市",
        "value": 2
    },
    {
        "lng": "116.993441",
        "lat": "30.619676",
        "areaCode": "安徽省安庆市宜秀区",
        "name": "安徽省安庆市宜秀区",
        "parent_area": "安徽省安庆市",
        "value": 1
    },
    {
        "lng": "116.135524",
        "lat": "30.159787",
        "areaCode": "安徽省安庆市宿松县",
        "name": "安徽省安庆市宿松县",
        "parent_area": "安徽省安庆市",
        "value": 6
    },
    {
        "lng": "116.366555",
        "lat": "30.855228",
        "areaCode": "安徽省安庆市岳西县",
        "name": "安徽省安庆市岳西县",
        "parent_area": "安徽省安庆市",
        "value": 1
    },
    {
        "lng": "116.836593",
        "lat": "30.7394",
        "areaCode": "安徽省安庆市怀宁县",
        "name": "安徽省安庆市怀宁县",
        "parent_area": "安徽省安庆市",
        "value": 3
    },
    {
        "lng": "116.70059",
        "lat": "30.129968",
        "areaCode": "安徽省安庆市望江县",
        "name": "安徽省安庆市望江县",
        "parent_area": "安徽省安庆市",
        "value": 6
    },
    {
        "lng": "117.226437",
        "lat": "30.705671",
        "areaCode": "安徽省安庆市枞阳县",
        "name": "安徽省安庆市枞阳县",
        "parent_area": "安徽省安庆市",
        "value": 2
    },
    {
        "lng": "116.980466",
        "lat": "31.041969",
        "areaCode": "安徽省安庆市桐城市",
        "name": "安徽省安庆市桐城市",
        "parent_area": "安徽省安庆市",
        "value": 1
    },
    {
        "lng": "116.587611",
        "lat": "30.636756",
        "areaCode": "安徽省安庆市潜山县",
        "name": "安徽省安庆市潜山县",
        "parent_area": "安徽省安庆市",
        "value": 4
    },
    {
        "lng": "117.097514",
        "lat": "30.517523",
        "areaCode": "安徽省安庆市迎江区",
        "name": "安徽省安庆市迎江区",
        "parent_area": "安徽省安庆市",
        "value": 3
    },
    {
        "lng": "118.762549",
        "lat": "30.952158",
        "areaCode": "安徽省宣城市宣州区",
        "name": "安徽省宣城市宣州区",
        "parent_area": "安徽省宣城市",
        "value": 2
    },
    {
        "lng": "118.546467",
        "lat": "30.292481",
        "areaCode": "安徽省宣城市旌德县",
        "name": "安徽省宣城市旌德县",
        "parent_area": "安徽省宣城市",
        "value": 2
    },
    {
        "lng": "118.426435",
        "lat": "30.694672",
        "areaCode": "安徽省宣城市泾县",
        "name": "安徽省宣城市泾县",
        "parent_area": "安徽省宣城市",
        "value": 3
    },
    {
        "lng": "119.186466",
        "lat": "31.132682",
        "areaCode": "安徽省宣城市郎溪县",
        "name": "安徽省宣城市郎溪县",
        "parent_area": "安徽省宣城市",
        "value": 2
    },
    {
        "lng": "116.98348",
        "lat": "33.646131",
        "areaCode": "安徽省宿州市埇桥区",
        "name": "安徽省宿州市埇桥区",
        "parent_area": "安徽省宿州市",
        "value": 2
    },
    {
        "lng": "117.91659",
        "lat": "33.488695",
        "areaCode": "安徽省宿州市泗县",
        "name": "安徽省宿州市泗县",
        "parent_area": "安徽省宿州市",
        "value": 2
    },
    {
        "lng": "116.372524",
        "lat": "34.448428",
        "areaCode": "安徽省宿州市砀山县",
        "name": "安徽省宿州市砀山县",
        "parent_area": "安徽省宿州市",
        "value": 4
    },
    {
        "lng": "116.953585",
        "lat": "34.194269",
        "areaCode": "安徽省宿州市萧县",
        "name": "安徽省宿州市萧县",
        "parent_area": "安徽省宿州市",
        "value": 2
    },
    {
        "lng": "117.034481",
        "lat": "30.116535",
        "areaCode": "安徽省池州市东至县",
        "name": "安徽省池州市东至县",
        "parent_area": "安徽省池州市",
        "value": 1
    },
    {
        "lng": "117.57449",
        "lat": "30.693858",
        "areaCode": "安徽省池州市贵池区",
        "name": "安徽省池州市贵池区",
        "parent_area": "安徽省池州市",
        "value": 1
    },
    {
        "lng": "116.772389",
        "lat": "33.921629",
        "areaCode": "安徽省淮北市濉溪县",
        "name": "安徽省淮北市濉溪县",
        "parent_area": "安徽省淮北市",
        "value": 1
    },
    {
        "lng": "116.800521",
        "lat": "33.965827",
        "areaCode": "安徽省淮北市相山区",
        "name": "安徽省淮北市相山区",
        "parent_area": "安徽省淮北市",
        "value": 1
    },
    {
        "lng": "116.841581",
        "lat": "32.777955",
        "areaCode": "安徽省淮南市潘集区",
        "name": "安徽省淮南市潘集区",
        "parent_area": "安徽省淮南市",
        "value": 1
    },
    {
        "lng": "117.023445",
        "lat": "32.653323",
        "areaCode": "安徽省淮南市田家庵区",
        "name": "安徽省淮南市田家庵区",
        "parent_area": "安徽省淮南市",
        "value": 2
    },
    {
        "lng": "117.538585",
        "lat": "32.880977",
        "areaCode": "安徽省滁州市凤阳县",
        "name": "安徽省滁州市凤阳县",
        "parent_area": "安徽省滁州市",
        "value": 1
    },
    {
        "lng": "118.340418",
        "lat": "30.92026",
        "areaCode": "安徽省芜湖市南陵县",
        "name": "安徽省芜湖市南陵县",
        "parent_area": "安徽省芜湖市",
        "value": 1
    },
    {
        "lng": "117.908579",
        "lat": "31.308844",
        "areaCode": "安徽省芜湖市无为县",
        "name": "安徽省芜湖市无为县",
        "parent_area": "安徽省芜湖市",
        "value": 3
    },
    {
        "lng": "118.205424",
        "lat": "31.107959",
        "areaCode": "安徽省芜湖市繁昌县",
        "name": "安徽省芜湖市繁昌县",
        "parent_area": "安徽省芜湖市",
        "value": 1
    },
    {
        "lng": "118.397588",
        "lat": "31.375805",
        "areaCode": "安徽省芜湖市鸠江区",
        "name": "安徽省芜湖市鸠江区",
        "parent_area": "安徽省芜湖市",
        "value": 1
    },
    {
        "lng": "117.887561",
        "lat": "33.132709",
        "areaCode": "安徽省蚌埠市五河县",
        "name": "安徽省蚌埠市五河县",
        "parent_area": "安徽省蚌埠市",
        "value": 1
    },
    {
        "lng": "117.211506",
        "lat": "32.976004",
        "areaCode": "安徽省蚌埠市怀远县",
        "name": "安徽省蚌埠市怀远县",
        "parent_area": "安徽省蚌埠市",
        "value": 1
    },
    {
        "lng": "117.821457",
        "lat": "30.940386",
        "areaCode": "安徽省铜陵市铜官山区",
        "name": "安徽省铜陵市铜官山区",
        "parent_area": "安徽省铜陵市",
        "value": 1
    },
    {
        "lng": "117.798568",
        "lat": "30.958512",
        "areaCode": "安徽省铜陵市铜陵县",
        "name": "安徽省铜陵市铜陵县",
        "parent_area": "安徽省铜陵市",
        "value": 1
    },
    {
        "lng": "115.267616",
        "lat": "33.04596",
        "areaCode": "安徽省阜阳市临泉县",
        "name": "安徽省阜阳市临泉县",
        "parent_area": "安徽省阜阳市",
        "value": 5
    },
    {
        "lng": "115.628615",
        "lat": "33.16596",
        "areaCode": "安徽省阜阳市太和县",
        "name": "安徽省阜阳市太和县",
        "parent_area": "安徽省阜阳市",
        "value": 6
    },
    {
        "lng": "115.602546",
        "lat": "32.664097",
        "areaCode": "安徽省阜阳市阜南县",
        "name": "安徽省阜阳市阜南县",
        "parent_area": "安徽省阜阳市",
        "value": 27
    },
    {
        "lng": "115.38061",
        "lat": "33.262775",
        "areaCode": "安徽省阜阳市界首市",
        "name": "安徽省阜阳市界首市",
        "parent_area": "安徽省阜阳市",
        "value": 2
    },
    {
        "lng": "115.863617",
        "lat": "32.917362",
        "areaCode": "安徽省阜阳市颍东区",
        "name": "安徽省阜阳市颍东区",
        "parent_area": "安徽省阜阳市",
        "value": 2
    },
    {
        "lng": "116.263477",
        "lat": "32.659028",
        "areaCode": "安徽省阜阳市颍上县",
        "name": "安徽省阜阳市颍上县",
        "parent_area": "安徽省阜阳市",
        "value": 2
    },
    {
        "lng": "115.815426",
        "lat": "32.931314",
        "areaCode": "安徽省阜阳市颍泉区",
        "name": "安徽省阜阳市颍泉区",
        "parent_area": "安徽省阜阳市",
        "value": 2
    },
    {
        "lng": "115.813411",
        "lat": "32.889625",
        "areaCode": "安徽省阜阳市颍州区",
        "name": "安徽省阜阳市颍州区",
        "parent_area": "安徽省阜阳市",
        "value": 2
    },
    {
        "lng": "118.359513",
        "lat": "31.748244",
        "areaCode": "安徽省马鞍山市和县",
        "name": "安徽省马鞍山市和县",
        "parent_area": "安徽省马鞍山市",
        "value": 1
    },
    {
        "lng": "118.107462",
        "lat": "31.740862",
        "areaCode": "安徽省马鞍山市含山县",
        "name": "安徽省马鞍山市含山县",
        "parent_area": "安徽省马鞍山市",
        "value": 3
    },
    {
        "lng": "118.499606",
        "lat": "31.725473",
        "areaCode": "安徽省马鞍山市花山区",
        "name": "安徽省马鞍山市花山区",
        "parent_area": "安徽省马鞍山市",
        "value": 1
    },
    {
        "lng": "118.20543",
        "lat": "29.795459",
        "areaCode": "安徽省黄山市休宁县",
        "name": "安徽省黄山市休宁县",
        "parent_area": "安徽省黄山市",
        "value": 2
    },
    {
        "lng": "118.321418",
        "lat": "29.702144",
        "areaCode": "安徽省黄山市屯溪区",
        "name": "安徽省黄山市屯溪区",
        "parent_area": "安徽省黄山市",
        "value": 2
    },
    {
        "lng": "118.42146",
        "lat": "29.866288",
        "areaCode": "安徽省黄山市歙县",
        "name": "安徽省黄山市歙县",
        "parent_area": "安徽省黄山市",
        "value": 3
    },
    {
        "lng": "118.14761",
        "lat": "30.278651",
        "areaCode": "安徽省黄山市黄山区",
        "name": "安徽省黄山市黄山区",
        "parent_area": "安徽省黄山市",
        "value": 1
    },
    {
        "lng": "118.3545",
        "lat": "35.05734",
        "areaCode": "山东省临沂市兰山区",
        "name": "山东省临沂市兰山区",
        "parent_area": "山东省临沂市",
        "value": 1
    },
    {
        "lng": "118.077409",
        "lat": "34.863616",
        "areaCode": "山东省临沂市苍山县",
        "name": "山东省临沂市苍山县",
        "parent_area": "山东省临沂市",
        "value": 2
    },
    {
        "lng": "118.841541",
        "lat": "35.180812",
        "areaCode": "山东省临沂市莒南县",
        "name": "山东省临沂市莒南县",
        "parent_area": "山东省临沂市",
        "value": 2
    },
    {
        "lng": "117.984425",
        "lat": "35.272304",
        "areaCode": "山东省临沂市费县",
        "name": "山东省临沂市费县",
        "parent_area": "山东省临沂市",
        "value": 2
    },
    {
        "lng": "122.129538",
        "lat": "37.507968",
        "areaCode": "山东省威海市环翠区",
        "name": "山东省威海市环翠区",
        "parent_area": "山东省威海市",
        "value": 2
    },
    {
        "lng": "116.873404",
        "lat": "37.196169",
        "areaCode": "山东省德州市临邑县",
        "name": "山东省德州市临邑县",
        "parent_area": "山东省德州市",
        "value": 1
    },
    {
        "lng": "116.008534",
        "lat": "36.954155",
        "areaCode": "山东省德州市夏津县",
        "name": "山东省德州市夏津县",
        "parent_area": "山东省德州市",
        "value": 1
    },
    {
        "lng": "116.305449",
        "lat": "37.456993",
        "areaCode": "山东省德州市德城区",
        "name": "山东省德州市德城区",
        "parent_area": "山东省德州市",
        "value": 1
    },
    {
        "lng": "116.644371",
        "lat": "36.940242",
        "areaCode": "山东省德州市禹城市",
        "name": "山东省德州市禹城市",
        "parent_area": "山东省德州市",
        "value": 1
    },
    {
        "lng": "116.5894",
        "lat": "37.347132",
        "areaCode": "山东省德州市陵县",
        "name": "山东省德州市陵县",
        "parent_area": "山东省德州市",
        "value": 2
    },
    {
        "lng": "119.32553",
        "lat": "35.127432",
        "areaCode": "山东省日照市岚山区",
        "name": "山东省日照市岚山区",
        "parent_area": "山东省日照市",
        "value": 1
    },
    {
        "lng": "117.562566",
        "lat": "34.869963",
        "areaCode": "山东省枣庄市市中区",
        "name": "山东省枣庄市市中区",
        "parent_area": "山东省枣庄市",
        "value": 1
    },
    {
        "lng": "117.172565",
        "lat": "35.120035",
        "areaCode": "山东省枣庄市滕州市",
        "name": "山东省枣庄市滕州市",
        "parent_area": "山东省枣庄市",
        "value": 2
    },
    {
        "lng": "117.269458",
        "lat": "34.801125",
        "areaCode": "山东省枣庄市薛城区",
        "name": "山东省枣庄市薛城区",
        "parent_area": "山东省枣庄市",
        "value": 1
    },
    {
        "lng": "116.477594",
        "lat": "35.941908",
        "areaCode": "山东省泰安市东平县",
        "name": "山东省泰安市东平县",
        "parent_area": "山东省泰安市",
        "value": 2
    },
    {
        "lng": "116.812579",
        "lat": "35.764539",
        "areaCode": "山东省泰安市宁阳县",
        "name": "山东省泰安市宁阳县",
        "parent_area": "山东省泰安市",
        "value": 1
    },
    {
        "lng": "117.048556",
        "lat": "36.193291",
        "areaCode": "山东省泰安市岱岳区",
        "name": "山东省泰安市岱岳区",
        "parent_area": "山东省泰安市",
        "value": 3
    },
    {
        "lng": "117.774606",
        "lat": "35.91462",
        "areaCode": "山东省泰安市新泰市",
        "name": "山东省泰安市新泰市",
        "parent_area": "山东省泰安市",
        "value": 2
    },
    {
        "lng": "117.141411",
        "lat": "36.199445",
        "areaCode": "山东省泰安市泰山区",
        "name": "山东省泰安市泰山区",
        "parent_area": "山东省泰安市",
        "value": 1
    },
    {
        "lng": "116.775401",
        "lat": "36.188811",
        "areaCode": "山东省泰安市肥城市",
        "name": "山东省泰安市肥城市",
        "parent_area": "山东省泰安市",
        "value": 2
    },
    {
        "lng": "117.082567",
        "lat": "36.672163",
        "areaCode": "山东省济南市历下区",
        "name": "山东省济南市历下区",
        "parent_area": "山东省济南市",
        "value": 1
    },
    {
        "lng": "117.07159",
        "lat": "36.685656",
        "areaCode": "山东省济南市历城区",
        "name": "山东省济南市历城区",
        "parent_area": "山东省济南市",
        "value": 1
    },
    {
        "lng": "117.16353",
        "lat": "37.314971",
        "areaCode": "山东省济南市商河县",
        "name": "山东省济南市商河县",
        "parent_area": "山东省济南市",
        "value": 1
    },
    {
        "lng": "116.993399",
        "lat": "36.684068",
        "areaCode": "山东省济南市天桥区",
        "name": "山东省济南市天桥区",
        "parent_area": "山东省济南市",
        "value": 2
    },
    {
        "lng": "117.004399",
        "lat": "36.657552",
        "areaCode": "山东省济南市市中区",
        "name": "山东省济南市市中区",
        "parent_area": "山东省济南市",
        "value": 1
    },
    {
        "lng": "116.55447",
        "lat": "35.493731",
        "areaCode": "山东省济宁市任城区",
        "name": "山东省济宁市任城区",
        "parent_area": "山东省济宁市",
        "value": 1
    },
    {
        "lng": "116.790115",
        "lat": "35.557952",
        "areaCode": "山东省济宁市兖州市",
        "name": "山东省济宁市兖州市",
        "parent_area": "山东省济宁市",
        "value": 1
    },
    {
        "lng": "116.10262",
        "lat": "35.808064",
        "areaCode": "山东省济宁市梁山县",
        "name": "山东省济宁市梁山县",
        "parent_area": "山东省济宁市",
        "value": 3
    },
    {
        "lng": "116.31853",
        "lat": "35.072569",
        "areaCode": "山东省济宁市金乡县",
        "name": "山东省济宁市金乡县",
        "parent_area": "山东省济宁市",
        "value": 1
    },
    {
        "lng": "116.657393",
        "lat": "35.017888",
        "areaCode": "山东省济宁市鱼台县",
        "name": "山东省济宁市鱼台县",
        "parent_area": "山东省济宁市",
        "value": 1
    },
    {
        "lng": "117.876482",
        "lat": "36.808994",
        "areaCode": "山东省淄博市周村区",
        "name": "山东省淄博市周村区",
        "parent_area": "山东省淄博市",
        "value": 1
    },
    {
        "lng": "117.51651",
        "lat": "37.495803",
        "areaCode": "山东省滨州市惠民县",
        "name": "山东省滨州市惠民县",
        "parent_area": "山东省滨州市",
        "value": 2
    },
    {
        "lng": "119.225608",
        "lat": "36.483842",
        "areaCode": "山东省潍坊市安丘市",
        "name": "山东省潍坊市安丘市",
        "parent_area": "山东省潍坊市",
        "value": 2
    },
    {
        "lng": "118.797415",
        "lat": "36.861922",
        "areaCode": "山东省潍坊市寿光市",
        "name": "山东省潍坊市寿光市",
        "parent_area": "山东省潍坊市",
        "value": 2
    },
    {
        "lng": "119.762411",
        "lat": "36.388957",
        "areaCode": "山东省潍坊市高密市",
        "name": "山东省潍坊市高密市",
        "parent_area": "山东省潍坊市",
        "value": 1
    },
    {
        "lng": "120.856417",
        "lat": "37.341418",
        "areaCode": "山东省烟台市栖霞市",
        "name": "山东省烟台市栖霞市",
        "parent_area": "山东省烟台市",
        "value": 2
    },
    {
        "lng": "119.948593",
        "lat": "37.182637",
        "areaCode": "山东省烟台市莱州市",
        "name": "山东省烟台市莱州市",
        "parent_area": "山东省烟台市",
        "value": 1
    },
    {
        "lng": "120.718414",
        "lat": "36.984636",
        "areaCode": "山东省烟台市莱阳市",
        "name": "山东省烟台市莱阳市",
        "parent_area": "山东省烟台市",
        "value": 1
    },
    {
        "lng": "120.485369",
        "lat": "37.652555",
        "areaCode": "山东省烟台市龙口市",
        "name": "山东省烟台市龙口市",
        "parent_area": "山东省烟台市",
        "value": 2
    },
    {
        "lng": "116.261455",
        "lat": "36.586785",
        "areaCode": "山东省聊城市茌平县",
        "name": "山东省聊城市茌平县",
        "parent_area": "山东省聊城市",
        "value": 2
    },
    {
        "lng": "115.449396",
        "lat": "36.490243",
        "areaCode": "山东省聊城市冠县",
        "name": "山东省聊城市冠县",
        "parent_area": "山东省聊城市",
        "value": 1
    },
    {
        "lng": "115.677397",
        "lat": "36.239907",
        "areaCode": "山东省聊城市莘县",
        "name": "山东省聊城市莘县",
        "parent_area": "山东省聊城市",
        "value": 3
    },
    {
        "lng": "115.096417",
        "lat": "35.295702",
        "areaCode": "山东省菏泽市东明县",
        "name": "山东省菏泽市东明县",
        "parent_area": "山东省菏泽市",
        "value": 1
    },
    {
        "lng": "116.111584",
        "lat": "34.784658",
        "areaCode": "山东省菏泽市单县",
        "name": "山东省菏泽市单县",
        "parent_area": "山东省菏泽市",
        "value": 1
    },
    {
        "lng": "115.579437",
        "lat": "35.077275",
        "areaCode": "山东省菏泽市定陶县",
        "name": "山东省菏泽市定陶县",
        "parent_area": "山东省菏泽市",
        "value": 1
    },
    {
        "lng": "116.101599",
        "lat": "35.402062",
        "areaCode": "山东省菏泽市巨野县",
        "name": "山东省菏泽市巨野县",
        "parent_area": "山东省菏泽市",
        "value": 1
    },
    {
        "lng": "115.896519",
        "lat": "34.958606",
        "areaCode": "山东省菏泽市成武县",
        "name": "山东省菏泽市成武县",
        "parent_area": "山东省菏泽市",
        "value": 2
    },
    {
        "lng": "115.548457",
        "lat": "34.831809",
        "areaCode": "山东省菏泽市曹县",
        "name": "山东省菏泽市曹县",
        "parent_area": "山东省菏泽市",
        "value": 2
    },
    {
        "lng": "115.423443",
        "lat": "35.257018",
        "areaCode": "山东省菏泽市牡丹区",
        "name": "山东省菏泽市牡丹区",
        "parent_area": "山东省菏泽市",
        "value": 1
    },
    {
        "lng": "115.950451",
        "lat": "35.605902",
        "areaCode": "山东省菏泽市郓城县",
        "name": "山东省菏泽市郓城县",
        "parent_area": "山东省菏泽市",
        "value": 2
    },
    {
        "lng": "115.516607",
        "lat": "35.569204",
        "areaCode": "山东省菏泽市鄄城县",
        "name": "山东省菏泽市鄄城县",
        "parent_area": "山东省菏泽市",
        "value": 1
    },
    {
        "lng": "120.453536",
        "lat": "36.394749",
        "areaCode": "山东省青岛市即墨市",
        "name": "山东省青岛市即墨市",
        "parent_area": "山东省青岛市",
        "value": 1
    },
    {
        "lng": "120.381404",
        "lat": "36.09345",
        "areaCode": "山东省青岛市市北区",
        "name": "山东省青岛市市北区",
        "parent_area": "山东省青岛市",
        "value": 1
    },
    {
        "lng": "120.418585",
        "lat": "36.081466",
        "areaCode": "山东省青岛市市南区",
        "name": "山东省青岛市市南区",
        "parent_area": "山东省青岛市",
        "value": 1
    },
    {
        "lng": "120.204547",
        "lat": "35.966383",
        "areaCode": "山东省青岛市黄岛区",
        "name": "山东省青岛市黄岛区",
        "parent_area": "山东省青岛市",
        "value": 2
    },
    {
        "lng": "111.58643",
        "lat": "36.084562",
        "areaCode": "山西省临汾市尧都区",
        "name": "山西省临汾市尧都区",
        "parent_area": "山西省临汾市",
        "value": 1
    },
    {
        "lng": "111.725376",
        "lat": "35.744429",
        "areaCode": "山西省临汾市翼城县",
        "name": "山西省临汾市翼城县",
        "parent_area": "山西省临汾市",
        "value": 2
    },
    {
        "lng": "110.947591",
        "lat": "36.699061",
        "areaCode": "山西省临汾市隰县",
        "name": "山西省临汾市隰县",
        "parent_area": "山西省临汾市",
        "value": 1
    },
    {
        "lng": "112.162568",
        "lat": "37.557772",
        "areaCode": "山西省吕梁市交城县",
        "name": "山西省吕梁市交城县",
        "parent_area": "山西省吕梁市",
        "value": 1
    },
    {
        "lng": "112.035599",
        "lat": "37.4443",
        "areaCode": "山西省吕梁市文水县",
        "name": "山西省吕梁市文水县",
        "parent_area": "山西省吕梁市",
        "value": 1
    },
    {
        "lng": "113.195665",
        "lat": "40.051055",
        "areaCode": "山西省大同市南郊区",
        "name": "山西省大同市南郊区",
        "parent_area": "山西省大同市",
        "value": 1
    },
    {
        "lng": "113.755414",
        "lat": "40.367392",
        "areaCode": "山西省大同市阳高县",
        "name": "山西省大同市阳高县",
        "parent_area": "山西省大同市",
        "value": 1
    },
    {
        "lng": "112.572396",
        "lat": "37.742323",
        "areaCode": "山西省太原市小店区",
        "name": "山西省太原市小店区",
        "parent_area": "山西省太原市",
        "value": 1
    },
    {
        "lng": "112.576383",
        "lat": "37.900186",
        "areaCode": "山西省太原市杏花岭区",
        "name": "山西省太原市杏花岭区",
        "parent_area": "山西省太原市",
        "value": 1
    },
    {
        "lng": "111.923563",
        "lat": "37.032686",
        "areaCode": "山西省晋中市介休市",
        "name": "山西省晋中市介休市",
        "parent_area": "山西省晋中市",
        "value": 1
    },
    {
        "lng": "112.182456",
        "lat": "37.195601",
        "areaCode": "山西省晋中市平遥县",
        "name": "山西省晋中市平遥县",
        "parent_area": "山西省晋中市",
        "value": 1
    },
    {
        "lng": "111.785618",
        "lat": "36.853368",
        "areaCode": "山西省晋中市灵石县",
        "name": "山西省晋中市灵石县",
        "parent_area": "山西省晋中市",
        "value": 1
    },
    {
        "lng": "113.106608",
        "lat": "39.833757",
        "areaCode": "山西省朔州市怀仁县",
        "name": "山西省朔州市怀仁县",
        "parent_area": "山西省朔州市",
        "value": 1
    },
    {
        "lng": "111.226431",
        "lat": "35.147462",
        "areaCode": "山西省运城市夏县",
        "name": "山西省运城市夏县",
        "parent_area": "山西省运城市",
        "value": 1
    },
    {
        "lng": "113.606568",
        "lat": "37.853433",
        "areaCode": "山西省长治市城区",
        "name": "山西省长治市城区",
        "parent_area": "山西省长治市",
        "value": 2
    },
    {
        "lng": "112.705458",
        "lat": "36.76219",
        "areaCode": "山西省长治市沁县",
        "name": "山西省长治市沁县",
        "parent_area": "山西省长治市",
        "value": 1
    },
    {
        "lng": "113.561521",
        "lat": "37.874409",
        "areaCode": "山西省阳泉市矿区",
        "name": "山西省阳泉市矿区",
        "parent_area": "山西省阳泉市",
        "value": 2
    },
    {
        "lng": "113.663566",
        "lat": "23.055575",
        "areaCode": "广东省东莞市东莞市市辖区",
        "name": "广东省东莞市东莞市市辖区",
        "parent_area": "广东省东莞市",
        "value": 8
    },
    {
        "lng": "113.399422",
        "lat": "22.522315",
        "areaCode": "广东省中山市中山市市辖区",
        "name": "广东省中山市中山市市辖区",
        "parent_area": "广东省中山市",
        "value": 5
    },
    {
        "lng": "111.57648",
        "lat": "22.774296",
        "areaCode": "广东省云浮市罗定市",
        "name": "广东省云浮市罗定市",
        "parent_area": "广东省云浮市",
        "value": 1
    },
    {
        "lng": "113.149446",
        "lat": "23.035011",
        "areaCode": "广东省佛山市南海区",
        "name": "广东省佛山市南海区",
        "parent_area": "广东省佛山市",
        "value": 1
    },
    {
        "lng": "113.129505",
        "lat": "23.015374",
        "areaCode": "广东省佛山市禅城区",
        "name": "广东省佛山市禅城区",
        "parent_area": "广东省佛山市",
        "value": 1
    },
    {
        "lng": "113.300453",
        "lat": "22.810453",
        "areaCode": "广东省佛山市顺德区",
        "name": "广东省佛山市顺德区",
        "parent_area": "广东省佛山市",
        "value": 1
    },
    {
        "lng": "113.593585",
        "lat": "23.553986",
        "areaCode": "广东省广州市从化市",
        "name": "广东省广州市从化市",
        "parent_area": "广东省广州市",
        "value": 1
    },
    {
        "lng": "113.817546",
        "lat": "23.266592",
        "areaCode": "广东省广州市增城市",
        "name": "广东省广州市增城市",
        "parent_area": "广东省广州市",
        "value": 1
    },
    {
        "lng": "113.368509",
        "lat": "23.130358",
        "areaCode": "广东省广州市天河区",
        "name": "广东省广州市天河区",
        "parent_area": "广东省广州市",
        "value": 2
    },
    {
        "lng": "113.32354",
        "lat": "23.088981",
        "areaCode": "广东省广州市海珠区",
        "name": "广东省广州市海珠区",
        "parent_area": "广东省广州市",
        "value": 4
    },
    {
        "lng": "113.39047",
        "lat": "22.943831",
        "areaCode": "广东省广州市番禺区",
        "name": "广东省广州市番禺区",
        "parent_area": "广东省广州市",
        "value": 3
    },
    {
        "lng": "113.279433",
        "lat": "23.164317",
        "areaCode": "广东省广州市白云区",
        "name": "广东省广州市白云区",
        "parent_area": "广东省广州市",
        "value": 1
    },
    {
        "lng": "113.226576",
        "lat": "23.411162",
        "areaCode": "广东省广州市花都区",
        "name": "广东省广州市花都区",
        "parent_area": "广东省广州市",
        "value": 1
    },
    {
        "lng": "113.250502",
        "lat": "23.131791",
        "areaCode": "广东省广州市荔湾区",
        "name": "广东省广州市荔湾区",
        "parent_area": "广东省广州市",
        "value": 2
    },
    {
        "lng": "113.271431",
        "lat": "23.135336",
        "areaCode": "广东省广州市萝岗区",
        "name": "广东省广州市萝岗区",
        "parent_area": "广东省广州市",
        "value": 1
    },
    {
        "lng": "113.273426",
        "lat": "23.13526",
        "areaCode": "广东省广州市越秀区",
        "name": "广东省广州市越秀区",
        "parent_area": "广东省广州市",
        "value": 2
    },
    {
        "lng": "114.726426",
        "lat": "22.991443",
        "areaCode": "广东省惠州市惠东县",
        "name": "广东省惠州市惠东县",
        "parent_area": "广东省惠州市",
        "value": 1
    },
    {
        "lng": "114.38949",
        "lat": "23.089726",
        "areaCode": "广东省惠州市惠城区",
        "name": "广东省惠州市惠城区",
        "parent_area": "广东省惠州市",
        "value": 1
    },
    {
        "lng": "114.463464",
        "lat": "22.794721",
        "areaCode": "广东省惠州市惠阳区",
        "name": "广东省惠州市惠阳区",
        "parent_area": "广东省惠州市",
        "value": 1
    },
    {
        "lng": "115.848561",
        "lat": "23.4373",
        "areaCode": "广东省揭阳市揭西县",
        "name": "广东省揭阳市揭西县",
        "parent_area": "广东省揭阳市",
        "value": 1
    },
    {
        "lng": "116.701559",
        "lat": "24.353459",
        "areaCode": "广东省梅州市大埔县",
        "name": "广东省梅州市大埔县",
        "parent_area": "广东省梅州市",
        "value": 1
    },
    {
        "lng": "116.439491",
        "lat": "23.256341",
        "areaCode": "广东省汕头市潮南区",
        "name": "广东省汕头市潮南区",
        "parent_area": "广东省汕头市",
        "value": 2
    },
    {
        "lng": "116.762425",
        "lat": "23.472341",
        "areaCode": "广东省汕头市澄海区",
        "name": "广东省汕头市澄海区",
        "parent_area": "广东省汕头市",
        "value": 1
    },
    {
        "lng": "116.70955",
        "lat": "23.37175",
        "areaCode": "广东省汕头市金平区",
        "name": "广东省汕头市金平区",
        "parent_area": "广东省汕头市",
        "value": 2
    },
    {
        "lng": "116.723525",
        "lat": "23.377776",
        "areaCode": "广东省汕头市龙湖区",
        "name": "广东省汕头市龙湖区",
        "parent_area": "广东省汕头市",
        "value": 1
    },
    {
        "lng": "115.65849",
        "lat": "22.923636",
        "areaCode": "广东省汕尾市陆丰市",
        "name": "广东省汕尾市陆丰市",
        "parent_area": "广东省汕尾市",
        "value": 1
    },
    {
        "lng": "112.704464",
        "lat": "22.382499",
        "areaCode": "广东省江门市开平市",
        "name": "广东省江门市开平市",
        "parent_area": "广东省江门市",
        "value": 2
    },
    {
        "lng": "113.117557",
        "lat": "22.566115",
        "areaCode": "广东省江门市江海区",
        "name": "广东省江门市江海区",
        "parent_area": "广东省江门市",
        "value": 1
    },
    {
        "lng": "113.084546",
        "lat": "22.601066",
        "areaCode": "广东省江门市蓬江区",
        "name": "广东省江门市蓬江区",
        "parent_area": "广东省江门市",
        "value": 1
    },
    {
        "lng": "114.753508",
        "lat": "23.794258",
        "areaCode": "广东省河源市东源县",
        "name": "广东省河源市东源县",
        "parent_area": "广东省河源市",
        "value": 1
    },
    {
        "lng": "114.945449",
        "lat": "24.448253",
        "areaCode": "广东省河源市和平县",
        "name": "广东省河源市和平县",
        "parent_area": "广东省河源市",
        "value": 1
    },
    {
        "lng": "113.890427",
        "lat": "22.560033",
        "areaCode": "广东省深圳市宝安区",
        "name": "广东省深圳市宝安区",
        "parent_area": "广东省深圳市",
        "value": 7
    },
    {
        "lng": "113.936539",
        "lat": "22.5385",
        "areaCode": "广东省深圳市南山区",
        "name": "广东省深圳市南山区",
        "parent_area": "广东省深圳市",
        "value": 3
    },
    {
        "lng": "114.254455",
        "lat": "22.726017",
        "areaCode": "广东省深圳市龙岗区",
        "name": "广东省深圳市龙岗区",
        "parent_area": "广东省深圳市",
        "value": 3
    },
    {
        "lng": "114.137432",
        "lat": "22.554485",
        "areaCode": "广东省深圳市罗湖区",
        "name": "广东省深圳市罗湖区",
        "parent_area": "广东省深圳市",
        "value": 2
    },
    {
        "lng": "113.069477",
        "lat": "23.704022",
        "areaCode": "广东省清远市清城区",
        "name": "广东省清远市清城区",
        "parent_area": "广东省清远市",
        "value": 2
    },
    {
        "lng": "113.538441",
        "lat": "23.885475",
        "areaCode": "广东省清远市佛冈县",
        "name": "广东省清远市佛冈县",
        "parent_area": "广东省清远市",
        "value": 1
    },
    {
        "lng": "112.991558",
        "lat": "23.75427",
        "areaCode": "广东省清远市清新区",
        "name": "广东省清远市清新区",
        "parent_area": "广东省清远市",
        "value": 1
    },
    {
        "lng": "110.78645",
        "lat": "21.447263",
        "areaCode": "广东省湛江市吴川市",
        "name": "广东省湛江市吴川市",
        "parent_area": "广东省湛江市",
        "value": 1
    },
    {
        "lng": "110.292448",
        "lat": "21.615816",
        "areaCode": "广东省湛江市廉江市",
        "name": "广东省湛江市廉江市",
        "parent_area": "广东省湛江市",
        "value": 1
    },
    {
        "lng": "110.182473",
        "lat": "20.331724",
        "areaCode": "广东省湛江市徐闻县",
        "name": "广东省湛江市徐闻县",
        "parent_area": "广东省湛江市",
        "value": 3
    },
    {
        "lng": "110.256515",
        "lat": "21.383103",
        "areaCode": "广东省湛江市遂溪县",
        "name": "广东省湛江市遂溪县",
        "parent_area": "广东省湛江市",
        "value": 1
    },
    {
        "lng": "110.404425",
        "lat": "21.198227",
        "areaCode": "广东省湛江市霞山区",
        "name": "广东省湛江市霞山区",
        "parent_area": "广东省湛江市",
        "value": 2
    },
    {
        "lng": "117.010449",
        "lat": "23.670347",
        "areaCode": "广东省潮州市饶平县",
        "name": "广东省潮州市饶平县",
        "parent_area": "广东省潮州市",
        "value": 1
    },
    {
        "lng": "113.550472",
        "lat": "22.273004",
        "areaCode": "广东省珠海市香洲区",
        "name": "广东省珠海市香洲区",
        "parent_area": "广东省珠海市",
        "value": 2
    },
    {
        "lng": "110.953582",
        "lat": "22.360093",
        "areaCode": "广东省茂名市信宜市",
        "name": "广东省茂名市信宜市",
        "parent_area": "广东省茂名市",
        "value": 2
    },
    {
        "lng": "111.020471",
        "lat": "21.520351",
        "areaCode": "广东省茂名市电白县",
        "name": "广东省茂名市电白县",
        "parent_area": "广东省茂名市",
        "value": 1
    },
    {
        "lng": "110.859474",
        "lat": "21.924049",
        "areaCode": "广东省茂名市高州市",
        "name": "广东省茂名市高州市",
        "parent_area": "广东省茂名市",
        "value": 1
    },
    {
        "lng": "111.961455",
        "lat": "21.868128",
        "areaCode": "广东省阳江市江城区",
        "name": "广东省阳江市江城区",
        "parent_area": "广东省阳江市",
        "value": 1
    },
    {
        "lng": "113.354579",
        "lat": "25.135592",
        "areaCode": "广东省韶关市乐昌市",
        "name": "广东省韶关市乐昌市",
        "parent_area": "广东省韶关市",
        "value": 1
    },
    {
        "lng": "113.755443",
        "lat": "25.092288",
        "areaCode": "广东省韶关市仁化县",
        "name": "广东省韶关市仁化县",
        "parent_area": "广东省韶关市",
        "value": 1
    },
    {
        "lng": "113.617477",
        "lat": "24.810414",
        "areaCode": "广东省韶关市浈江区",
        "name": "广东省韶关市浈江区",
        "parent_area": "广东省韶关市",
        "value": 1
    },
    {
        "lng": "109.124521",
        "lat": "21.481066",
        "areaCode": "广西壮族自治区北海市海城区",
        "name": "广西壮族自治区北海市海城区",
        "parent_area": "广西壮族自治区北海市",
        "value": 2
    },
    {
        "lng": "108.375445",
        "lat": "22.860291",
        "areaCode": "广西壮族自治区南宁市兴宁区",
        "name": "广西壮族自治区南宁市兴宁区",
        "parent_area": "广西壮族自治区南宁市",
        "value": 1
    },
    {
        "lng": "109.267568",
        "lat": "22.685573",
        "areaCode": "广西壮族自治区南宁市横县",
        "name": "广西壮族自治区南宁市横县",
        "parent_area": "广西壮族自治区南宁市",
        "value": 2
    },
    {
        "lng": "108.281517",
        "lat": "23.164516",
        "areaCode": "广西壮族自治区南宁市武鸣县",
        "name": "广西壮族自治区南宁市武鸣县",
        "parent_area": "广西壮族自治区南宁市",
        "value": 1
    },
    {
        "lng": "108.49342",
        "lat": "22.7646",
        "areaCode": "广西壮族自治区南宁市邕宁区",
        "name": "广西壮族自治区南宁市邕宁区",
        "parent_area": "广西壮族自治区南宁市",
        "value": 1
    },
    {
        "lng": "108.183562",
        "lat": "23.713878",
        "areaCode": "广西壮族自治区南宁市马山县",
        "name": "广西壮族自治区南宁市马山县",
        "parent_area": "广西壮族自治区南宁市",
        "value": 1
    },
    {
        "lng": "109.241499",
        "lat": "23.733211",
        "areaCode": "广西壮族自治区来宾市兴宾区",
        "name": "广西壮族自治区来宾市兴宾区",
        "parent_area": "广西壮族自治区来宾市",
        "value": 1
    },
    {
        "lng": "109.614547",
        "lat": "25.78883",
        "areaCode": "广西壮族自治区柳州市三江侗族自治县",
        "name": "广西壮族自治区柳州市三江侗族自治县",
        "parent_area": "广西壮族自治区柳州市",
        "value": 1
    },
    {
        "lng": "109.251562",
        "lat": "24.65637",
        "areaCode": "广西壮族自治区柳州市柳城县",
        "name": "广西壮族自治区柳州市柳城县",
        "parent_area": "广西壮族自治区柳州市",
        "value": 1
    },
    {
        "lng": "110.218587",
        "lat": "25.244302",
        "areaCode": "广西壮族自治区桂林市临桂县",
        "name": "广西壮族自治区桂林市临桂县",
        "parent_area": "广西壮族自治区桂林市",
        "value": 2
    },
    {
        "lng": "110.678516",
        "lat": "25.617567",
        "areaCode": "广西壮族自治区桂林市兴安县",
        "name": "广西壮族自治区桂林市兴安县",
        "parent_area": "广西壮族自治区桂林市",
        "value": 1
    },
    {
        "lng": "110.308463",
        "lat": "25.320233",
        "areaCode": "广西壮族自治区桂林市叠彩区",
        "name": "广西壮族自治区桂林市叠彩区",
        "parent_area": "广西壮族自治区桂林市",
        "value": 1
    },
    {
        "lng": "110.332537",
        "lat": "25.41555",
        "areaCode": "广西壮族自治区桂林市灵川县",
        "name": "广西壮族自治区桂林市灵川县",
        "parent_area": "广西壮族自治区桂林市",
        "value": 1
    },
    {
        "lng": "111.167552",
        "lat": "25.495121",
        "areaCode": "广西壮族自治区桂林市灌阳县",
        "name": "广西壮族自治区桂林市灌阳县",
        "parent_area": "广西壮族自治区桂林市",
        "value": 1
    },
    {
        "lng": "110.503475",
        "lat": "24.784519",
        "areaCode": "广西壮族自治区桂林市阳朔县",
        "name": "广西壮族自治区桂林市阳朔县",
        "parent_area": "广西壮族自治区桂林市",
        "value": 1
    },
    {
        "lng": "111.001432",
        "lat": "22.924621",
        "areaCode": "广西壮族自治区梧州市岑溪市",
        "name": "广西壮族自治区梧州市岑溪市",
        "parent_area": "广西壮族自治区梧州市",
        "value": 1
    },
    {
        "lng": "110.921499",
        "lat": "23.38101",
        "areaCode": "广西壮族自治区梧州市藤县",
        "name": "广西壮族自治区梧州市藤县",
        "parent_area": "广西壮族自治区梧州市",
        "value": 1
    },
    {
        "lng": "108.911574",
        "lat": "24.783085",
        "areaCode": "广西壮族自治区河池市罗城仫佬族自治县",
        "name": "广西壮族自治区河池市罗城仫佬族自治县",
        "parent_area": "广西壮族自治区河池市",
        "value": 1
    },
    {
        "lng": "109.982553",
        "lat": "22.278675",
        "areaCode": "广西壮族自治区玉林市博白县",
        "name": "广西壮族自治区玉林市博白县",
        "parent_area": "广西壮族自治区玉林市",
        "value": 1
    },
    {
        "lng": "110.56453",
        "lat": "22.863666",
        "areaCode": "广西壮族自治区玉林市容县",
        "name": "广西壮族自治区玉林市容县",
        "parent_area": "广西壮族自治区玉林市",
        "value": 1
    },
    {
        "lng": "109.297478",
        "lat": "22.422413",
        "areaCode": "广西壮族自治区钦州市灵山县",
        "name": "广西壮族自治区钦州市灵山县",
        "parent_area": "广西壮族自治区钦州市",
        "value": 1
    },
    {
        "lng": "87.416029",
        "lat": "43.477086",
        "areaCode": "新疆维吾尔自治区乌鲁木齐市乌鲁木齐县",
        "name": "新疆维吾尔自治区乌鲁木齐市乌鲁木齐县",
        "parent_area": "新疆维吾尔自治区乌鲁木齐市",
        "value": 1
    },
    {
        "lng": "87.638408",
        "lat": "43.800271",
        "areaCode": "新疆维吾尔自治区乌鲁木齐市天山区",
        "name": "新疆维吾尔自治区乌鲁木齐市天山区",
        "parent_area": "新疆维吾尔自治区乌鲁木齐市",
        "value": 1
    },
    {
        "lng": "87.648897",
        "lat": "43.838251",
        "areaCode": "新疆维吾尔自治区乌鲁木齐市水磨沟区",
        "name": "新疆维吾尔自治区乌鲁木齐市水磨沟区",
        "parent_area": "新疆维吾尔自治区乌鲁木齐市",
        "value": 1
    },
    {
        "lng": "82.238226",
        "lat": "43.488486",
        "areaCode": "新疆维吾尔自治区伊犁哈萨克自治州巩留县",
        "name": "新疆维吾尔自治区伊犁哈萨克自治州巩留县",
        "parent_area": "新疆维吾尔自治区伊犁哈萨克自治州",
        "value": 1
    },
    {
        "lng": "118.827471",
        "lat": "32.328666",
        "areaCode": "江苏省南京市六合区",
        "name": "江苏省南京市六合区",
        "parent_area": "江苏省南京市",
        "value": 1
    },
    {
        "lng": "118.846567",
        "lat": "31.958527",
        "areaCode": "江苏省南京市江宁区",
        "name": "江苏省南京市江宁区",
        "parent_area": "江苏省南京市",
        "value": 1
    },
    {
        "lng": "118.800407",
        "lat": "32.045139",
        "areaCode": "江苏省南京市秦淮区",
        "name": "江苏省南京市秦淮区",
        "parent_area": "江苏省南京市",
        "value": 1
    },
    {
        "lng": "118.898498",
        "lat": "31.333639",
        "areaCode": "江苏省南京市高淳区",
        "name": "江苏省南京市高淳区",
        "parent_area": "江苏省南京市",
        "value": 2
    },
    {
        "lng": "118.776519",
        "lat": "32.072405",
        "areaCode": "江苏省南京市鼓楼区",
        "name": "江苏省南京市鼓楼区",
        "parent_area": "江苏省南京市",
        "value": 2
    },
    {
        "lng": "121.663474",
        "lat": "31.814233",
        "areaCode": "江苏省南通市启东市",
        "name": "江苏省南通市启东市",
        "parent_area": "江苏省南通市",
        "value": 1
    },
    {
        "lng": "121.192438",
        "lat": "32.335873",
        "areaCode": "江苏省南通市如东县",
        "name": "江苏省南通市如东县",
        "parent_area": "江苏省南通市",
        "value": 2
    },
    {
        "lng": "120.474433",
        "lat": "32.539196",
        "areaCode": "江苏省南通市海安县",
        "name": "江苏省南通市海安县",
        "parent_area": "江苏省南通市",
        "value": 2
    },
    {
        "lng": "121.188436",
        "lat": "31.873612",
        "areaCode": "江苏省南通市海门市",
        "name": "江苏省南通市海门市",
        "parent_area": "江苏省南通市",
        "value": 1
    },
    {
        "lng": "118.249567",
        "lat": "33.968678",
        "areaCode": "江苏省宿迁市宿城区",
        "name": "江苏省宿迁市宿城区",
        "parent_area": "江苏省宿迁市",
        "value": 1
    },
    {
        "lng": "118.336401",
        "lat": "33.954804",
        "areaCode": "江苏省宿迁市宿豫区",
        "name": "江苏省宿迁市宿豫区",
        "parent_area": "江苏省宿迁市",
        "value": 1
    },
    {
        "lng": "118.222416",
        "lat": "33.465733",
        "areaCode": "江苏省宿迁市泗洪县",
        "name": "江苏省宿迁市泗洪县",
        "parent_area": "江苏省宿迁市",
        "value": 1
    },
    {
        "lng": "118.709466",
        "lat": "33.728328",
        "areaCode": "江苏省宿迁市泗阳县",
        "name": "江苏省宿迁市泗阳县",
        "parent_area": "江苏省宿迁市",
        "value": 1
    },
    {
        "lng": "119.980463",
        "lat": "31.78557",
        "areaCode": "江苏省常州市天宁区",
        "name": "江苏省常州市天宁区",
        "parent_area": "江苏省常州市",
        "value": 1
    },
    {
        "lng": "119.977514",
        "lat": "31.836324",
        "areaCode": "江苏省常州市新北区",
        "name": "江苏省常州市新北区",
        "parent_area": "江苏省常州市",
        "value": 1
    },
    {
        "lng": "119.491506",
        "lat": "31.422102",
        "areaCode": "江苏省常州市溧阳市",
        "name": "江苏省常州市溧阳市",
        "parent_area": "江苏省常州市",
        "value": 2
    },
    {
        "lng": "119.604571",
        "lat": "31.728893",
        "areaCode": "江苏省常州市金坛市",
        "name": "江苏省常州市金坛市",
        "parent_area": "江苏省常州市",
        "value": 1
    },
    {
        "lng": "118.361537",
        "lat": "34.375611",
        "areaCode": "江苏省徐州市新沂市",
        "name": "江苏省徐州市新沂市",
        "parent_area": "江苏省徐州市",
        "value": 3
    },
    {
        "lng": "117.46943",
        "lat": "34.44162",
        "areaCode": "江苏省徐州市贾汪区",
        "name": "江苏省徐州市贾汪区",
        "parent_area": "江苏省徐州市",
        "value": 1
    },
    {
        "lng": "118.019123",
        "lat": "34.344646",
        "areaCode": "江苏省徐州市邳州市",
        "name": "江苏省徐州市邳州市",
        "parent_area": "江苏省徐州市",
        "value": 1
    },
    {
        "lng": "117.17557",
        "lat": "34.1861",
        "areaCode": "江苏省徐州市铜山区",
        "name": "江苏省徐州市铜山区",
        "parent_area": "江苏省徐州市",
        "value": 1
    },
    {
        "lng": "119.438505",
        "lat": "32.400661",
        "areaCode": "江苏省扬州市广陵区",
        "name": "江苏省扬州市广陵区",
        "parent_area": "江苏省扬州市",
        "value": 1
    },
    {
        "lng": "119.404385",
        "lat": "32.382751",
        "areaCode": "江苏省扬州市邗江区",
        "name": "江苏省扬州市邗江区",
        "parent_area": "江苏省扬州市",
        "value": 1
    },
    {
        "lng": "120.304596",
        "lat": "31.686741",
        "areaCode": "江苏省无锡市惠山区",
        "name": "江苏省无锡市惠山区",
        "parent_area": "江苏省无锡市",
        "value": 1
    },
    {
        "lng": "120.291568",
        "lat": "31.926045",
        "areaCode": "江苏省无锡市江阴市",
        "name": "江苏省无锡市江阴市",
        "parent_area": "江苏省无锡市",
        "value": 1
    },
    {
        "lng": "120.291548",
        "lat": "31.53464",
        "areaCode": "江苏省无锡市滨湖区",
        "name": "江苏省无锡市滨湖区",
        "parent_area": "江苏省无锡市",
        "value": 2
    },
    {
        "lng": "120.133398",
        "lat": "32.515234",
        "areaCode": "江苏省泰州市姜堰区",
        "name": "江苏省泰州市姜堰区",
        "parent_area": "江苏省泰州市",
        "value": 1
    },
    {
        "lng": "120.058599",
        "lat": "32.177474",
        "areaCode": "江苏省泰州市泰兴市",
        "name": "江苏省泰州市泰兴市",
        "parent_area": "江苏省泰州市",
        "value": 1
    },
    {
        "lng": "120.283532",
        "lat": "31.98817",
        "areaCode": "江苏省泰州市靖江市",
        "name": "江苏省泰州市靖江市",
        "parent_area": "江苏省泰州市",
        "value": 4
    },
    {
        "lng": "119.925525",
        "lat": "32.496732",
        "areaCode": "江苏省泰州市海陵区",
        "name": "江苏省泰州市海陵区",
        "parent_area": "江苏省泰州市",
        "value": 1
    },
    {
        "lng": "119.266448",
        "lat": "33.787079",
        "areaCode": "江苏省淮安市涟水县",
        "name": "江苏省淮安市涟水县",
        "parent_area": "江苏省淮安市",
        "value": 1
    },
    {
        "lng": "120.326537",
        "lat": "32.872716",
        "areaCode": "江苏省盐城市东台市",
        "name": "江苏省盐城市东台市",
        "parent_area": "江苏省盐城市",
        "value": 1
    },
    {
        "lng": "119.584601",
        "lat": "34.204743",
        "areaCode": "江苏省盐城市响水县",
        "name": "江苏省盐城市响水县",
        "parent_area": "江苏省盐城市",
        "value": 1
    },
    {
        "lng": "120.507439",
        "lat": "33.20476",
        "areaCode": "江苏省盐城市大丰市",
        "name": "江苏省盐城市大丰市",
        "parent_area": "江苏省盐城市",
        "value": 1
    },
    {
        "lng": "120.264446",
        "lat": "33.781014",
        "areaCode": "江苏省盐城市射阳县",
        "name": "江苏省盐城市射阳县",
        "parent_area": "江苏省盐城市",
        "value": 1
    },
    {
        "lng": "120.160503",
        "lat": "33.34402",
        "areaCode": "江苏省盐城市盐都区",
        "name": "江苏省盐城市盐都区",
        "parent_area": "江苏省盐城市",
        "value": 1
    },
    {
        "lng": "120.638508",
        "lat": "31.268261",
        "areaCode": "江苏省苏州市吴中区",
        "name": "江苏省苏州市吴中区",
        "parent_area": "江苏省苏州市",
        "value": 2
    },
    {
        "lng": "120.651567",
        "lat": "31.144644",
        "areaCode": "江苏省苏州市吴江区",
        "name": "江苏省苏州市吴江区",
        "parent_area": "江苏省苏州市",
        "value": 1
    },
    {
        "lng": "120.623455",
        "lat": "31.341831",
        "areaCode": "江苏省苏州市姑苏区",
        "name": "江苏省苏州市姑苏区",
        "parent_area": "江苏省苏州市",
        "value": 1
    },
    {
        "lng": "120.987452",
        "lat": "31.390863",
        "areaCode": "江苏省苏州市昆山市",
        "name": "江苏省苏州市昆山市",
        "parent_area": "江苏省苏州市",
        "value": 2
    },
    {
        "lng": "118.759565",
        "lat": "34.547919",
        "areaCode": "江苏省连云港市东海县",
        "name": "江苏省连云港市东海县",
        "parent_area": "江苏省连云港市",
        "value": 1
    },
    {
        "lng": "119.169408",
        "lat": "34.577456",
        "areaCode": "江苏省连云港市新浦区",
        "name": "江苏省连云港市新浦区",
        "parent_area": "江苏省连云港市",
        "value": 2
    },
    {
        "lng": "119.169408",
        "lat": "34.577456",
        "areaCode": "江苏省连云港市海州区",
        "name": "江苏省连云港市海州区",
        "parent_area": "江苏省连云港市",
        "value": 1
    },
    {
        "lng": "119.322538",
        "lat": "34.092591",
        "areaCode": "江苏省连云港市灌南县",
        "name": "江苏省连云港市灌南县",
        "parent_area": "江苏省连云港市",
        "value": 1
    },
    {
        "lng": "119.179435",
        "lat": "34.847682",
        "areaCode": "江苏省连云港市赣榆县",
        "name": "江苏省连云港市赣榆县",
        "parent_area": "江苏省连云港市",
        "value": 1
    },
    {
        "lng": "119.612501",
        "lat": "32.01592",
        "areaCode": "江苏省镇江市丹阳市",
        "name": "江苏省镇江市丹阳市",
        "parent_area": "江苏省镇江市",
        "value": 1
    },
    {
        "lng": "119.80352",
        "lat": "32.242967",
        "areaCode": "江苏省镇江市扬中市",
        "name": "江苏省镇江市扬中市",
        "parent_area": "江苏省镇江市",
        "value": 1
    },
    {
        "lng": "117.064599",
        "lat": "28.700054",
        "areaCode": "江西省上饶市万年县",
        "name": "江西省上饶市万年县",
        "parent_area": "江西省上饶市",
        "value": 2
    },
    {
        "lng": "117.915584",
        "lat": "28.454187",
        "areaCode": "江西省上饶市上饶县",
        "name": "江西省上饶市上饶县",
        "parent_area": "江西省上饶市",
        "value": 1
    },
    {
        "lng": "116.701601",
        "lat": "28.707866",
        "areaCode": "江西省上饶市余干县",
        "name": "江西省上饶市余干县",
        "parent_area": "江西省上饶市",
        "value": 1
    },
    {
        "lng": "118.19742",
        "lat": "28.442615",
        "areaCode": "江西省上饶市广丰县",
        "name": "江西省上饶市广丰县",
        "parent_area": "江西省上饶市",
        "value": 1
    },
    {
        "lng": "117.58548",
        "lat": "28.952565",
        "areaCode": "江西省上饶市德兴市",
        "name": "江西省上饶市德兴市",
        "parent_area": "江西省上饶市",
        "value": 1
    },
    {
        "lng": "117.602397",
        "lat": "28.41344",
        "areaCode": "江西省上饶市横峰县",
        "name": "江西省上饶市横峰县",
        "parent_area": "江西省上饶市",
        "value": 1
    },
    {
        "lng": "117.716422",
        "lat": "28.321505",
        "areaCode": "江西省上饶市铅山县",
        "name": "江西省上饶市铅山县",
        "parent_area": "江西省上饶市",
        "value": 2
    },
    {
        "lng": "116.710566",
        "lat": "29.011453",
        "areaCode": "江西省上饶市鄱阳县",
        "name": "江西省上饶市鄱阳县",
        "parent_area": "江西省上饶市",
        "value": 6
    },
    {
        "lng": "114.553568",
        "lat": "29.031176",
        "areaCode": "江西省九江市修水县",
        "name": "江西省九江市修水县",
        "parent_area": "江西省九江市",
        "value": 3
    },
    {
        "lng": "115.921771",
        "lat": "29.714379",
        "areaCode": "江西省九江市九江县",
        "name": "江西省九江市九江县",
        "parent_area": "江西省九江市",
        "value": 4
    },
    {
        "lng": "116.55551",
        "lat": "29.902122",
        "areaCode": "江西省九江市彭泽县",
        "name": "江西省九江市彭泽县",
        "parent_area": "江西省九江市",
        "value": 1
    },
    {
        "lng": "116.051426",
        "lat": "29.454539",
        "areaCode": "江西省九江市庐山区",
        "name": "江西省九江市庐山区",
        "parent_area": "江西省九江市",
        "value": 1
    },
    {
        "lng": "115.762578",
        "lat": "29.319172",
        "areaCode": "江西省九江市德安县",
        "name": "江西省九江市德安县",
        "parent_area": "江西省九江市",
        "value": 3
    },
    {
        "lng": "116.051426",
        "lat": "29.454539",
        "areaCode": "江西省九江市星子县",
        "name": "江西省九江市星子县",
        "parent_area": "江西省九江市",
        "value": 1
    },
    {
        "lng": "115.107442",
        "lat": "29.262352",
        "areaCode": "江西省九江市武宁县",
        "name": "江西省九江市武宁县",
        "parent_area": "江西省九江市",
        "value": 4
    },
    {
        "lng": "115.815407",
        "lat": "29.028006",
        "areaCode": "江西省九江市永修县",
        "name": "江西省九江市永修县",
        "parent_area": "江西省九江市",
        "value": 5
    },
    {
        "lng": "116.258471",
        "lat": "29.737132",
        "areaCode": "江西省九江市湖口县",
        "name": "江西省九江市湖口县",
        "parent_area": "江西省九江市",
        "value": 5
    },
    {
        "lng": "115.996558",
        "lat": "29.733094",
        "areaCode": "江西省九江市浔阳区",
        "name": "江西省九江市浔阳区",
        "parent_area": "江西省九江市",
        "value": 6
    },
    {
        "lng": "115.68743",
        "lat": "29.681951",
        "areaCode": "江西省九江市瑞昌市",
        "name": "江西省九江市瑞昌市",
        "parent_area": "江西省九江市",
        "value": 2
    },
    {
        "lng": "116.210552",
        "lat": "29.278965",
        "areaCode": "江西省九江市都昌县",
        "name": "江西省九江市都昌县",
        "parent_area": "江西省九江市",
        "value": 8
    },
    {
        "lng": "115.95046",
        "lat": "28.551604",
        "areaCode": "江西省南昌市南昌县",
        "name": "江西省南昌市南昌县",
        "parent_area": "江西省南昌市",
        "value": 9
    },
    {
        "lng": "115.905466",
        "lat": "28.691259",
        "areaCode": "江西省南昌市东湖区",
        "name": "江西省南昌市东湖区",
        "parent_area": "江西省南昌市",
        "value": 1
    },
    {
        "lng": "115.821451",
        "lat": "28.698749",
        "areaCode": "江西省南昌市新建县",
        "name": "江西省南昌市新建县",
        "parent_area": "江西省南昌市",
        "value": 3
    },
    {
        "lng": "115.555441",
        "lat": "28.850794",
        "areaCode": "江西省南昌市安义县",
        "name": "江西省南昌市安义县",
        "parent_area": "江西省南昌市",
        "value": 5
    },
    {
        "lng": "115.883536",
        "lat": "28.661977",
        "areaCode": "江西省南昌市西湖区",
        "name": "江西省南昌市西湖区",
        "parent_area": "江西省南昌市",
        "value": 1
    },
    {
        "lng": "115.737596",
        "lat": "28.720195",
        "areaCode": "江西省南昌市湾里区",
        "name": "江西省南昌市湾里区",
        "parent_area": "江西省南昌市",
        "value": 2
    },
    {
        "lng": "115.931416",
        "lat": "28.627236",
        "areaCode": "江西省南昌市青云谱区",
        "name": "江西省南昌市青云谱区",
        "parent_area": "江西省南昌市",
        "value": 1
    },
    {
        "lng": "116.248538",
        "lat": "28.382759",
        "areaCode": "江西省南昌市进贤县",
        "name": "江西省南昌市进贤县",
        "parent_area": "江西省南昌市",
        "value": 2
    },
    {
        "lng": "115.968552",
        "lat": "28.687596",
        "areaCode": "江西省南昌市青山湖区",
        "name": "江西省南昌市青山湖区",
        "parent_area": "江西省南昌市",
        "value": 2
    },
    {
        "lng": "114.792577",
        "lat": "26.464073",
        "areaCode": "江西省吉安市万安县",
        "name": "江西省吉安市万安县",
        "parent_area": "江西省吉安市",
        "value": 1
    },
    {
        "lng": "114.914591",
        "lat": "27.044989",
        "areaCode": "江西省吉安市吉安县",
        "name": "江西省吉安市吉安县",
        "parent_area": "江西省吉安市",
        "value": 1
    },
    {
        "lng": "115.001539",
        "lat": "27.149315",
        "areaCode": "江西省吉安市吉州区",
        "name": "江西省吉安市吉州区",
        "parent_area": "江西省吉安市",
        "value": 1
    },
    {
        "lng": "115.322403",
        "lat": "27.588235",
        "areaCode": "江西省吉安市峡江县",
        "name": "江西省吉安市峡江县",
        "parent_area": "江西省吉安市",
        "value": 1
    },
    {
        "lng": "114.626478",
        "lat": "27.399076",
        "areaCode": "江西省吉安市安福县",
        "name": "江西省吉安市安福县",
        "parent_area": "江西省吉安市",
        "value": 2
    },
    {
        "lng": "115.393595",
        "lat": "27.746081",
        "areaCode": "江西省吉安市新干县",
        "name": "江西省吉安市新干县",
        "parent_area": "江西省吉安市",
        "value": 2
    },
    {
        "lng": "115.447402",
        "lat": "27.324342",
        "areaCode": "江西省吉安市永丰县",
        "name": "江西省吉安市永丰县",
        "parent_area": "江西省吉安市",
        "value": 1
    },
    {
        "lng": "114.249415",
        "lat": "26.951537",
        "areaCode": "江西省吉安市永新县",
        "name": "江西省吉安市永新县",
        "parent_area": "江西省吉安市",
        "value": 2
    },
    {
        "lng": "114.915591",
        "lat": "26.795697",
        "areaCode": "江西省吉安市泰和县",
        "name": "江西省吉安市泰和县",
        "parent_area": "江西省吉安市",
        "value": 2
    },
    {
        "lng": "114.527562",
        "lat": "26.319517",
        "areaCode": "江西省吉安市遂川县",
        "name": "江西省吉安市遂川县",
        "parent_area": "江西省吉安市",
        "value": 2
    },
    {
        "lng": "114.931541",
        "lat": "28.238815",
        "areaCode": "江西省宜春市上高县",
        "name": "江西省宜春市上高县",
        "parent_area": "江西省宜春市",
        "value": 1
    },
    {
        "lng": "115.777478",
        "lat": "28.166614",
        "areaCode": "江西省宜春市丰城市",
        "name": "江西省宜春市丰城市",
        "parent_area": "江西省宜春市",
        "value": 6
    },
    {
        "lng": "115.552419",
        "lat": "28.062153",
        "areaCode": "江西省宜春市樟树市",
        "name": "江西省宜春市樟树市",
        "parent_area": "江西省宜春市",
        "value": 1
    },
    {
        "lng": "114.434561",
        "lat": "27.802583",
        "areaCode": "江西省宜春市袁州区",
        "name": "江西省宜春市袁州区",
        "parent_area": "江西省宜春市",
        "value": 2
    },
    {
        "lng": "115.382565",
        "lat": "28.422857",
        "areaCode": "江西省宜春市高安市",
        "name": "江西省宜春市高安市",
        "parent_area": "江西省宜春市",
        "value": 4
    },
    {
        "lng": "116.31849",
        "lat": "27.940459",
        "areaCode": "江西省抚州市临川区",
        "name": "江西省抚州市临川区",
        "parent_area": "江西省抚州市",
        "value": 1
    },
    {
        "lng": "116.609542",
        "lat": "28.253977",
        "areaCode": "江西省抚州市东乡县",
        "name": "江西省抚州市东乡县",
        "parent_area": "江西省抚州市",
        "value": 1
    },
    {
        "lng": "116.531404",
        "lat": "27.224734",
        "areaCode": "江西省抚州市南丰县",
        "name": "江西省抚州市南丰县",
        "parent_area": "江西省抚州市",
        "value": 1
    },
    {
        "lng": "116.643399",
        "lat": "27.576241",
        "areaCode": "江西省抚州市南城县",
        "name": "江西省抚州市南城县",
        "parent_area": "江西省抚州市",
        "value": 1
    },
    {
        "lng": "116.083549",
        "lat": "27.75908",
        "areaCode": "江西省抚州市崇仁县",
        "name": "江西省抚州市崇仁县",
        "parent_area": "江西省抚州市",
        "value": 2
    },
    {
        "lng": "116.760404",
        "lat": "27.925329",
        "areaCode": "江西省抚州市金溪县",
        "name": "江西省抚州市金溪县",
        "parent_area": "江西省抚州市",
        "value": 1
    },
    {
        "lng": "116.914507",
        "lat": "27.28834",
        "areaCode": "江西省抚州市黎川县",
        "name": "江西省抚州市黎川县",
        "parent_area": "江西省抚州市",
        "value": 1
    },
    {
        "lng": "117.158511",
        "lat": "28.984364",
        "areaCode": "江西省景德镇市乐平市",
        "name": "江西省景德镇市乐平市",
        "parent_area": "江西省景德镇市",
        "value": 2
    },
    {
        "lng": "117.190579",
        "lat": "29.278854",
        "areaCode": "江西省景德镇市昌江区",
        "name": "江西省景德镇市昌江区",
        "parent_area": "江西省景德镇市",
        "value": 2
    },
    {
        "lng": "117.221466",
        "lat": "29.357788",
        "areaCode": "江西省景德镇市浮梁县",
        "name": "江西省景德镇市浮梁县",
        "parent_area": "江西省景德镇市",
        "value": 1
    },
    {
        "lng": "113.87744",
        "lat": "27.621308",
        "areaCode": "江西省萍乡市安源区",
        "name": "江西省萍乡市安源区",
        "parent_area": "江西省萍乡市",
        "value": 4
    },
    {
        "lng": "114.036519",
        "lat": "27.636605",
        "areaCode": "江西省萍乡市芦溪县",
        "name": "江西省萍乡市芦溪县",
        "parent_area": "江西省萍乡市",
        "value": 1
    },
    {
        "lng": "115.369552",
        "lat": "26.343883",
        "areaCode": "江西省赣州市兴国县",
        "name": "江西省赣州市兴国县",
        "parent_area": "江西省赣州市",
        "value": 1
    },
    {
        "lng": "116.015494",
        "lat": "26.47598",
        "areaCode": "江西省赣州市宁都县",
        "name": "江西省赣州市宁都县",
        "parent_area": "江西省赣州市",
        "value": 2
    },
    {
        "lng": "115.653515",
        "lat": "24.969447",
        "areaCode": "江西省赣州市寻乌县",
        "name": "江西省赣州市寻乌县",
        "parent_area": "江西省赣州市",
        "value": 1
    },
    {
        "lng": "114.314572",
        "lat": "25.687687",
        "areaCode": "江西省赣州市崇义县",
        "name": "江西省赣州市崇义县",
        "parent_area": "江西省赣州市",
        "value": 1
    },
    {
        "lng": "114.927551",
        "lat": "25.823747",
        "areaCode": "江西省赣州市章贡区",
        "name": "江西省赣州市章贡区",
        "parent_area": "江西省赣州市",
        "value": 3
    },
    {
        "lng": "114.796554",
        "lat": "24.916599",
        "areaCode": "江西省赣州市龙南县",
        "name": "江西省赣州市龙南县",
        "parent_area": "江西省赣州市",
        "value": 1
    },
    {
        "lng": "117.251399",
        "lat": "28.298735",
        "areaCode": "江西省鹰潭市贵溪市",
        "name": "江西省鹰潭市贵溪市",
        "parent_area": "江西省鹰潭市",
        "value": 1
    },
    {
        "lng": "115.942426",
        "lat": "38.941734",
        "areaCode": "河北省保定市安新县",
        "name": "河北省保定市安新县",
        "parent_area": "河北省保定市",
        "value": 1
    },
    {
        "lng": "115.81441",
        "lat": "39.269424",
        "areaCode": "河北省保定市定兴县",
        "name": "河北省保定市定兴县",
        "parent_area": "河北省保定市",
        "value": 1
    },
    {
        "lng": "115.868631",
        "lat": "39.048559",
        "areaCode": "河北省保定市容城县",
        "name": "河北省保定市容城县",
        "parent_area": "河北省保定市",
        "value": 1
    },
    {
        "lng": "115.503607",
        "lat": "39.355054",
        "areaCode": "河北省保定市易县",
        "name": "河北省保定市易县",
        "parent_area": "河北省保定市",
        "value": 2
    },
    {
        "lng": "115.98162",
        "lat": "39.491066",
        "areaCode": "河北省保定市涿州市",
        "name": "河北省保定市涿州市",
        "parent_area": "河北省保定市",
        "value": 1
    },
    {
        "lng": "115.880569",
        "lat": "39.332335",
        "areaCode": "河北省保定市高碑店市",
        "name": "河北省保定市高碑店市",
        "parent_area": "河北省保定市",
        "value": 1
    },
    {
        "lng": "118.168541",
        "lat": "39.838353",
        "areaCode": "河北省唐山市丰润区",
        "name": "河北省唐山市丰润区",
        "parent_area": "河北省唐山市",
        "value": 1
    },
    {
        "lng": "117.084588",
        "lat": "39.9881",
        "areaCode": "河北省廊坊市三河市",
        "name": "河北省廊坊市三河市",
        "parent_area": "河北省廊坊市",
        "value": 2
    },
    {
        "lng": "116.30542",
        "lat": "39.444485",
        "areaCode": "河北省廊坊市固安县",
        "name": "河北省廊坊市固安县",
        "parent_area": "河北省廊坊市",
        "value": 1
    },
    {
        "lng": "116.660409",
        "lat": "38.710859",
        "areaCode": "河北省廊坊市大城县",
        "name": "河北省廊坊市大城县",
        "parent_area": "河北省廊坊市",
        "value": 2
    },
    {
        "lng": "116.464609",
        "lat": "38.87895",
        "areaCode": "河北省廊坊市文安县",
        "name": "河北省廊坊市文安县",
        "parent_area": "河北省廊坊市",
        "value": 1
    },
    {
        "lng": "116.398397",
        "lat": "39.130921",
        "areaCode": "河北省廊坊市霸州市",
        "name": "河北省廊坊市霸州市",
        "parent_area": "河北省廊坊市",
        "value": 1
    },
    {
        "lng": "117.012402",
        "lat": "39.767939",
        "areaCode": "河北省廊坊市香河县",
        "name": "河北省廊坊市香河县",
        "parent_area": "河北省廊坊市",
        "value": 4
    },
    {
        "lng": "114.726375",
        "lat": "41.164944",
        "areaCode": "河北省张家口市张北县",
        "name": "河北省张家口市张北县",
        "parent_area": "河北省张家口市",
        "value": 1
    },
    {
        "lng": "115.524553",
        "lat": "40.42029",
        "areaCode": "河北省张家口市怀来县",
        "name": "河北省张家口市怀来县",
        "parent_area": "河北省张家口市",
        "value": 1
    },
    {
        "lng": "114.392469",
        "lat": "40.680369",
        "areaCode": "河北省张家口市怀安县",
        "name": "河北省张家口市怀安县",
        "parent_area": "河北省张家口市",
        "value": 1
    },
    {
        "lng": "114.595401",
        "lat": "39.847089",
        "areaCode": "河北省张家口市蔚县",
        "name": "河北省张家口市蔚县",
        "parent_area": "河北省张家口市",
        "value": 1
    },
    {
        "lng": "116.105628",
        "lat": "38.451357",
        "areaCode": "河北省沧州市河间市",
        "name": "河北省沧州市河间市",
        "parent_area": "河北省沧州市",
        "value": 1
    },
    {
        "lng": "116.584628",
        "lat": "38.089257",
        "areaCode": "河北省沧州市泊头市",
        "name": "河北省沧州市泊头市",
        "parent_area": "河北省沧州市",
        "value": 1
    },
    {
        "lng": "117.237414",
        "lat": "38.064318",
        "areaCode": "河北省沧州市盐山县",
        "name": "河北省沧州市盐山县",
        "parent_area": "河北省沧州市",
        "value": 1
    },
    {
        "lng": "114.513471",
        "lat": "37.07375",
        "areaCode": "河北省石家庄市桥东区",
        "name": "河北省石家庄市桥东区",
        "parent_area": "河北省石家庄市",
        "value": 1
    },
    {
        "lng": "114.46742",
        "lat": "38.010381",
        "areaCode": "河北省石家庄市桥西区",
        "name": "河北省石家庄市桥西区",
        "parent_area": "河北省石家庄市",
        "value": 1
    },
    {
        "lng": "114.853378",
        "lat": "38.027817",
        "areaCode": "河北省石家庄市藁城市",
        "name": "河北省石家庄市藁城市",
        "parent_area": "河北省石家庄市",
        "value": 1
    },
    {
        "lng": "115.224451",
        "lat": "37.949309",
        "areaCode": "河北省石家庄市辛集市",
        "name": "河北省石家庄市辛集市",
        "parent_area": "河北省石家庄市",
        "value": 2
    },
    {
        "lng": "114.545612",
        "lat": "38.043256",
        "areaCode": "河北省石家庄市长安区",
        "name": "河北省石家庄市长安区",
        "parent_area": "河北省石家庄市",
        "value": 1
    },
    {
        "lng": "119.169375",
        "lat": "39.719051",
        "areaCode": "河北省秦皇岛市昌黎县",
        "name": "河北省秦皇岛市昌黎县",
        "parent_area": "河北省秦皇岛市",
        "value": 1
    },
    {
        "lng": "119.617475",
        "lat": "39.940413",
        "areaCode": "河北省秦皇岛市海港区",
        "name": "河北省秦皇岛市海港区",
        "parent_area": "河北省秦皇岛市",
        "value": 1
    },
    {
        "lng": "115.730563",
        "lat": "37.519364",
        "areaCode": "河北省衡水市枣强县",
        "name": "河北省衡水市枣强县",
        "parent_area": "河北省衡水市",
        "value": 1
    },
    {
        "lng": "115.566369",
        "lat": "38.006941",
        "areaCode": "河北省衡水市深州市",
        "name": "河北省衡水市深州市",
        "parent_area": "河北省衡水市",
        "value": 1
    },
    {
        "lng": "114.678606",
        "lat": "37.126727",
        "areaCode": "河北省邢台市任县",
        "name": "河北省邢台市任县",
        "parent_area": "河北省邢台市",
        "value": 1
    },
    {
        "lng": "115.507629",
        "lat": "36.87676",
        "areaCode": "河北省邢台市临西县",
        "name": "河北省邢台市临西县",
        "parent_area": "河北省邢台市",
        "value": 3
    },
    {
        "lng": "114.518493",
        "lat": "37.292858",
        "areaCode": "河北省邢台市内丘县",
        "name": "河北省邢台市内丘县",
        "parent_area": "河北省邢台市",
        "value": 1
    },
    {
        "lng": "115.414529",
        "lat": "37.364069",
        "areaCode": "河北省邢台市南宫市",
        "name": "河北省邢台市南宫市",
        "parent_area": "河北省邢台市",
        "value": 1
    },
    {
        "lng": "115.273618",
        "lat": "36.981582",
        "areaCode": "河北省邢台市威县",
        "name": "河北省邢台市威县",
        "parent_area": "河北省邢台市",
        "value": 2
    },
    {
        "lng": "114.925562",
        "lat": "37.625612",
        "areaCode": "河北省邢台市宁晋县",
        "name": "河北省邢台市宁晋县",
        "parent_area": "河北省邢台市",
        "value": 1
    },
    {
        "lng": "115.149605",
        "lat": "37.080457",
        "areaCode": "河北省邢台市广宗县",
        "name": "河北省邢台市广宗县",
        "parent_area": "河北省邢台市",
        "value": 2
    },
    {
        "lng": "115.248547",
        "lat": "37.534591",
        "areaCode": "河北省邢台市新河县",
        "name": "河北省邢台市新河县",
        "parent_area": "河北省邢台市",
        "value": 1
    },
    {
        "lng": "114.626427",
        "lat": "36.340766",
        "areaCode": "河北省邯郸市临漳县",
        "name": "河北省邯郸市临漳县",
        "parent_area": "河北省邯郸市",
        "value": 4
    },
    {
        "lng": "115.154613",
        "lat": "36.291288",
        "areaCode": "河北省邯郸市大名县",
        "name": "河北省邯郸市大名县",
        "parent_area": "河北省邯郸市",
        "value": 3
    },
    {
        "lng": "114.219483",
        "lat": "36.425654",
        "areaCode": "河北省邯郸市峰峰矿区",
        "name": "河北省邯郸市峰峰矿区",
        "parent_area": "河北省邯郸市",
        "value": 1
    },
    {
        "lng": "114.210516",
        "lat": "36.702488",
        "areaCode": "河北省邯郸市武安市",
        "name": "河北省邯郸市武安市",
        "parent_area": "河北省邯郸市",
        "value": 1
    },
    {
        "lng": "114.550625",
        "lat": "36.747569",
        "areaCode": "河北省邯郸市永年县",
        "name": "河北省邯郸市永年县",
        "parent_area": "河北省邯郸市",
        "value": 1
    },
    {
        "lng": "114.380432",
        "lat": "36.380359",
        "areaCode": "河北省邯郸市磁县",
        "name": "河北省邯郸市磁县",
        "parent_area": "河北省邯郸市",
        "value": 3
    },
    {
        "lng": "114.550754",
        "lat": "36.554145",
        "areaCode": "河北省邯郸市邯郸县",
        "name": "河北省邯郸市邯郸县",
        "parent_area": "河北省邯郸市",
        "value": 1
    },
    {
        "lng": "115.193395",
        "lat": "36.817362",
        "areaCode": "河北省邯郸市邱县",
        "name": "河北省邯郸市邱县",
        "parent_area": "河北省邯郸市",
        "value": 1
    },
    {
        "lng": "114.94545",
        "lat": "36.366156",
        "areaCode": "河北省邯郸市魏县",
        "name": "河北省邯郸市魏县",
        "parent_area": "河北省邯郸市",
        "value": 1
    },
    {
        "lng": "111.880515",
        "lat": "34.753028",
        "areaCode": "河南省三门峡市义马市",
        "name": "河南省三门峡市义马市",
        "parent_area": "河南省三门峡市",
        "value": 1
    },
    {
        "lng": "114.925533",
        "lat": "32.015907",
        "areaCode": "河南省信阳市光山县",
        "name": "河南省信阳市光山县",
        "parent_area": "河南省信阳市",
        "value": 21
    },
    {
        "lng": "115.413513",
        "lat": "31.804345",
        "areaCode": "河南省信阳市商城县",
        "name": "河南省信阳市商城县",
        "parent_area": "河南省信阳市",
        "value": 11
    },
    {
        "lng": "115.660488",
        "lat": "32.174174",
        "areaCode": "河南省信阳市固始县",
        "name": "河南省信阳市固始县",
        "parent_area": "河南省信阳市",
        "value": 12
    },
    {
        "lng": "114.747453",
        "lat": "32.348956",
        "areaCode": "河南省信阳市息县",
        "name": "河南省信阳市息县",
        "parent_area": "河南省信阳市",
        "value": 20
    },
    {
        "lng": "114.132407",
        "lat": "32.107325",
        "areaCode": "河南省信阳市平桥区",
        "name": "河南省信阳市平桥区",
        "parent_area": "河南省信阳市",
        "value": 31
    },
    {
        "lng": "114.885525",
        "lat": "31.649738",
        "areaCode": "河南省信阳市新县",
        "name": "河南省信阳市新县",
        "parent_area": "河南省信阳市",
        "value": 17
    },
    {
        "lng": "114.065581",
        "lat": "32.122554",
        "areaCode": "河南省信阳市浉河区",
        "name": "河南省信阳市浉河区",
        "parent_area": "河南省信阳市",
        "value": 35
    },
    {
        "lng": "115.426439",
        "lat": "32.47947",
        "areaCode": "河南省信阳市淮滨县",
        "name": "河南省信阳市淮滨县",
        "parent_area": "河南省信阳市",
        "value": 4
    },
    {
        "lng": "115.058471",
        "lat": "32.137531",
        "areaCode": "河南省信阳市潢川县",
        "name": "河南省信阳市潢川县",
        "parent_area": "河南省信阳市",
        "value": 25
    },
    {
        "lng": "114.51953",
        "lat": "32.20915",
        "areaCode": "河南省信阳市罗山县",
        "name": "河南省信阳市罗山县",
        "parent_area": "河南省信阳市",
        "value": 30
    },
    {
        "lng": "111.855425",
        "lat": "33.051203",
        "areaCode": "河南省南阳市内乡县",
        "name": "河南省南阳市内乡县",
        "parent_area": "河南省南阳市",
        "value": 4
    },
    {
        "lng": "112.435425",
        "lat": "33.496186",
        "areaCode": "河南省南阳市南召县",
        "name": "河南省南阳市南召县",
        "parent_area": "河南省南阳市",
        "value": 1
    },
    {
        "lng": "112.541462",
        "lat": "32.992484",
        "areaCode": "河南省南阳市卧龙区",
        "name": "河南省南阳市卧龙区",
        "parent_area": "河南省南阳市",
        "value": 1
    },
    {
        "lng": "112.813424",
        "lat": "32.687721",
        "areaCode": "河南省南阳市唐河县",
        "name": "河南省南阳市唐河县",
        "parent_area": "河南省南阳市",
        "value": 25
    },
    {
        "lng": "112.546454",
        "lat": "33.00987",
        "areaCode": "河南省南阳市宛城区",
        "name": "河南省南阳市宛城区",
        "parent_area": "河南省南阳市",
        "value": 10
    },
    {
        "lng": "112.36655",
        "lat": "32.526632",
        "areaCode": "河南省南阳市新野县",
        "name": "河南省南阳市新野县",
        "parent_area": "河南省南阳市",
        "value": 7
    },
    {
        "lng": "113.018503",
        "lat": "33.260539",
        "areaCode": "河南省南阳市方城县",
        "name": "河南省南阳市方城县",
        "parent_area": "河南省南阳市",
        "value": 1
    },
    {
        "lng": "113.434473",
        "lat": "32.385131",
        "areaCode": "河南省南阳市桐柏县",
        "name": "河南省南阳市桐柏县",
        "parent_area": "河南省南阳市",
        "value": 9
    },
    {
        "lng": "111.497432",
        "lat": "33.144185",
        "areaCode": "河南省南阳市淅川县",
        "name": "河南省南阳市淅川县",
        "parent_area": "河南省南阳市",
        "value": 3
    },
    {
        "lng": "112.954493",
        "lat": "33.062237",
        "areaCode": "河南省南阳市社旗县",
        "name": "河南省南阳市社旗县",
        "parent_area": "河南省南阳市",
        "value": 5
    },
    {
        "lng": "112.09342",
        "lat": "32.693917",
        "areaCode": "河南省南阳市邓州市",
        "name": "河南省南阳市邓州市",
        "parent_area": "河南省南阳市",
        "value": 15
    },
    {
        "lng": "112.241544",
        "lat": "33.039719",
        "areaCode": "河南省南阳市镇平县",
        "name": "河南省南阳市镇平县",
        "parent_area": "河南省南阳市",
        "value": 6
    },
    {
        "lng": "114.618416",
        "lat": "33.548877",
        "areaCode": "河南省周口市商水县",
        "name": "河南省周口市商水县",
        "parent_area": "河南省周口市",
        "value": 12
    },
    {
        "lng": "114.844384",
        "lat": "34.070038",
        "areaCode": "河南省周口市太康县",
        "name": "河南省周口市太康县",
        "parent_area": "河南省周口市",
        "value": 12
    },
    {
        "lng": "114.40151",
        "lat": "34.065906",
        "areaCode": "河南省周口市扶沟县",
        "name": "河南省周口市扶沟县",
        "parent_area": "河南省周口市",
        "value": 1
    },
    {
        "lng": "115.105455",
        "lat": "33.415691",
        "areaCode": "河南省周口市沈丘县",
        "name": "河南省周口市沈丘县",
        "parent_area": "河南省周口市",
        "value": 3
    },
    {
        "lng": "114.892586",
        "lat": "33.737347",
        "areaCode": "河南省周口市淮阳县",
        "name": "河南省周口市淮阳县",
        "parent_area": "河南省周口市",
        "value": 7
    },
    {
        "lng": "114.535597",
        "lat": "33.773215",
        "areaCode": "河南省周口市西华县",
        "name": "河南省周口市西华县",
        "parent_area": "河南省周口市",
        "value": 6
    },
    {
        "lng": "115.183478",
        "lat": "33.650828",
        "areaCode": "河南省周口市郸城县",
        "name": "河南省周口市郸城县",
        "parent_area": "河南省周口市",
        "value": 8
    },
    {
        "lng": "114.881514",
        "lat": "33.473007",
        "areaCode": "河南省周口市项城市",
        "name": "河南省周口市项城市",
        "parent_area": "河南省周口市",
        "value": 4
    },
    {
        "lng": "115.490585",
        "lat": "33.867173",
        "areaCode": "河南省周口市鹿邑县",
        "name": "河南省周口市鹿邑县",
        "parent_area": "河南省周口市",
        "value": 2
    },
    {
        "lng": "116.137512",
        "lat": "34.243523",
        "areaCode": "河南省商丘市夏邑县",
        "name": "河南省商丘市夏邑县",
        "parent_area": "河南省商丘市",
        "value": 6
    },
    {
        "lng": "115.320418",
        "lat": "34.466634",
        "areaCode": "河南省商丘市宁陵县",
        "name": "河南省商丘市宁陵县",
        "parent_area": "河南省商丘市",
        "value": 3
    },
    {
        "lng": "115.312435",
        "lat": "34.09736",
        "areaCode": "河南省商丘市柘城县",
        "name": "河南省商丘市柘城县",
        "parent_area": "河南省商丘市",
        "value": 1
    },
    {
        "lng": "115.620602",
        "lat": "34.449471",
        "areaCode": "河南省商丘市梁园区",
        "name": "河南省商丘市梁园区",
        "parent_area": "河南省商丘市",
        "value": 2
    },
    {
        "lng": "115.154576",
        "lat": "34.652479",
        "areaCode": "河南省商丘市民权县",
        "name": "河南省商丘市民权县",
        "parent_area": "河南省商丘市",
        "value": 1
    },
    {
        "lng": "116.455566",
        "lat": "33.934801",
        "areaCode": "河南省商丘市永城市",
        "name": "河南省商丘市永城市",
        "parent_area": "河南省商丘市",
        "value": 2
    },
    {
        "lng": "115.078411",
        "lat": "34.451617",
        "areaCode": "河南省商丘市睢县",
        "name": "河南省商丘市睢县",
        "parent_area": "河南省商丘市",
        "value": 3
    },
    {
        "lng": "115.659476",
        "lat": "34.394152",
        "areaCode": "河南省商丘市睢阳区",
        "name": "河南省商丘市睢阳区",
        "parent_area": "河南省商丘市",
        "value": 1
    },
    {
        "lng": "115.834473",
        "lat": "34.405332",
        "areaCode": "河南省商丘市虞城县",
        "name": "河南省商丘市虞城县",
        "parent_area": "河南省商丘市",
        "value": 3
    },
    {
        "lng": "114.907589",
        "lat": "35.97695",
        "areaCode": "河南省安阳市内黄县",
        "name": "河南省安阳市内黄县",
        "parent_area": "河南省安阳市",
        "value": 3
    },
    {
        "lng": "114.362382",
        "lat": "36.113132",
        "areaCode": "河南省安阳市北关区",
        "name": "河南省安阳市北关区",
        "parent_area": "河南省安阳市",
        "value": 2
    },
    {
        "lng": "114.238382",
        "lat": "36.218907",
        "areaCode": "河南省安阳市安阳县",
        "name": "河南省安阳市安阳县",
        "parent_area": "河南省安阳市",
        "value": 3
    },
    {
        "lng": "114.363374",
        "lat": "36.096833",
        "areaCode": "河南省安阳市文峰区",
        "name": "河南省安阳市文峰区",
        "parent_area": "河南省安阳市",
        "value": 3
    },
    {
        "lng": "113.82559",
        "lat": "36.088853",
        "areaCode": "河南省安阳市林州市",
        "name": "河南省安阳市林州市",
        "parent_area": "河南省安阳市",
        "value": 7
    },
    {
        "lng": "114.309598",
        "lat": "36.115758",
        "areaCode": "河南省安阳市殷都区",
        "name": "河南省安阳市殷都区",
        "parent_area": "河南省安阳市",
        "value": 1
    },
    {
        "lng": "114.363409",
        "lat": "35.927644",
        "areaCode": "河南省安阳市汤阴县",
        "name": "河南省安阳市汤阴县",
        "parent_area": "河南省安阳市",
        "value": 2
    },
    {
        "lng": "114.525553",
        "lat": "35.581045",
        "areaCode": "河南省安阳市滑县",
        "name": "河南省安阳市滑县",
        "parent_area": "河南省安阳市",
        "value": 2
    },
    {
        "lng": "114.307593",
        "lat": "36.082753",
        "areaCode": "河南省安阳市龙安区",
        "name": "河南省安阳市龙安区",
        "parent_area": "河南省安阳市",
        "value": 3
    },
    {
        "lng": "113.341611",
        "lat": "33.740376",
        "areaCode": "河南省平顶山市卫东区",
        "name": "河南省平顶山市卫东区",
        "parent_area": "河南省平顶山市",
        "value": 3
    },
    {
        "lng": "113.363582",
        "lat": "33.632492",
        "areaCode": "河南省平顶山市叶县",
        "name": "河南省平顶山市叶县",
        "parent_area": "河南省平顶山市",
        "value": 3
    },
    {
        "lng": "113.061447",
        "lat": "33.874746",
        "areaCode": "河南省平顶山市宝丰县",
        "name": "河南省平顶山市宝丰县",
        "parent_area": "河南省平顶山市",
        "value": 3
    },
    {
        "lng": "113.53141",
        "lat": "33.299431",
        "areaCode": "河南省平顶山市舞钢市",
        "name": "河南省平顶山市舞钢市",
        "parent_area": "河南省平顶山市",
        "value": 4
    },
    {
        "lng": "113.219606",
        "lat": "33.977486",
        "areaCode": "河南省平顶山市郏县",
        "name": "河南省平顶山市郏县",
        "parent_area": "河南省平顶山市",
        "value": 2
    },
    {
        "lng": "112.914434",
        "lat": "33.744879",
        "areaCode": "河南省平顶山市鲁山县",
        "name": "河南省平顶山市鲁山县",
        "parent_area": "河南省平顶山市",
        "value": 3
    },
    {
        "lng": "114.827461",
        "lat": "34.828493",
        "areaCode": "河南省开封市兰考县",
        "name": "河南省开封市兰考县",
        "parent_area": "河南省开封市",
        "value": 2
    },
    {
        "lng": "114.199561",
        "lat": "34.417228",
        "areaCode": "河南省开封市尉氏县",
        "name": "河南省开封市尉氏县",
        "parent_area": "河南省开封市",
        "value": 1
    },
    {
        "lng": "114.447533",
        "lat": "34.76274",
        "areaCode": "河南省开封市开封县",
        "name": "河南省开封市开封县",
        "parent_area": "河南省开封市",
        "value": 2
    },
    {
        "lng": "114.314593",
        "lat": "34.802886",
        "areaCode": "河南省开封市开封市市辖区",
        "name": "河南省开封市开封市市辖区",
        "parent_area": "河南省开封市",
        "value": 1
    },
    {
        "lng": "114.789592",
        "lat": "34.554857",
        "areaCode": "河南省开封市杞县",
        "name": "河南省开封市杞县",
        "parent_area": "河南省开封市",
        "value": 2
    },
    {
        "lng": "114.071601",
        "lat": "35.404069",
        "areaCode": "河南省新乡市卫辉市",
        "name": "河南省新乡市卫辉市",
        "parent_area": "河南省新乡市",
        "value": 2
    },
    {
        "lng": "114.425606",
        "lat": "35.046858",
        "areaCode": "河南省新乡市封丘县",
        "name": "河南省新乡市封丘县",
        "parent_area": "河南省新乡市",
        "value": 1
    },
    {
        "lng": "114.211512",
        "lat": "35.147807",
        "areaCode": "河南省新乡市延津县",
        "name": "河南省新乡市延津县",
        "parent_area": "河南省新乡市",
        "value": 1
    },
    {
        "lng": "113.811573",
        "lat": "35.467958",
        "areaCode": "河南省新乡市辉县市",
        "name": "河南省新乡市辉县市",
        "parent_area": "河南省新乡市",
        "value": 1
    },
    {
        "lng": "112.796421",
        "lat": "34.733797",
        "areaCode": "河南省洛阳市偃师市",
        "name": "河南省洛阳市偃师市",
        "parent_area": "河南省洛阳市",
        "value": 4
    },
    {
        "lng": "112.179465",
        "lat": "34.541047",
        "areaCode": "河南省洛阳市宜阳县",
        "name": "河南省洛阳市宜阳县",
        "parent_area": "河南省洛阳市",
        "value": 1
    },
    {
        "lng": "112.14061",
        "lat": "34.734383",
        "areaCode": "河南省洛阳市新安县",
        "name": "河南省洛阳市新安县",
        "parent_area": "河南省洛阳市",
        "value": 2
    },
    {
        "lng": "112.479503",
        "lat": "34.159843",
        "areaCode": "河南省洛阳市汝阳县",
        "name": "河南省洛阳市汝阳县",
        "parent_area": "河南省洛阳市",
        "value": 2
    },
    {
        "lng": "111.659587",
        "lat": "34.394985",
        "areaCode": "河南省洛阳市洛宁县",
        "name": "河南省洛阳市洛宁县",
        "parent_area": "河南省洛阳市",
        "value": 5
    },
    {
        "lng": "112.470469",
        "lat": "34.624705",
        "areaCode": "河南省洛阳市洛龙区",
        "name": "河南省洛阳市洛龙区",
        "parent_area": "河南省洛阳市",
        "value": 4
    },
    {
        "lng": "112.402552",
        "lat": "34.663469",
        "areaCode": "河南省洛阳市涧西区",
        "name": "河南省洛阳市涧西区",
        "parent_area": "河南省洛阳市",
        "value": 3
    },
    {
        "lng": "112.506604",
        "lat": "34.685462",
        "areaCode": "河南省洛阳市瀍河回族区",
        "name": "河南省洛阳市瀍河回族区",
        "parent_area": "河南省洛阳市",
        "value": 1
    },
    {
        "lng": "114.100467",
        "lat": "33.592468",
        "areaCode": "河南省漯河市召陵区",
        "name": "河南省漯河市召陵区",
        "parent_area": "河南省漯河市",
        "value": 10
    },
    {
        "lng": "113.937578",
        "lat": "33.832692",
        "areaCode": "河南省漯河市临颍县",
        "name": "河南省漯河市临颍县",
        "parent_area": "河南省漯河市",
        "value": 14
    },
    {
        "lng": "113.990414",
        "lat": "33.578423",
        "areaCode": "河南省漯河市源汇区",
        "name": "河南省漯河市源汇区",
        "parent_area": "河南省漯河市",
        "value": 6
    },
    {
        "lng": "113.61549",
        "lat": "33.443578",
        "areaCode": "河南省漯河市舞阳县",
        "name": "河南省漯河市舞阳县",
        "parent_area": "河南省漯河市",
        "value": 10
    },
    {
        "lng": "114.013394",
        "lat": "33.593416",
        "areaCode": "河南省漯河市郾城区",
        "name": "河南省漯河市郾城区",
        "parent_area": "河南省漯河市",
        "value": 17
    },
    {
        "lng": "115.878568",
        "lat": "35.975013",
        "areaCode": "河南省濮阳市台前县",
        "name": "河南省濮阳市台前县",
        "parent_area": "河南省濮阳市",
        "value": 3
    },
    {
        "lng": "115.110472",
        "lat": "35.891308",
        "areaCode": "河南省濮阳市清丰县",
        "name": "河南省濮阳市清丰县",
        "parent_area": "河南省濮阳市",
        "value": 1
    },
    {
        "lng": "115.035584",
        "lat": "35.717889",
        "areaCode": "河南省濮阳市濮阳县",
        "name": "河南省濮阳市濮阳县",
        "parent_area": "河南省濮阳市",
        "value": 1
    },
    {
        "lng": "113.070478",
        "lat": "35.177308",
        "areaCode": "河南省焦作市博爱县",
        "name": "河南省焦作市博爱县",
        "parent_area": "河南省焦作市",
        "value": 1
    },
    {
        "lng": "113.260484",
        "lat": "35.220272",
        "areaCode": "河南省焦作市山阳区",
        "name": "河南省焦作市山阳区",
        "parent_area": "河南省焦作市",
        "value": 1
    },
    {
        "lng": "113.408396",
        "lat": "35.105838",
        "areaCode": "河南省焦作市武陟县",
        "name": "河南省焦作市武陟县",
        "parent_area": "河南省焦作市",
        "value": 3
    },
    {
        "lng": "112.957517",
        "lat": "35.093786",
        "areaCode": "河南省焦作市沁阳市",
        "name": "河南省焦作市沁阳市",
        "parent_area": "河南省焦作市",
        "value": 2
    },
    {
        "lng": "113.495224",
        "lat": "34.148267",
        "areaCode": "河南省许昌市禹州市",
        "name": "河南省许昌市禹州市",
        "parent_area": "河南省许昌市",
        "value": 6
    },
    {
        "lng": "113.51342",
        "lat": "33.857912",
        "areaCode": "河南省许昌市襄城县",
        "name": "河南省许昌市襄城县",
        "parent_area": "河南省许昌市",
        "value": 2
    },
    {
        "lng": "113.829478",
        "lat": "34.130525",
        "areaCode": "河南省许昌市许昌县",
        "name": "河南省许昌市许昌县",
        "parent_area": "河南省许昌市",
        "value": 4
    },
    {
        "lng": "114.184638",
        "lat": "34.108882",
        "areaCode": "河南省许昌市鄢陵县",
        "name": "河南省许昌市鄢陵县",
        "parent_area": "河南省许昌市",
        "value": 2
    },
    {
        "lng": "113.820658",
        "lat": "34.201539",
        "areaCode": "河南省许昌市长葛市",
        "name": "河南省许昌市长葛市",
        "parent_area": "河南省许昌市",
        "value": 2
    },
    {
        "lng": "113.837541",
        "lat": "34.053251",
        "areaCode": "河南省许昌市魏都区",
        "name": "河南省许昌市魏都区",
        "parent_area": "河南省许昌市",
        "value": 3
    },
    {
        "lng": "113.619476",
        "lat": "34.754451",
        "areaCode": "河南省郑州市中原区",
        "name": "河南省郑州市中原区",
        "parent_area": "河南省郑州市",
        "value": 1
    },
    {
        "lng": "113.982485",
        "lat": "34.725011",
        "areaCode": "河南省郑州市中牟县",
        "name": "河南省郑州市中牟县",
        "parent_area": "河南省郑州市",
        "value": 1
    },
    {
        "lng": "113.631419",
        "lat": "34.753439",
        "areaCode": "河南省郑州市二七区",
        "name": "河南省郑州市二七区",
        "parent_area": "河南省郑州市",
        "value": 3
    },
    {
        "lng": "113.028431",
        "lat": "34.754097",
        "areaCode": "河南省郑州市巩义市",
        "name": "河南省郑州市巩义市",
        "parent_area": "河南省郑州市",
        "value": 2
    },
    {
        "lng": "113.623455",
        "lat": "34.87352",
        "areaCode": "河南省郑州市惠济区",
        "name": "河南省郑州市惠济区",
        "parent_area": "河南省郑州市",
        "value": 1
    },
    {
        "lng": "113.746434",
        "lat": "34.401766",
        "areaCode": "河南省郑州市新郑市",
        "name": "河南省郑州市新郑市",
        "parent_area": "河南省郑州市",
        "value": 2
    },
    {
        "lng": "113.683525",
        "lat": "34.759674",
        "areaCode": "河南省郑州市管城回族区",
        "name": "河南省郑州市管城回族区",
        "parent_area": "河南省郑州市",
        "value": 1
    },
    {
        "lng": "113.666448",
        "lat": "34.80607",
        "areaCode": "河南省郑州市金水区",
        "name": "河南省郑州市金水区",
        "parent_area": "河南省郑州市",
        "value": 4
    },
    {
        "lng": "114.270487",
        "lat": "33.268511",
        "areaCode": "河南省驻马店市上蔡县",
        "name": "河南省驻马店市上蔡县",
        "parent_area": "河南省驻马店市",
        "value": 9
    },
    {
        "lng": "114.625429",
        "lat": "32.967982",
        "areaCode": "河南省驻马店市平舆县",
        "name": "河南省驻马店市平舆县",
        "parent_area": "河南省驻马店市",
        "value": 5
    },
    {
        "lng": "114.992469",
        "lat": "32.755269",
        "areaCode": "河南省驻马店市新蔡县",
        "name": "河南省驻马店市新蔡县",
        "parent_area": "河南省驻马店市",
        "value": 5
    },
    {
        "lng": "114.399497",
        "lat": "32.611641",
        "areaCode": "河南省驻马店市正阳县",
        "name": "河南省驻马店市正阳县",
        "parent_area": "河南省驻马店市",
        "value": 12
    },
    {
        "lng": "114.369409",
        "lat": "33.013141",
        "areaCode": "河南省驻马店市汝南县",
        "name": "河南省驻马店市汝南县",
        "parent_area": "河南省驻马店市",
        "value": 9
    },
    {
        "lng": "113.333558",
        "lat": "32.729731",
        "areaCode": "河南省驻马店市泌阳县",
        "name": "河南省驻马店市泌阳县",
        "parent_area": "河南省驻马店市",
        "value": 7
    },
    {
        "lng": "114.032495",
        "lat": "32.808176",
        "areaCode": "河南省驻马店市确山县",
        "name": "河南省驻马店市确山县",
        "parent_area": "河南省驻马店市",
        "value": 4
    },
    {
        "lng": "114.027474",
        "lat": "33.393861",
        "areaCode": "河南省驻马店市西平县",
        "name": "河南省驻马店市西平县",
        "parent_area": "河南省驻马店市",
        "value": 4
    },
    {
        "lng": "114.019441",
        "lat": "33.151971",
        "areaCode": "河南省驻马店市遂平县",
        "name": "河南省驻马店市遂平县",
        "parent_area": "河南省驻马店市",
        "value": 3
    },
    {
        "lng": "114.000387",
        "lat": "32.97952",
        "areaCode": "河南省驻马店市驿城区",
        "name": "河南省驻马店市驿城区",
        "parent_area": "河南省驻马店市",
        "value": 10
    },
    {
        "lng": "114.190621",
        "lat": "35.90337",
        "areaCode": "河南省鹤壁市山城区",
        "name": "河南省鹤壁市山城区",
        "parent_area": "河南省鹤壁市",
        "value": 1
    },
    {
        "lng": "114.557608",
        "lat": "35.681917",
        "areaCode": "河南省鹤壁市浚县",
        "name": "河南省鹤壁市浚县",
        "parent_area": "河南省鹤壁市",
        "value": 5
    },
    {
        "lng": "114.21549",
        "lat": "35.627277",
        "areaCode": "河南省鹤壁市淇县",
        "name": "河南省鹤壁市淇县",
        "parent_area": "河南省鹤壁市",
        "value": 1
    },
    {
        "lng": "114.305591",
        "lat": "35.746953",
        "areaCode": "河南省鹤壁市淇滨区",
        "name": "河南省鹤壁市淇滨区",
        "parent_area": "河南省鹤壁市",
        "value": 3
    },
    {
        "lng": "119.069487",
        "lat": "27.625432",
        "areaCode": "浙江省丽水市庆元县",
        "name": "浙江省丽水市庆元县",
        "parent_area": "浙江省丽水市",
        "value": 1
    },
    {
        "lng": "119.282435",
        "lat": "28.598455",
        "areaCode": "浙江省丽水市遂昌县",
        "name": "浙江省丽水市遂昌县",
        "parent_area": "浙江省丽水市",
        "value": 1
    },
    {
        "lng": "119.148445",
        "lat": "28.080509",
        "areaCode": "浙江省丽水市龙泉市",
        "name": "浙江省丽水市龙泉市",
        "parent_area": "浙江省丽水市",
        "value": 1
    },
    {
        "lng": "121.151585",
        "lat": "28.864049",
        "areaCode": "浙江省台州市临海市",
        "name": "浙江省台州市临海市",
        "parent_area": "浙江省台州市",
        "value": 3
    },
    {
        "lng": "121.013553",
        "lat": "29.149514",
        "areaCode": "浙江省台州市天台县",
        "name": "浙江省台州市天台县",
        "parent_area": "浙江省台州市",
        "value": 1
    },
    {
        "lng": "121.449408",
        "lat": "28.679258",
        "areaCode": "浙江省台州市椒江区",
        "name": "浙江省台州市椒江区",
        "parent_area": "浙江省台州市",
        "value": 2
    },
    {
        "lng": "121.392589",
        "lat": "28.377655",
        "areaCode": "浙江省台州市温岭市",
        "name": "浙江省台州市温岭市",
        "parent_area": "浙江省台州市",
        "value": 1
    },
    {
        "lng": "121.371578",
        "lat": "28.586947",
        "areaCode": "浙江省台州市路桥区",
        "name": "浙江省台州市路桥区",
        "parent_area": "浙江省台州市",
        "value": 1
    },
    {
        "lng": "121.268566",
        "lat": "28.655334",
        "areaCode": "浙江省台州市黄岩区",
        "name": "浙江省台州市黄岩区",
        "parent_area": "浙江省台州市",
        "value": 1
    },
    {
        "lng": "120.78961",
        "lat": "30.751547",
        "areaCode": "浙江省嘉兴市南湖区",
        "name": "浙江省嘉兴市南湖区",
        "parent_area": "浙江省嘉兴市",
        "value": 1
    },
    {
        "lng": "121.555427",
        "lat": "29.824206",
        "areaCode": "浙江省宁波市江东区",
        "name": "浙江省宁波市江东区",
        "parent_area": "浙江省宁波市",
        "value": 2
    },
    {
        "lng": "121.875564",
        "lat": "29.482271",
        "areaCode": "浙江省宁波市象山县",
        "name": "浙江省宁波市象山县",
        "parent_area": "浙江省宁波市",
        "value": 1
    },
    {
        "lng": "121.555427",
        "lat": "29.824206",
        "areaCode": "浙江省宁波市鄞州区",
        "name": "浙江省宁波市鄞州区",
        "parent_area": "浙江省宁波市",
        "value": 1
    },
    {
        "lng": "117.248306",
        "lat": "31.853672",
        "areaCode": "浙江省杭州市上城区",
        "name": "浙江省杭州市上城区",
        "parent_area": "浙江省杭州市",
        "value": 1
    },
    {
        "lng": "120.187607",
        "lat": "30.286744",
        "areaCode": "浙江省杭州市下城区",
        "name": "浙江省杭州市下城区",
        "parent_area": "浙江省杭州市",
        "value": 1
    },
    {
        "lng": "120.306592",
        "lat": "30.424739",
        "areaCode": "浙江省杭州市余杭区",
        "name": "浙江省杭州市余杭区",
        "parent_area": "浙江省杭州市",
        "value": 1
    },
    {
        "lng": "119.966556",
        "lat": "30.054723",
        "areaCode": "浙江省杭州市富阳市",
        "name": "浙江省杭州市富阳市",
        "parent_area": "浙江省杭州市",
        "value": 1
    },
    {
        "lng": "120.211539",
        "lat": "30.263311",
        "areaCode": "浙江省杭州市江干区",
        "name": "浙江省杭州市江干区",
        "parent_area": "浙江省杭州市",
        "value": 1
    },
    {
        "lng": "120.097488",
        "lat": "27.793217",
        "areaCode": "浙江省温州市文成县",
        "name": "浙江省温州市文成县",
        "parent_area": "浙江省温州市",
        "value": 1
    },
    {
        "lng": "120.688524",
        "lat": "28.15645",
        "areaCode": "浙江省温州市永嘉县",
        "name": "浙江省温州市永嘉县",
        "parent_area": "浙江省温州市",
        "value": 1
    },
    {
        "lng": "121.163549",
        "lat": "27.84187",
        "areaCode": "浙江省温州市洞头县",
        "name": "浙江省温州市洞头县",
        "parent_area": "浙江省温州市",
        "value": 1
    },
    {
        "lng": "120.661582",
        "lat": "27.783951",
        "areaCode": "浙江省温州市瑞安市",
        "name": "浙江省温州市瑞安市",
        "parent_area": "浙江省温州市",
        "value": 4
    },
    {
        "lng": "120.433595",
        "lat": "27.523067",
        "areaCode": "浙江省温州市苍南县",
        "name": "浙江省温州市苍南县",
        "parent_area": "浙江省温州市",
        "value": 2
    },
    {
        "lng": "120.87451",
        "lat": "30.038243",
        "areaCode": "浙江省绍兴市上虞市",
        "name": "浙江省绍兴市上虞市",
        "parent_area": "浙江省绍兴市",
        "value": 1
    },
    {
        "lng": "120.451511",
        "lat": "30.079004",
        "areaCode": "浙江省绍兴市绍兴县",
        "name": "浙江省绍兴市绍兴县",
        "parent_area": "浙江省绍兴市",
        "value": 1
    },
    {
        "lng": "118.877584",
        "lat": "28.974204",
        "areaCode": "浙江省衢州市柯城区",
        "name": "浙江省衢州市柯城区",
        "parent_area": "浙江省衢州市",
        "value": 1
    },
    {
        "lng": "118.633583",
        "lat": "28.742868",
        "areaCode": "浙江省衢州市江山市",
        "name": "浙江省衢州市江山市",
        "parent_area": "浙江省衢州市",
        "value": 1
    },
    {
        "lng": "119.466599",
        "lat": "29.214044",
        "areaCode": "浙江省金华市兰溪市",
        "name": "浙江省金华市兰溪市",
        "parent_area": "浙江省金华市",
        "value": 2
    },
    {
        "lng": "120.054551",
        "lat": "28.894204",
        "areaCode": "浙江省金华市永康市",
        "name": "浙江省金华市永康市",
        "parent_area": "浙江省金华市",
        "value": 1
    },
    {
        "lng": "119.699582",
        "lat": "29.104765",
        "areaCode": "浙江省金华市金东区",
        "name": "浙江省金华市金东区",
        "parent_area": "浙江省金华市",
        "value": 1
    },
    {
        "lng": "110.404547",
        "lat": "18.728935",
        "areaCode": "海南省万宁市万宁市",
        "name": "海南省万宁市万宁市",
        "parent_area": "海南省万宁市",
        "value": 2
    },
    {
        "lng": "109.518557",
        "lat": "18.258736",
        "areaCode": "海南省三亚市市辖区",
        "name": "海南省三亚市市辖区",
        "parent_area": "海南省三亚市",
        "value": 9
    },
    {
        "lng": "109.697443",
        "lat": "19.919475",
        "areaCode": "海南省临高县临高县",
        "name": "海南省临高县临高县",
        "parent_area": "海南省临高县",
        "value": 1
    },
    {
        "lng": "109.656114",
        "lat": "18.597592",
        "areaCode": "海南省保亭黎族苗族自治县保亭黎族苗族自治县",
        "name": "海南省保亭黎族苗族自治县保亭黎族苗族自治县",
        "parent_area": "海南省保亭黎族苗族自治县",
        "value": 1
    },
    {
        "lng": "110.804509",
        "lat": "19.549062",
        "areaCode": "海南省文昌市文昌市",
        "name": "海南省文昌市文昌市",
        "parent_area": "海南省文昌市",
        "value": 2
    },
    {
        "lng": "110.300436",
        "lat": "20.013642",
        "areaCode": "海南省海口市秀英区",
        "name": "海南省海口市秀英区",
        "parent_area": "海南省海口市",
        "value": 1
    },
    {
        "lng": "110.373498",
        "lat": "20.034646",
        "areaCode": "海南省海口市美兰区",
        "name": "海南省海口市美兰区",
        "parent_area": "海南省海口市",
        "value": 1
    },
    {
        "lng": "110.480545",
        "lat": "19.264254",
        "areaCode": "海南省琼海市琼海市",
        "name": "海南省琼海市琼海市",
        "parent_area": "海南省琼海市",
        "value": 2
    },
    {
        "lng": "110.044464",
        "lat": "18.512332",
        "areaCode": "海南省陵水黎族自治县陵水黎族自治县",
        "name": "海南省陵水黎族自治县陵水黎族自治县",
        "parent_area": "海南省陵水黎族自治县",
        "value": 2
    },
    {
        "lng": "111.519532",
        "lat": "32.546253",
        "areaCode": "湖北省十堰市丹江口市",
        "name": "湖北省十堰市丹江口市",
        "parent_area": "湖北省十堰市",
        "value": 23
    },
    {
        "lng": "110.775424",
        "lat": "32.6584",
        "areaCode": "湖北省十堰市张湾区",
        "name": "湖北省十堰市张湾区",
        "parent_area": "湖北省十堰市",
        "value": 13
    },
    {
        "lng": "110.235582",
        "lat": "32.230304",
        "areaCode": "湖北省十堰市竹山县",
        "name": "湖北省十堰市竹山县",
        "parent_area": "湖北省十堰市",
        "value": 20
    },
    {
        "lng": "110.747462",
        "lat": "32.061685",
        "areaCode": "湖北省十堰市房县",
        "name": "湖北省十堰市房县",
        "parent_area": "湖北省十堰市",
        "value": 23
    },
    {
        "lng": "110.81958",
        "lat": "32.597287",
        "areaCode": "湖北省十堰市茅箭区",
        "name": "湖北省十堰市茅箭区",
        "parent_area": "湖北省十堰市",
        "value": 14
    },
    {
        "lng": "109.721542",
        "lat": "32.32412",
        "areaCode": "湖北省十堰市竹溪县",
        "name": "湖北省十堰市竹溪县",
        "parent_area": "湖北省十堰市",
        "value": 9
    },
    {
        "lng": "110.818577",
        "lat": "32.840592",
        "areaCode": "湖北省十堰市郧县",
        "name": "湖北省十堰市郧县",
        "parent_area": "湖北省十堰市",
        "value": 18
    },
    {
        "lng": "110.432473",
        "lat": "32.999167",
        "areaCode": "湖北省十堰市郧西县",
        "name": "湖北省十堰市郧西县",
        "parent_area": "湖北省十堰市",
        "value": 8
    },
    {
        "lng": "114.30457",
        "lat": "29.858154",
        "areaCode": "湖北省咸宁市咸安区",
        "name": "湖北省咸宁市咸安区",
        "parent_area": "湖北省咸宁市",
        "value": 80
    },
    {
        "lng": "113.94557",
        "lat": "29.976354",
        "areaCode": "湖北省咸宁市嘉鱼县",
        "name": "湖北省咸宁市嘉鱼县",
        "parent_area": "湖北省咸宁市",
        "value": 84
    },
    {
        "lng": "114.046563",
        "lat": "29.561334",
        "areaCode": "湖北省咸宁市崇阳县",
        "name": "湖北省咸宁市崇阳县",
        "parent_area": "湖北省咸宁市",
        "value": 51
    },
    {
        "lng": "113.906437",
        "lat": "29.730666",
        "areaCode": "湖北省咸宁市赤壁市",
        "name": "湖北省咸宁市赤壁市",
        "parent_area": "湖北省咸宁市",
        "value": 57
    },
    {
        "lng": "113.823568",
        "lat": "29.250858",
        "areaCode": "湖北省咸宁市通城县",
        "name": "湖北省咸宁市通城县",
        "parent_area": "湖北省咸宁市",
        "value": 34
    },
    {
        "lng": "114.489393",
        "lat": "29.612634",
        "areaCode": "湖北省咸宁市通山县",
        "name": "湖北省咸宁市通山县",
        "parent_area": "湖北省咸宁市",
        "value": 76
    },
    {
        "lng": "113.759412",
        "lat": "31.027218",
        "areaCode": "湖北省孝感市云梦县",
        "name": "湖北省孝感市云梦县",
        "parent_area": "湖北省孝感市",
        "value": 208
    },
    {
        "lng": "114.133413",
        "lat": "31.56722",
        "areaCode": "湖北省孝感市大悟县",
        "name": "湖北省孝感市大悟县",
        "parent_area": "湖北省孝感市",
        "value": 217
    },
    {
        "lng": "113.91749",
        "lat": "30.922978",
        "areaCode": "湖北省孝感市孝南区",
        "name": "湖北省孝感市孝南区",
        "parent_area": "湖北省孝感市",
        "value": 330
    },
    {
        "lng": "114.004409",
        "lat": "31.26454",
        "areaCode": "湖北省孝感市孝昌县",
        "name": "湖北省孝感市孝昌县",
        "parent_area": "湖北省孝感市",
        "value": 170
    },
    {
        "lng": "113.695583",
        "lat": "31.261415",
        "areaCode": "湖北省孝感市安陆市",
        "name": "湖北省孝感市安陆市",
        "parent_area": "湖北省孝感市",
        "value": 188
    },
    {
        "lng": "113.579567",
        "lat": "30.933977",
        "areaCode": "湖北省孝感市应城市",
        "name": "湖北省孝感市应城市",
        "parent_area": "湖北省孝感市",
        "value": 282
    },
    {
        "lng": "113.845549",
        "lat": "30.666914",
        "areaCode": "湖北省孝感市汉川市",
        "name": "湖北省孝感市汉川市",
        "parent_area": "湖北省孝感市",
        "value": 371
    },
    {
        "lng": "111.052581",
        "lat": "30.171156",
        "areaCode": "湖北省宜昌市五峰土家族自治县",
        "name": "湖北省宜昌市五峰土家族自治县",
        "parent_area": "湖北省宜昌市",
        "value": 16
    },
    {
        "lng": "111.367422",
        "lat": "30.650737",
        "areaCode": "湖北省宜昌市伍家岗区",
        "name": "湖北省宜昌市伍家岗区",
        "parent_area": "湖北省宜昌市",
        "value": 10
    },
    {
        "lng": "110.753446",
        "lat": "31.354464",
        "areaCode": "湖北省宜昌市兴山县",
        "name": "湖北省宜昌市兴山县",
        "parent_area": "湖北省宜昌市",
        "value": 9
    },
    {
        "lng": "111.33253",
        "lat": "30.774833",
        "areaCode": "湖北省宜昌市夷陵区",
        "name": "湖北省宜昌市夷陵区",
        "parent_area": "湖北省宜昌市",
        "value": 22
    },
    {
        "lng": "111.456516",
        "lat": "30.384404",
        "areaCode": "湖北省宜昌市宜都市",
        "name": "湖北省宜昌市宜都市",
        "parent_area": "湖北省宜昌市",
        "value": 15
    },
    {
        "lng": "111.794569",
        "lat": "30.826989",
        "areaCode": "湖北省宜昌市当阳市",
        "name": "湖北省宜昌市当阳市",
        "parent_area": "湖北省宜昌市",
        "value": 23
    },
    {
        "lng": "111.76654",
        "lat": "30.431731",
        "areaCode": "湖北省宜昌市枝江市",
        "name": "湖北省宜昌市枝江市",
        "parent_area": "湖北省宜昌市",
        "value": 15
    },
    {
        "lng": "111.274471",
        "lat": "30.69933",
        "areaCode": "湖北省宜昌市点军区",
        "name": "湖北省宜昌市点军区",
        "parent_area": "湖北省宜昌市",
        "value": 4
    },
    {
        "lng": "111.441574",
        "lat": "30.536466",
        "areaCode": "湖北省宜昌市猇亭区",
        "name": "湖北省宜昌市猇亭区",
        "parent_area": "湖北省宜昌市",
        "value": 4
    },
    {
        "lng": "110.984449",
        "lat": "30.831932",
        "areaCode": "湖北省宜昌市秭归县",
        "name": "湖北省宜昌市秭归县",
        "parent_area": "湖北省宜昌市",
        "value": 11
    },
    {
        "lng": "111.29256",
        "lat": "30.716749",
        "areaCode": "湖北省宜昌市西陵区",
        "name": "湖北省宜昌市西陵区",
        "parent_area": "湖北省宜昌市",
        "value": 10
    },
    {
        "lng": "111.64653",
        "lat": "31.066628",
        "areaCode": "湖北省宜昌市远安县",
        "name": "湖北省宜昌市远安县",
        "parent_area": "湖北省宜昌市",
        "value": 15
    },
    {
        "lng": "111.213507",
        "lat": "30.478646",
        "areaCode": "湖北省宜昌市长阳土家族自治县",
        "name": "湖北省宜昌市长阳土家族自治县",
        "parent_area": "湖北省宜昌市",
        "value": 17
    },
    {
        "lng": "108.942481",
        "lat": "30.297203",
        "areaCode": "湖北省恩施土家族苗族自治州利川市",
        "name": "湖北省恩施土家族苗族自治州利川市",
        "parent_area": "湖北省恩施土家族苗族自治州",
        "value": 20
    },
    {
        "lng": "109.146608",
        "lat": "29.671078",
        "areaCode": "湖北省恩施土家族苗族自治州咸丰县",
        "name": "湖北省恩施土家族苗族自治州咸丰县",
        "parent_area": "湖北省恩施土家族苗族自治州",
        "value": 8
    },
    {
        "lng": "109.497568",
        "lat": "29.992604",
        "areaCode": "湖北省恩施土家族苗族自治州宣恩县",
        "name": "湖北省恩施土家族苗族自治州宣恩县",
        "parent_area": "湖北省恩施土家族苗族自治州",
        "value": 10
    },
    {
        "lng": "110.347575",
        "lat": "31.048064",
        "areaCode": "湖北省恩施土家族苗族自治州巴东县",
        "name": "湖北省恩施土家族苗族自治州巴东县",
        "parent_area": "湖北省恩施土家族苗族自治州",
        "value": 32
    },
    {
        "lng": "109.728556",
        "lat": "30.607907",
        "areaCode": "湖北省恩施土家族苗族自治州建始县",
        "name": "湖北省恩施土家族苗族自治州建始县",
        "parent_area": "湖北省恩施土家族苗族自治州",
        "value": 32
    },
    {
        "lng": "109.48655",
        "lat": "30.301037",
        "areaCode": "湖北省恩施土家族苗族自治州恩施市",
        "name": "湖北省恩施土家族苗族自治州恩施市",
        "parent_area": "湖北省恩施土家族苗族自治州",
        "value": 38
    },
    {
        "lng": "109.413495",
        "lat": "29.499444",
        "areaCode": "湖北省恩施土家族苗族自治州来凤县",
        "name": "湖北省恩施土家族苗族自治州来凤县",
        "parent_area": "湖北省恩施土家族苗族自治州",
        "value": 2
    },
    {
        "lng": "110.040424",
        "lat": "29.896116",
        "areaCode": "湖北省恩施土家族苗族自治州鹤峰县",
        "name": "湖北省恩施土家族苗族自治州鹤峰县",
        "parent_area": "湖北省恩施土家族苗族自治州",
        "value": 8
    },
    {
        "lng": "114.143459",
        "lat": "30.62592",
        "areaCode": "湖北省武汉市东西湖区",
        "name": "湖北省武汉市东西湖区",
        "parent_area": "湖北省武汉市",
        "value": 2091
    },
    {
        "lng": "114.807543",
        "lat": "30.847244",
        "areaCode": "湖北省武汉市新洲区",
        "name": "湖北省武汉市新洲区",
        "parent_area": "湖北省武汉市",
        "value": 788
    },
    {
        "lng": "114.322549",
        "lat": "30.559567",
        "areaCode": "湖北省武汉市武昌区",
        "name": "湖北省武汉市武昌区",
        "parent_area": "湖北省武汉市",
        "value": 1537
    },
    {
        "lng": "114.225446",
        "lat": "30.560052",
        "areaCode": "湖北省武汉市汉阳区",
        "name": "湖北省武汉市汉阳区",
        "parent_area": "湖北省武汉市",
        "value": 2129
    },
    {
        "lng": "114.091515",
        "lat": "30.314809",
        "areaCode": "湖北省武汉市汉南区",
        "name": "湖北省武汉市汉南区",
        "parent_area": "湖北省武汉市",
        "value": 76
    },
    {
        "lng": "114.328551",
        "lat": "30.381564",
        "areaCode": "湖北省武汉市江夏区",
        "name": "湖北省武汉市江夏区",
        "parent_area": "湖北省武汉市",
        "value": 1094
    },
    {
        "lng": "114.316579",
        "lat": "30.605403",
        "areaCode": "湖北省武汉市江岸区",
        "name": "湖北省武汉市江岸区",
        "parent_area": "湖北省武汉市",
        "value": 4021
    },
    {
        "lng": "114.277506",
        "lat": "30.607282",
        "areaCode": "湖北省武汉市江汉区",
        "name": "湖北省武汉市江汉区",
        "parent_area": "湖北省武汉市",
        "value": 4004
    },
    {
        "lng": "114.350456",
        "lat": "30.506334",
        "areaCode": "湖北省武汉市洪山区",
        "name": "湖北省武汉市洪山区",
        "parent_area": "湖北省武汉市",
        "value": 3645
    },
    {
        "lng": "114.22146",
        "lat": "30.587584",
        "areaCode": "湖北省武汉市硚口区",
        "name": "湖北省武汉市硚口区",
        "parent_area": "湖北省武汉市",
        "value": 1994
    },
    {
        "lng": "114.03548",
        "lat": "30.588114",
        "areaCode": "湖北省武汉市蔡甸区",
        "name": "湖北省武汉市蔡甸区",
        "parent_area": "湖北省武汉市",
        "value": 1302
    },
    {
        "lng": "114.391493",
        "lat": "30.646593",
        "areaCode": "湖北省武汉市青山区",
        "name": "湖北省武汉市青山区",
        "parent_area": "湖北省武汉市",
        "value": 887
    },
    {
        "lng": "114.382454",
        "lat": "30.887534",
        "areaCode": "湖北省武汉市黄陂区",
        "name": "湖北省武汉市黄陂区",
        "parent_area": "湖北省武汉市",
        "value": 3025
    },
    {
        "lng": "113.449608",
        "lat": "30.343811",
        "areaCode": "湖北省湖北省直辖县级行政单位仙桃市",
        "name": "湖北省湖北省直辖县级行政单位仙桃市",
        "parent_area": "湖北省湖北省直辖县级行政单位",
        "value": 344
    },
    {
        "lng": "113.16781",
        "lat": "30.668378",
        "areaCode": "湖北省湖北省直辖县级行政单位天门市",
        "name": "湖北省湖北省直辖县级行政单位天门市",
        "parent_area": "湖北省湖北省直辖县级行政单位",
        "value": 219
    },
    {
        "lng": "112.907777",
        "lat": "30.408108",
        "areaCode": "湖北省湖北省直辖县级行政单位潜江市",
        "name": "湖北省湖北省直辖县级行政单位潜江市",
        "parent_area": "湖北省湖北省直辖县级行政单位",
        "value": 92
    },
    {
        "lng": "112.907777",
        "lat": "30.408108",
        "areaCode": "湖北省湖北省直辖县级行政单位神农架林区",
        "name": "湖北省湖北省直辖县级行政单位神农架林区",
        "parent_area": "湖北省湖北省直辖县级行政单位",
        "value": 1
    },
    {
        "lng": "112.236502",
        "lat": "30.064401",
        "areaCode": "湖北省荆州市公安县",
        "name": "湖北省荆州市公安县",
        "parent_area": "湖北省荆州市",
        "value": 90
    },
    {
        "lng": "111.77358",
        "lat": "30.175342",
        "areaCode": "湖北省荆州市松滋市",
        "name": "湖北省荆州市松滋市",
        "parent_area": "湖北省荆州市",
        "value": 57
    },
    {
        "lng": "112.431452",
        "lat": "30.048043",
        "areaCode": "湖北省荆州市江陵县",
        "name": "湖北省荆州市江陵县",
        "parent_area": "湖北省荆州市",
        "value": 26
    },
    {
        "lng": "112.261577",
        "lat": "30.316572",
        "areaCode": "湖北省荆州市沙市区",
        "name": "湖北省荆州市沙市区",
        "parent_area": "湖北省荆州市",
        "value": 33
    },
    {
        "lng": "113.482553",
        "lat": "29.83277",
        "areaCode": "湖北省荆州市洪湖市",
        "name": "湖北省荆州市洪湖市",
        "parent_area": "湖北省荆州市",
        "value": 201
    },
    {
        "lng": "112.91142",
        "lat": "29.845735",
        "areaCode": "湖北省荆州市监利县",
        "name": "湖北省荆州市监利县",
        "parent_area": "湖北省荆州市",
        "value": 94
    },
    {
        "lng": "112.43142",
        "lat": "29.727034",
        "areaCode": "湖北省荆州市石首市",
        "name": "湖北省荆州市石首市",
        "parent_area": "湖北省荆州市",
        "value": 50
    },
    {
        "lng": "112.196414",
        "lat": "30.358989",
        "areaCode": "湖北省荆州市荆州区",
        "name": "湖北省荆州市荆州区",
        "parent_area": "湖北省荆州市",
        "value": 46
    },
    {
        "lng": "112.208388",
        "lat": "31.058429",
        "areaCode": "湖北省荆门市东宝区",
        "name": "湖北省荆门市东宝区",
        "parent_area": "湖北省荆门市",
        "value": 11
    },
    {
        "lng": "113.126548",
        "lat": "31.024331",
        "areaCode": "湖北省荆门市京山县",
        "name": "湖北省荆门市京山县",
        "parent_area": "湖北省荆门市",
        "value": 159
    },
    {
        "lng": "112.214428",
        "lat": "30.979911",
        "areaCode": "湖北省荆门市掇刀区",
        "name": "湖北省荆门市掇刀区",
        "parent_area": "湖北省荆门市",
        "value": 21
    },
    {
        "lng": "112.595485",
        "lat": "30.715315",
        "areaCode": "湖北省荆门市沙洋县",
        "name": "湖北省荆门市沙洋县",
        "parent_area": "湖北省荆门市",
        "value": 24
    },
    {
        "lng": "112.594471",
        "lat": "31.17403",
        "areaCode": "湖北省荆门市钟祥市",
        "name": "湖北省荆门市钟祥市",
        "parent_area": "湖北省荆门市",
        "value": 124
    },
    {
        "lng": "111.267441",
        "lat": "31.883847",
        "areaCode": "湖北省襄阳市保康县",
        "name": "湖北省襄阳市保康县",
        "parent_area": "湖北省襄阳市",
        "value": 13
    },
    {
        "lng": "111.845386",
        "lat": "31.78113",
        "areaCode": "湖北省襄阳市南漳县",
        "name": "湖北省襄阳市南漳县",
        "parent_area": "湖北省襄阳市",
        "value": 36
    },
    {
        "lng": "112.284524",
        "lat": "31.778264",
        "areaCode": "湖北省襄阳市宜城市",
        "name": "湖北省襄阳市宜城市",
        "parent_area": "湖北省襄阳市",
        "value": 37
    },
    {
        "lng": "112.778471",
        "lat": "32.13473",
        "areaCode": "湖北省襄阳市枣阳市",
        "name": "湖北省襄阳市枣阳市",
        "parent_area": "湖北省襄阳市",
        "value": 109
    },
    {
        "lng": "112.142599",
        "lat": "32.050572",
        "areaCode": "湖北省襄阳市樊城区",
        "name": "湖北省襄阳市樊城区",
        "parent_area": "湖北省襄阳市",
        "value": 46
    },
    {
        "lng": "112.140572",
        "lat": "32.016175",
        "areaCode": "湖北省襄阳市襄城区",
        "name": "湖北省襄阳市襄城区",
        "parent_area": "湖北省襄阳市",
        "value": 21
    },
    {
        "lng": "111.681556",
        "lat": "32.39246",
        "areaCode": "湖北省襄阳市老河口市",
        "name": "湖北省襄阳市老河口市",
        "parent_area": "湖北省襄阳市",
        "value": 33
    },
    {
        "lng": "112.218434",
        "lat": "32.093376",
        "areaCode": "湖北省襄阳市襄州区",
        "name": "湖北省襄阳市襄州区",
        "parent_area": "湖北省襄阳市",
        "value": 51
    },
    {
        "lng": "111.758312",
        "lat": "32.146163",
        "areaCode": "湖北省襄阳市谷城县",
        "name": "湖北省襄阳市谷城县",
        "parent_area": "湖北省襄阳市",
        "value": 32
    },
    {
        "lng": "114.736426",
        "lat": "30.5406",
        "areaCode": "湖北省鄂州市华容区",
        "name": "湖北省鄂州市华容区",
        "parent_area": "湖北省鄂州市",
        "value": 125
    },
    {
        "lng": "114.691507",
        "lat": "30.105907",
        "areaCode": "湖北省鄂州市梁子湖区",
        "name": "湖北省鄂州市梁子湖区",
        "parent_area": "湖北省鄂州市",
        "value": 70
    },
    {
        "lng": "114.8986",
        "lat": "30.406389",
        "areaCode": "湖北省鄂州市鄂城区",
        "name": "湖北省鄂州市鄂城区",
        "parent_area": "湖北省鄂州市",
        "value": 94
    },
    {
        "lng": "113.832593",
        "lat": "31.622476",
        "areaCode": "湖北省随州市广水市",
        "name": "湖北省随州市广水市",
        "parent_area": "湖北省随州市",
        "value": 151
    },
    {
        "lng": "113.377513",
        "lat": "31.722123",
        "areaCode": "湖北省随州市曾都区",
        "name": "湖北省随州市曾都区",
        "parent_area": "湖北省随州市",
        "value": 118
    },
    {
        "lng": "113.306458",
        "lat": "31.859972",
        "areaCode": "湖北省随州市随县",
        "name": "湖北省随州市随县",
        "parent_area": "湖北省随州市",
        "value": 161
    },
    {
        "lng": "114.878524",
        "lat": "30.649368",
        "areaCode": "湖北省黄冈市团风县",
        "name": "湖北省黄冈市团风县",
        "parent_area": "湖北省黄冈市",
        "value": 55
    },
    {
        "lng": "115.567392",
        "lat": "29.850441",
        "areaCode": "湖北省黄冈市武穴市",
        "name": "湖北省黄冈市武穴市",
        "parent_area": "湖北省黄冈市",
        "value": 59
    },
    {
        "lng": "115.271569",
        "lat": "30.457461",
        "areaCode": "湖北省黄冈市浠水县",
        "name": "湖北省黄冈市浠水县",
        "parent_area": "湖北省黄冈市",
        "value": 156
    },
    {
        "lng": "114.624426",
        "lat": "31.294297",
        "areaCode": "湖北省黄冈市红安县",
        "name": "湖北省黄冈市红安县",
        "parent_area": "湖北省黄冈市",
        "value": 225
    },
    {
        "lng": "115.405547",
        "lat": "30.78891",
        "areaCode": "湖北省黄冈市罗田县",
        "name": "湖北省黄冈市罗田县",
        "parent_area": "湖北省黄冈市",
        "value": 70
    },
    {
        "lng": "115.687422",
        "lat": "30.74135",
        "areaCode": "湖北省黄冈市英山县",
        "name": "湖北省黄冈市英山县",
        "parent_area": "湖北省黄冈市",
        "value": 41
    },
    {
        "lng": "115.442399",
        "lat": "30.232535",
        "areaCode": "湖北省黄冈市蕲春县",
        "name": "湖北省黄冈市蕲春县",
        "parent_area": "湖北省黄冈市",
        "value": 98
    },
    {
        "lng": "115.016562",
        "lat": "31.176996",
        "areaCode": "湖北省黄冈市麻城市",
        "name": "湖北省黄冈市麻城市",
        "parent_area": "湖北省黄冈市",
        "value": 225
    },
    {
        "lng": "115.950462",
        "lat": "30.076605",
        "areaCode": "湖北省黄冈市黄梅县",
        "name": "湖北省黄冈市黄梅县",
        "parent_area": "湖北省黄冈市",
        "value": 114
    },
    {
        "lng": "114.886532",
        "lat": "30.440224",
        "areaCode": "湖北省黄冈市黄州区",
        "name": "湖北省黄冈市黄州区",
        "parent_area": "湖北省黄冈市",
        "value": 57
    },
    {
        "lng": "114.986436",
        "lat": "30.101668",
        "areaCode": "湖北省黄石市大冶市",
        "name": "湖北省黄石市大冶市",
        "parent_area": "湖北省黄石市",
        "value": 112
    },
    {
        "lng": "114.967416",
        "lat": "30.180046",
        "areaCode": "湖北省黄石市下陆区",
        "name": "湖北省黄石市下陆区",
        "parent_area": "湖北省黄石市",
        "value": 19
    },
    {
        "lng": "114.907571",
        "lat": "30.212251",
        "areaCode": "湖北省黄石市铁山区",
        "name": "湖北省黄石市铁山区",
        "parent_area": "湖北省黄石市",
        "value": 5
    },
    {
        "lng": "115.116481",
        "lat": "30.210695",
        "areaCode": "湖北省黄石市西塞山区",
        "name": "湖北省黄石市西塞山区",
        "parent_area": "湖北省黄石市",
        "value": 7
    },
    {
        "lng": "115.221427",
        "lat": "29.836542",
        "areaCode": "湖北省黄石市阳新县",
        "name": "湖北省黄石市阳新县",
        "parent_area": "湖北省黄石市",
        "value": 131
    },
    {
        "lng": "115.072417",
        "lat": "30.229053",
        "areaCode": "湖北省黄石市黄石港区",
        "name": "湖北省黄石市黄石港区",
        "parent_area": "湖北省黄石市",
        "value": 21
    },
    {
        "lng": "111.44154",
        "lat": "27.692059",
        "areaCode": "湖南省娄底市冷水江市",
        "name": "湖南省娄底市冷水江市",
        "parent_area": "湖南省娄底市",
        "value": 1
    },
    {
        "lng": "112.18146",
        "lat": "27.462983",
        "areaCode": "湖南省娄底市双峰县",
        "name": "湖南省娄底市双峰县",
        "parent_area": "湖南省娄底市",
        "value": 3
    },
    {
        "lng": "111.334515",
        "lat": "27.732667",
        "areaCode": "湖南省娄底市新化县",
        "name": "湖南省娄底市新化县",
        "parent_area": "湖南省娄底市",
        "value": 5
    },
    {
        "lng": "111.670562",
        "lat": "27.698168",
        "areaCode": "湖南省娄底市涟源市",
        "name": "湖南省娄底市涟源市",
        "parent_area": "湖南省娄底市",
        "value": 3
    },
    {
        "lng": "113.456562",
        "lat": "29.482801",
        "areaCode": "湖南省岳阳市临湘市",
        "name": "湖南省岳阳市临湘市",
        "parent_area": "湖南省岳阳市",
        "value": 7
    },
    {
        "lng": "113.278407",
        "lat": "29.479907",
        "areaCode": "湖南省岳阳市云溪区",
        "name": "湖南省岳阳市云溪区",
        "parent_area": "湖南省岳阳市",
        "value": 1
    },
    {
        "lng": "112.547462",
        "lat": "29.536286",
        "areaCode": "湖南省岳阳市华容县",
        "name": "湖南省岳阳市华容县",
        "parent_area": "湖南省岳阳市",
        "value": 8
    },
    {
        "lng": "113.012517",
        "lat": "29.467129",
        "areaCode": "湖南省岳阳市君山区",
        "name": "湖南省岳阳市君山区",
        "parent_area": "湖南省岳阳市",
        "value": 2
    },
    {
        "lng": "113.122544",
        "lat": "29.150269",
        "areaCode": "湖南省岳阳市岳阳县",
        "name": "湖南省岳阳市岳阳县",
        "parent_area": "湖南省岳阳市",
        "value": 3
    },
    {
        "lng": "113.136481",
        "lat": "29.377995",
        "areaCode": "湖南省岳阳市岳阳楼区",
        "name": "湖南省岳阳市岳阳楼区",
        "parent_area": "湖南省岳阳市",
        "value": 5
    },
    {
        "lng": "113.587604",
        "lat": "28.707564",
        "areaCode": "湖南省岳阳市平江县",
        "name": "湖南省岳阳市平江县",
        "parent_area": "湖南省岳阳市",
        "value": 6
    },
    {
        "lng": "113.073493",
        "lat": "28.812455",
        "areaCode": "湖南省岳阳市汨罗市",
        "name": "湖南省岳阳市汨罗市",
        "parent_area": "湖南省岳阳市",
        "value": 5
    },
    {
        "lng": "111.653585",
        "lat": "29.446544",
        "areaCode": "湖南省常德市临澧县",
        "name": "湖南省常德市临澧县",
        "parent_area": "湖南省常德市",
        "value": 1
    },
    {
        "lng": "112.177506",
        "lat": "29.41732",
        "areaCode": "湖南省常德市安乡县",
        "name": "湖南省常德市安乡县",
        "parent_area": "湖南省常德市",
        "value": 5
    },
    {
        "lng": "111.495407",
        "lat": "28.908694",
        "areaCode": "湖南省常德市桃源县",
        "name": "湖南省常德市桃源县",
        "parent_area": "湖南省常德市",
        "value": 2
    },
    {
        "lng": "111.976412",
        "lat": "28.912288",
        "areaCode": "湖南省常德市汉寿县",
        "name": "湖南省常德市汉寿县",
        "parent_area": "湖南省常德市",
        "value": 2
    },
    {
        "lng": "111.689545",
        "lat": "29.060783",
        "areaCode": "湖南省常德市武陵区",
        "name": "湖南省常德市武陵区",
        "parent_area": "湖南省常德市",
        "value": 1
    },
    {
        "lng": "111.884517",
        "lat": "29.611259",
        "areaCode": "湖南省常德市津市市",
        "name": "湖南省常德市津市市",
        "parent_area": "湖南省常德市",
        "value": 1
    },
    {
        "lng": "111.765534",
        "lat": "29.638946",
        "areaCode": "湖南省常德市澧县",
        "name": "湖南省常德市澧县",
        "parent_area": "湖南省常德市",
        "value": 9
    },
    {
        "lng": "111.386451",
        "lat": "29.590366",
        "areaCode": "湖南省常德市石门县",
        "name": "湖南省常德市石门县",
        "parent_area": "湖南省常德市",
        "value": 3
    },
    {
        "lng": "111.145471",
        "lat": "29.435987",
        "areaCode": "湖南省张家界市慈利县",
        "name": "湖南省张家界市慈利县",
        "parent_area": "湖南省张家界市",
        "value": 1
    },
    {
        "lng": "111.687522",
        "lat": "29.024443",
        "areaCode": "湖南省常德市鼎城区",
        "name": "湖南省常德市鼎城区",
        "parent_area": "湖南省常德市",
        "value": 2
    },
    {
        "lng": "109.951462",
        "lat": "27.446081",
        "areaCode": "湖南省怀化市中方县",
        "name": "湖南省怀化市中方县",
        "parent_area": "湖南省怀化市",
        "value": 1
    },
    {
        "lng": "109.741586",
        "lat": "26.893384",
        "areaCode": "湖南省怀化市会同县",
        "name": "湖南省怀化市会同县",
        "parent_area": "湖南省怀化市",
        "value": 1
    },
    {
        "lng": "109.84351",
        "lat": "27.215077",
        "areaCode": "湖南省怀化市洪江市",
        "name": "湖南省怀化市洪江市",
        "parent_area": "湖南省怀化市",
        "value": 1
    },
    {
        "lng": "110.601551",
        "lat": "27.913963",
        "areaCode": "湖南省怀化市溆浦县",
        "name": "湖南省怀化市溆浦县",
        "parent_area": "湖南省怀化市",
        "value": 1
    },
    {
        "lng": "109.691402",
        "lat": "27.449513",
        "areaCode": "湖南省怀化市芷江侗族自治县",
        "name": "湖南省怀化市芷江侗族自治县",
        "parent_area": "湖南省怀化市",
        "value": 1
    },
    {
        "lng": "110.0464",
        "lat": "27.585226",
        "areaCode": "湖南省怀化市鹤城区",
        "name": "湖南省怀化市鹤城区",
        "parent_area": "湖南省怀化市",
        "value": 1
    },
    {
        "lng": "113.351578",
        "lat": "27.005772",
        "areaCode": "湖南省株洲市攸县",
        "name": "湖南省株洲市攸县",
        "parent_area": "湖南省株洲市",
        "value": 3
    },
    {
        "lng": "113.150427",
        "lat": "27.704323",
        "areaCode": "湖南省株洲市株洲县",
        "name": "湖南省株洲市株洲县",
        "parent_area": "湖南省株洲市",
        "value": 2
    },
    {
        "lng": "113.545472",
        "lat": "26.783589",
        "areaCode": "湖南省株洲市茶陵县",
        "name": "湖南省株洲市茶陵县",
        "parent_area": "湖南省株洲市",
        "value": 2
    },
    {
        "lng": "113.180452",
        "lat": "27.862156",
        "areaCode": "湖南省株洲市荷塘区",
        "name": "湖南省株洲市荷塘区",
        "parent_area": "湖南省株洲市",
        "value": 1
    },
    {
        "lng": "113.503483",
        "lat": "27.652325",
        "areaCode": "湖南省株洲市醴陵市",
        "name": "湖南省株洲市醴陵市",
        "parent_area": "湖南省株洲市",
        "value": 1
    },
    {
        "lng": "111.323542",
        "lat": "26.398288",
        "areaCode": "湖南省永州市东安县",
        "name": "湖南省永州市东安县",
        "parent_area": "湖南省永州市",
        "value": 1
    },
    {
        "lng": "111.952453",
        "lat": "25.577052",
        "areaCode": "湖南省永州市宁远县",
        "name": "湖南省永州市宁远县",
        "parent_area": "湖南省永州市",
        "value": 1
    },
    {
        "lng": "112.210409",
        "lat": "25.909826",
        "areaCode": "湖南省永州市新田县",
        "name": "湖南省永州市新田县",
        "parent_area": "湖南省永州市",
        "value": 1
    },
    {
        "lng": "111.84742",
        "lat": "26.586435",
        "areaCode": "湖南省永州市祁阳县",
        "name": "湖南省永州市祁阳县",
        "parent_area": "湖南省永州市",
        "value": 1
    },
    {
        "lng": "111.607404",
        "lat": "25.53253",
        "areaCode": "湖南省永州市道县",
        "name": "湖南省永州市道县",
        "parent_area": "湖南省永州市",
        "value": 4
    },
    {
        "lng": "111.637502",
        "lat": "26.227682",
        "areaCode": "湖南省永州市零陵区",
        "name": "湖南省永州市零陵区",
        "parent_area": "湖南省永州市",
        "value": 2
    },
    {
        "lng": "112.975589",
        "lat": "27.877721",
        "areaCode": "湖南省湘潭市岳塘区",
        "name": "湖南省湘潭市岳塘区",
        "parent_area": "湖南省湘潭市",
        "value": 1
    },
    {
        "lng": "112.541492",
        "lat": "27.740191",
        "areaCode": "湖南省湘潭市湘乡市",
        "name": "湖南省湘潭市湘乡市",
        "parent_area": "湖南省湘潭市",
        "value": 3
    },
    {
        "lng": "109.666474",
        "lat": "28.705969",
        "areaCode": "湖南省湘西土家族苗族自治州保靖县",
        "name": "湖南省湘西土家族苗族自治州保靖县",
        "parent_area": "湖南省湘西土家族苗族自治州",
        "value": 1
    },
    {
        "lng": "109.605527",
        "lat": "27.953848",
        "areaCode": "湖南省湘西土家族苗族自治州凤凰县",
        "name": "湖南省湘西土家族苗族自治州凤凰县",
        "parent_area": "湖南省湘西土家族苗族自治州",
        "value": 1
    },
    {
        "lng": "109.704449",
        "lat": "28.267493",
        "areaCode": "湖南省湘西土家族苗族自治州吉首市",
        "name": "湖南省湘西土家族苗族自治州吉首市",
        "parent_area": "湖南省湘西土家族苗族自治州",
        "value": 3
    },
    {
        "lng": "109.863586",
        "lat": "28.985774",
        "areaCode": "湖南省湘西土家族苗族自治州永顺县",
        "name": "湖南省湘西土家族苗族自治州永顺县",
        "parent_area": "湖南省湘西土家族苗族自治州",
        "value": 1
    },
    {
        "lng": "109.450416",
        "lat": "29.464122",
        "areaCode": "湖南省湘西土家族苗族自治州龙山县",
        "name": "湖南省湘西土家族苗族自治州龙山县",
        "parent_area": "湖南省湘西土家族苗族自治州",
        "value": 1
    },
    {
        "lng": "112.402542",
        "lat": "29.36707",
        "areaCode": "湖南省益阳市南县",
        "name": "湖南省益阳市南县",
        "parent_area": "湖南省益阳市",
        "value": 3
    },
    {
        "lng": "111.219493",
        "lat": "28.380054",
        "areaCode": "湖南省益阳市安化县",
        "name": "湖南省益阳市安化县",
        "parent_area": "湖南省益阳市",
        "value": 3
    },
    {
        "lng": "112.162541",
        "lat": "28.523871",
        "areaCode": "湖南省益阳市桃江县",
        "name": "湖南省益阳市桃江县",
        "parent_area": "湖南省益阳市",
        "value": 1
    },
    {
        "lng": "112.360532",
        "lat": "28.850234",
        "areaCode": "湖南省益阳市沅江市",
        "name": "湖南省益阳市沅江市",
        "parent_area": "湖南省益阳市",
        "value": 1
    },
    {
        "lng": "112.380598",
        "lat": "28.584984",
        "areaCode": "湖南省益阳市赫山区",
        "name": "湖南省益阳市赫山区",
        "parent_area": "湖南省益阳市",
        "value": 4
    },
    {
        "lng": "112.096447",
        "lat": "26.805995",
        "areaCode": "湖南省衡阳市祁东县",
        "name": "湖南省衡阳市祁东县",
        "parent_area": "湖南省衡阳市",
        "value": 3
    },
    {
        "lng": "112.866597",
        "lat": "26.428066",
        "areaCode": "湖南省衡阳市耒阳市",
        "name": "湖南省衡阳市耒阳市",
        "parent_area": "湖南省衡阳市",
        "value": 1
    },
    {
        "lng": "112.959495",
        "lat": "27.087043",
        "areaCode": "湖南省衡阳市衡东县",
        "name": "湖南省衡阳市衡东县",
        "parent_area": "湖南省衡阳市",
        "value": 4
    },
    {
        "lng": "112.684403",
        "lat": "26.744532",
        "areaCode": "湖南省衡阳市衡南县",
        "name": "湖南省衡阳市衡南县",
        "parent_area": "湖南省衡阳市",
        "value": 3
    },
    {
        "lng": "112.875563",
        "lat": "27.235996",
        "areaCode": "湖南省衡阳市衡山县",
        "name": "湖南省衡阳市衡山县",
        "parent_area": "湖南省衡阳市",
        "value": 2
    },
    {
        "lng": "112.377553",
        "lat": "26.975295",
        "areaCode": "湖南省衡阳市衡阳县",
        "name": "湖南省衡阳市衡阳县",
        "parent_area": "湖南省衡阳市",
        "value": 2
    },
    {
        "lng": "112.620411",
        "lat": "26.846539",
        "areaCode": "湖南省衡阳市雁峰区",
        "name": "湖南省衡阳市雁峰区",
        "parent_area": "湖南省衡阳市",
        "value": 1
    },
    {
        "lng": "111.503442",
        "lat": "27.239109",
        "areaCode": "湖南省邵阳市双清区",
        "name": "湖南省邵阳市双清区",
        "parent_area": "湖南省邵阳市",
        "value": 1
    },
    {
        "lng": "110.863491",
        "lat": "26.439724",
        "areaCode": "湖南省邵阳市新宁县",
        "name": "湖南省邵阳市新宁县",
        "parent_area": "湖南省邵阳市",
        "value": 1
    },
    {
        "lng": "111.464449",
        "lat": "27.327132",
        "areaCode": "湖南省邵阳市新邵县",
        "name": "湖南省邵阳市新邵县",
        "parent_area": "湖南省邵阳市",
        "value": 8
    },
    {
        "lng": "110.16242",
        "lat": "26.588423",
        "areaCode": "湖南省邵阳市绥宁县",
        "name": "湖南省邵阳市绥宁县",
        "parent_area": "湖南省邵阳市",
        "value": 1
    },
    {
        "lng": "111.750491",
        "lat": "27.264507",
        "areaCode": "湖南省邵阳市邵东县",
        "name": "湖南省邵阳市邵东县",
        "parent_area": "湖南省邵阳市",
        "value": 6
    },
    {
        "lng": "111.280508",
        "lat": "26.996528",
        "areaCode": "湖南省邵阳市邵阳县",
        "name": "湖南省邵阳市邵阳县",
        "parent_area": "湖南省邵阳市",
        "value": 2
    },
    {
        "lng": "111.039507",
        "lat": "27.119946",
        "areaCode": "湖南省邵阳市隆回县",
        "name": "湖南省邵阳市隆回县",
        "parent_area": "湖南省邵阳市",
        "value": 4
    },
    {
        "lng": "112.570411",
        "lat": "25.282527",
        "areaCode": "湖南省郴州市临武县",
        "name": "湖南省郴州市临武县",
        "parent_area": "湖南省郴州市",
        "value": 3
    },
    {
        "lng": "113.275424",
        "lat": "26.715683",
        "areaCode": "湖南省郴州市安仁县",
        "name": "湖南省郴州市安仁县",
        "parent_area": "湖南省郴州市",
        "value": 1
    },
    {
        "lng": "112.74056",
        "lat": "25.759775",
        "areaCode": "湖南省郴州市桂阳县",
        "name": "湖南省郴州市桂阳县",
        "parent_area": "湖南省郴州市",
        "value": 2
    },
    {
        "lng": "113.122533",
        "lat": "26.132968",
        "areaCode": "湖南省郴州市永兴县",
        "name": "湖南省郴州市永兴县",
        "parent_area": "湖南省郴州市",
        "value": 2
    },
    {
        "lng": "113.048423",
        "lat": "25.806737",
        "areaCode": "湖南省郴州市苏仙区",
        "name": "湖南省郴州市苏仙区",
        "parent_area": "湖南省郴州市",
        "value": 2
    },
    {
        "lng": "113.242556",
        "lat": "25.981874",
        "areaCode": "湖南省郴州市资兴市",
        "name": "湖南省郴州市资兴市",
        "parent_area": "湖南省郴州市",
        "value": 1
    },
    {
        "lng": "112.996592",
        "lat": "28.118211",
        "areaCode": "湖南省长沙市天心区",
        "name": "湖南省长沙市天心区",
        "parent_area": "湖南省长沙市",
        "value": 3
    },
    {
        "lng": "112.558407",
        "lat": "28.284105",
        "areaCode": "湖南省长沙市宁乡县",
        "name": "湖南省长沙市宁乡县",
        "parent_area": "湖南省长沙市",
        "value": 1
    },
    {
        "lng": "112.937448",
        "lat": "28.241489",
        "areaCode": "湖南省长沙市岳麓区",
        "name": "湖南省长沙市岳麓区",
        "parent_area": "湖南省长沙市",
        "value": 3
    },
    {
        "lng": "112.992585",
        "lat": "28.261379",
        "areaCode": "湖南省长沙市开福区",
        "name": "湖南省长沙市开福区",
        "parent_area": "湖南省长沙市",
        "value": 3
    },
    {
        "lng": "117.248306",
        "lat": "31.853672",
        "areaCode": "湖南省长沙市望城区",
        "name": "湖南省长沙市望城区",
        "parent_area": "湖南省长沙市",
        "value": 1
    },
    {
        "lng": "113.649398",
        "lat": "28.169832",
        "areaCode": "湖南省长沙市浏阳市",
        "name": "湖南省长沙市浏阳市",
        "parent_area": "湖南省长沙市",
        "value": 1
    },
    {
        "lng": "113.087559",
        "lat": "28.251818",
        "areaCode": "湖南省长沙市长沙县",
        "name": "湖南省长沙市长沙县",
        "parent_area": "湖南省长沙市",
        "value": 6
    },
    {
        "lng": "113.042422",
        "lat": "28.142233",
        "areaCode": "湖南省长沙市雨花区",
        "name": "湖南省长沙市雨花区",
        "parent_area": "湖南省长沙市",
        "value": 6
    },
    {
        "lng": "103.725535",
        "lat": "36.109754",
        "areaCode": "甘肃省兰州市安宁区",
        "name": "甘肃省兰州市安宁区",
        "parent_area": "甘肃省兰州市",
        "value": 1
    },
    {
        "lng": "103.266624",
        "lat": "36.742095",
        "areaCode": "甘肃省兰州市永登县",
        "name": "甘肃省兰州市永登县",
        "parent_area": "甘肃省兰州市",
        "value": 1
    },
    {
        "lng": "106.21139",
        "lat": "34.994905",
        "areaCode": "甘肃省天水市张家川回族自治县",
        "name": "甘肃省天水市张家川回族自治县",
        "parent_area": "甘肃省天水市",
        "value": 1
    },
    {
        "lng": "104.897428",
        "lat": "34.727669",
        "areaCode": "甘肃省天水市武山县",
        "name": "甘肃省天水市武山县",
        "parent_area": "甘肃省天水市",
        "value": 1
    },
    {
        "lng": "105.342475",
        "lat": "34.7383",
        "areaCode": "甘肃省天水市甘谷县",
        "name": "甘肃省天水市甘谷县",
        "parent_area": "甘肃省天水市",
        "value": 1
    },
    {
        "lng": "106.681415",
        "lat": "35.548815",
        "areaCode": "甘肃省平凉市崆峒区",
        "name": "甘肃省平凉市崆峒区",
        "parent_area": "甘肃省平凉市",
        "value": 1
    },
    {
        "lng": "105.738416",
        "lat": "35.528257",
        "areaCode": "甘肃省平凉市静宁县",
        "name": "甘肃省平凉市静宁县",
        "parent_area": "甘肃省平凉市",
        "value": 1
    },
    {
        "lng": "107.934571",
        "lat": "35.507933",
        "areaCode": "甘肃省庆阳市宁县",
        "name": "甘肃省庆阳市宁县",
        "parent_area": "甘肃省庆阳市",
        "value": 4
    },
    {
        "lng": "107.657391",
        "lat": "35.736864",
        "areaCode": "甘肃省庆阳市西峰区",
        "name": "甘肃省庆阳市西峰区",
        "parent_area": "甘肃省庆阳市",
        "value": 1
    },
    {
        "lng": "107.207576",
        "lat": "35.683231",
        "areaCode": "甘肃省庆阳市镇原县",
        "name": "甘肃省庆阳市镇原县",
        "parent_area": "甘肃省庆阳市",
        "value": 2
    },
    {
        "lng": "100.484558",
        "lat": "38.934781",
        "areaCode": "甘肃省张掖市甘州区",
        "name": "甘肃省张掖市甘州区",
        "parent_area": "甘肃省张掖市",
        "value": 2
    },
    {
        "lng": "102.648575",
        "lat": "37.934122",
        "areaCode": "甘肃省武威市凉州区",
        "name": "甘肃省武威市凉州区",
        "parent_area": "甘肃省武威市",
        "value": 2
    },
    {
        "lng": "104.155413",
        "lat": "36.541464",
        "areaCode": "甘肃省白银市白银区",
        "name": "甘肃省白银市白银区",
        "parent_area": "甘肃省白银市",
        "value": 1
    },
    {
        "lng": "105.615392",
        "lat": "33.335376",
        "areaCode": "甘肃省陇南市康县",
        "name": "甘肃省陇南市康县",
        "parent_area": "甘肃省陇南市",
        "value": 1
    },
    {
        "lng": "106.094418",
        "lat": "33.775194",
        "areaCode": "甘肃省陇南市徽县",
        "name": "甘肃省陇南市徽县",
        "parent_area": "甘肃省陇南市",
        "value": 1
    },
    {
        "lng": "105.30761",
        "lat": "34.016787",
        "areaCode": "甘肃省陇南市西和县",
        "name": "甘肃省陇南市西和县",
        "parent_area": "甘肃省陇南市",
        "value": 1
    },
    {
        "lng": "117.614415",
        "lat": "26.240219",
        "areaCode": "福建省三明市三元区",
        "name": "福建省三明市三元区",
        "parent_area": "福建省三明市",
        "value": 1
    },
    {
        "lng": "116.660426",
        "lat": "26.267956",
        "areaCode": "福建省三明市宁化县",
        "name": "福建省三明市宁化县",
        "parent_area": "福建省三明市",
        "value": 2
    },
    {
        "lng": "117.371443",
        "lat": "25.948144",
        "areaCode": "福建省三明市永安市",
        "name": "福建省三明市永安市",
        "parent_area": "福建省三明市",
        "value": 1
    },
    {
        "lng": "117.798561",
        "lat": "26.402813",
        "areaCode": "福建省三明市沙县",
        "name": "福建省三明市沙县",
        "parent_area": "福建省三明市",
        "value": 2
    },
    {
        "lng": "117.182596",
        "lat": "26.90566",
        "areaCode": "福建省三明市泰宁县",
        "name": "福建省三明市泰宁县",
        "parent_area": "福建省三明市",
        "value": 1
    },
    {
        "lng": "116.823593",
        "lat": "26.183357",
        "areaCode": "福建省三明市清流县",
        "name": "福建省三明市清流县",
        "parent_area": "福建省三明市",
        "value": 1
    },
    {
        "lng": "117.340482",
        "lat": "27.547273",
        "areaCode": "福建省南平市光泽县",
        "name": "福建省南平市光泽县",
        "parent_area": "福建省南平市",
        "value": 1
    },
    {
        "lng": "118.311461",
        "lat": "27.028955",
        "areaCode": "福建省南平市建瓯市",
        "name": "福建省南平市建瓯市",
        "parent_area": "福建省南平市",
        "value": 1
    },
    {
        "lng": "118.863587",
        "lat": "27.371749",
        "areaCode": "福建省南平市政和县",
        "name": "福建省南平市政和县",
        "parent_area": "福建省南平市",
        "value": 1
    },
    {
        "lng": "118.791454",
        "lat": "27.532555",
        "areaCode": "福建省南平市松溪县",
        "name": "福建省南平市松溪县",
        "parent_area": "福建省南平市",
        "value": 1
    },
    {
        "lng": "118.088408",
        "lat": "24.451948",
        "areaCode": "福建省厦门市思明区",
        "name": "福建省厦门市思明区",
        "parent_area": "福建省厦门市",
        "value": 3
    },
    {
        "lng": "118.153588",
        "lat": "24.517573",
        "areaCode": "福建省厦门市湖里区",
        "name": "福建省厦门市湖里区",
        "parent_area": "福建省厦门市",
        "value": 1
    },
    {
        "lng": "118.254576",
        "lat": "24.624216",
        "areaCode": "福建省厦门市翔安区",
        "name": "福建省厦门市翔安区",
        "parent_area": "福建省厦门市",
        "value": 1
    },
    {
        "lng": "119.654406",
        "lat": "27.094324",
        "areaCode": "福建省宁德市福安市",
        "name": "福建省宁德市福安市",
        "parent_area": "福建省宁德市",
        "value": 1
    },
    {
        "lng": "119.533442",
        "lat": "26.666739",
        "areaCode": "福建省宁德市蕉城区",
        "name": "福建省宁德市蕉城区",
        "parent_area": "福建省宁德市",
        "value": 1
    },
    {
        "lng": "118.61958",
        "lat": "24.89497",
        "areaCode": "福建省泉州市丰泽区",
        "name": "福建省泉州市丰泽区",
        "parent_area": "福建省泉州市",
        "value": 1
    },
    {
        "lng": "118.392572",
        "lat": "24.966362",
        "areaCode": "福建省泉州市南安市",
        "name": "福建省泉州市南安市",
        "parent_area": "福建省泉州市",
        "value": 25
    },
    {
        "lng": "118.558431",
        "lat": "24.787825",
        "areaCode": "福建省泉州市晋江市",
        "name": "福建省泉州市晋江市",
        "parent_area": "福建省泉州市",
        "value": 1
    },
    {
        "lng": "118.922433",
        "lat": "25.13965",
        "areaCode": "福建省泉州市泉港区",
        "name": "福建省泉州市泉港区",
        "parent_area": "福建省泉州市",
        "value": 1
    },
    {
        "lng": "118.677416",
        "lat": "24.946214",
        "areaCode": "福建省泉州市洛江区",
        "name": "福建省泉州市洛江区",
        "parent_area": "福建省泉州市",
        "value": 2
    },
    {
        "lng": "118.654519",
        "lat": "24.737665",
        "areaCode": "福建省泉州市石狮市",
        "name": "福建省泉州市石狮市",
        "parent_area": "福建省泉州市",
        "value": 2
    },
    {
        "lng": "117.346448",
        "lat": "23.964073",
        "areaCode": "福建省漳州市云霄县",
        "name": "福建省漳州市云霄县",
        "parent_area": "福建省漳州市",
        "value": 1
    },
    {
        "lng": "117.363446",
        "lat": "24.520852",
        "areaCode": "福建省漳州市南靖县",
        "name": "福建省漳州市南靖县",
        "parent_area": "福建省漳州市",
        "value": 1
    },
    {
        "lng": "117.620443",
        "lat": "24.123462",
        "areaCode": "福建省漳州市漳浦县",
        "name": "福建省漳州市漳浦县",
        "parent_area": "福建省漳州市",
        "value": 1
    },
    {
        "lng": "117.824451",
        "lat": "24.45294",
        "areaCode": "福建省漳州市龙海市",
        "name": "福建省漳州市龙海市",
        "parent_area": "福建省漳州市",
        "value": 1
    },
    {
        "lng": "119.320528",
        "lat": "26.058528",
        "areaCode": "福建省福州市台江区",
        "name": "福建省福州市台江区",
        "parent_area": "福建省福州市",
        "value": 2
    },
    {
        "lng": "119.796501",
        "lat": "25.5047",
        "areaCode": "福建省福州市平潭县",
        "name": "福建省福州市平潭县",
        "parent_area": "福建省福州市",
        "value": 1
    },
    {
        "lng": "119.334579",
        "lat": "26.087214",
        "areaCode": "福建省福州市晋安区",
        "name": "福建省福州市晋安区",
        "parent_area": "福建省福州市",
        "value": 2
    },
    {
        "lng": "118.938431",
        "lat": "25.872787",
        "areaCode": "福建省福州市永泰县",
        "name": "福建省福州市永泰县",
        "parent_area": "福建省福州市",
        "value": 1
    },
    {
        "lng": "119.390465",
        "lat": "25.726343",
        "areaCode": "福建省福州市福清市",
        "name": "福建省福州市福清市",
        "parent_area": "福建省福州市",
        "value": 5
    },
    {
        "lng": "119.546479",
        "lat": "26.203583",
        "areaCode": "福建省福州市连江县",
        "name": "福建省福州市连江县",
        "parent_area": "福建省福州市",
        "value": 2
    },
    {
        "lng": "119.138482",
        "lat": "26.156035",
        "areaCode": "福建省福州市闽侯县",
        "name": "福建省福州市闽侯县",
        "parent_area": "福建省福州市",
        "value": 2
    },
    {
        "lng": "119.310492",
        "lat": "26.088114",
        "areaCode": "福建省福州市鼓楼区",
        "name": "福建省福州市鼓楼区",
        "parent_area": "福建省福州市",
        "value": 1
    },
    {
        "lng": "118.698454",
        "lat": "25.368291",
        "areaCode": "福建省莆田市仙游县",
        "name": "福建省莆田市仙游县",
        "parent_area": "福建省莆田市",
        "value": 1
    },
    {
        "lng": "119.001536",
        "lat": "25.424344",
        "areaCode": "福建省莆田市城厢区",
        "name": "福建省莆田市城厢区",
        "parent_area": "福建省莆田市",
        "value": 1
    },
    {
        "lng": "119.111571",
        "lat": "25.323654",
        "areaCode": "福建省莆田市秀屿区",
        "name": "福建省莆田市秀屿区",
        "parent_area": "福建省莆田市",
        "value": 4
    },
    {
        "lng": "119.019482",
        "lat": "25.439754",
        "areaCode": "福建省莆田市荔城区",
        "name": "福建省莆田市荔城区",
        "parent_area": "福建省莆田市",
        "value": 4
    },
    {
        "lng": "116.426443",
        "lat": "25.05557",
        "areaCode": "福建省龙岩市上杭县",
        "name": "福建省龙岩市上杭县",
        "parent_area": "福建省龙岩市",
        "value": 2
    },
    {
        "lng": "116.107589",
        "lat": "25.100855",
        "areaCode": "福建省龙岩市武平县",
        "name": "福建省龙岩市武平县",
        "parent_area": "福建省龙岩市",
        "value": 1
    },
    {
        "lng": "116.760446",
        "lat": "25.716337",
        "areaCode": "福建省龙岩市连城县",
        "name": "福建省龙岩市连城县",
        "parent_area": "福建省龙岩市",
        "value": 1
    },
    {
        "lng": "104.964566",
        "lat": "26.55372",
        "areaCode": "贵州省六盘水市水城县",
        "name": "贵州省六盘水市水城县",
        "parent_area": "贵州省六盘水市",
        "value": 1
    },
    {
        "lng": "106.226442",
        "lat": "27.465355",
        "areaCode": "贵州省毕节市金沙县",
        "name": "贵州省毕节市金沙县",
        "parent_area": "贵州省毕节市",
        "value": 1
    },
    {
        "lng": "106.730535",
        "lat": "26.610381",
        "areaCode": "贵州省贵阳市云岩区",
        "name": "贵州省贵阳市云岩区",
        "parent_area": "贵州省贵阳市",
        "value": 1
    },
    {
        "lng": "106.720528",
        "lat": "26.574336",
        "areaCode": "贵州省贵阳市南明区",
        "name": "贵州省贵阳市南明区",
        "parent_area": "贵州省贵阳市",
        "value": 1
    },
    {
        "lng": "106.676441",
        "lat": "26.415879",
        "areaCode": "贵州省贵阳市花溪区",
        "name": "贵州省贵阳市花溪区",
        "parent_area": "贵州省贵阳市",
        "value": 1
    },
    {
        "lng": "106.203428",
        "lat": "28.339118",
        "areaCode": "贵州省遵义市习水县",
        "name": "贵州省遵义市习水县",
        "parent_area": "贵州省遵义市",
        "value": 1
    },
    {
        "lng": "106.940458",
        "lat": "27.756343",
        "areaCode": "贵州省遵义市汇川区",
        "name": "贵州省遵义市汇川区",
        "parent_area": "贵州省遵义市",
        "value": 1
    },
    {
        "lng": "107.472599",
        "lat": "27.754498",
        "areaCode": "贵州省遵义市湄潭县",
        "name": "贵州省遵义市湄潭县",
        "parent_area": "贵州省遵义市",
        "value": 1
    },
    {
        "lng": "109.209404",
        "lat": "28.16042",
        "areaCode": "贵州省铜仁市松桃苗族自治县",
        "name": "贵州省铜仁市松桃苗族自治县",
        "parent_area": "贵州省铜仁市",
        "value": 1
    },
    {
        "lng": "108.8454",
        "lat": "27.705922",
        "areaCode": "贵州省铜仁市江口县",
        "name": "贵州省铜仁市江口县",
        "parent_area": "贵州省铜仁市",
        "value": 1
    },
    {
        "lng": "108.230464",
        "lat": "27.519722",
        "areaCode": "贵州省铜仁市石阡县",
        "name": "贵州省铜仁市石阡县",
        "parent_area": "贵州省铜仁市",
        "value": 1
    },
    {
        "lng": "108.822481",
        "lat": "27.179902",
        "areaCode": "贵州省黔东南苗族侗族自治州岑巩县",
        "name": "贵州省黔东南苗族侗族自治州岑巩县",
        "parent_area": "贵州省黔东南苗族侗族自治州",
        "value": 1
    },
    {
        "lng": "109.207438",
        "lat": "26.682632",
        "areaCode": "贵州省黔东南苗族侗族自治州锦屏县",
        "name": "贵州省黔东南苗族侗族自治州锦屏县",
        "parent_area": "贵州省黔东南苗族侗族自治州",
        "value": 1
    },
    {
        "lng": "106.663453",
        "lat": "26.13821",
        "areaCode": "贵州省黔南布依族苗族自治州惠水县",
        "name": "贵州省黔南布依族苗族自治州惠水县",
        "parent_area": "贵州省黔南布依族苗族自治州",
        "value": 1
    },
    {
        "lng": "107.477552",
        "lat": "27.084126",
        "areaCode": "贵州省黔南布依族苗族自治州瓮安县",
        "name": "贵州省黔南布依族苗族自治州瓮安县",
        "parent_area": "贵州省黔南布依族苗族自治州",
        "value": 1
    },
    {
        "lng": "106.106445",
        "lat": "25.184355",
        "areaCode": "贵州省黔西南布依族苗族自治州望谟县",
        "name": "贵州省黔西南布依族苗族自治州望谟县",
        "parent_area": "贵州省黔西南布依族苗族自治州",
        "value": 1
    },
    {
        "lng": "124.790427",
        "lat": "40.737553",
        "areaCode": "辽宁省丹东市宽甸满族自治县",
        "name": "辽宁省丹东市宽甸满族自治县",
        "parent_area": "辽宁省丹东市",
        "value": 1
    },
    {
        "lng": "120.460487",
        "lat": "41.57178",
        "areaCode": "辽宁省朝阳市双塔区",
        "name": "辽宁省朝阳市双塔区",
        "parent_area": "辽宁省朝阳市",
        "value": 1
    },
    {
        "lng": "123.314633",
        "lat": "41.799668",
        "areaCode": "辽宁省沈阳市于洪区",
        "name": "辽宁省沈阳市于洪区",
        "parent_area": "辽宁省沈阳市",
        "value": 1
    },
    {
        "lng": "123.426644",
        "lat": "41.795236",
        "areaCode": "辽宁省沈阳市和平区",
        "name": "辽宁省沈阳市和平区",
        "parent_area": "辽宁省沈阳市",
        "value": 1
    },
    {
        "lng": "123.383436",
        "lat": "41.809038",
        "areaCode": "辽宁省沈阳市铁西区",
        "name": "辽宁省沈阳市铁西区",
        "parent_area": "辽宁省沈阳市",
        "value": 1
    },
    {
        "lng": "122.265437",
        "lat": "40.678764",
        "areaCode": "辽宁省营口市站前区",
        "name": "辽宁省营口市站前区",
        "parent_area": "辽宁省营口市",
        "value": 1
    },
    {
        "lng": "124.117501",
        "lat": "42.792178",
        "areaCode": "辽宁省铁岭市昌图县",
        "name": "辽宁省铁岭市昌图县",
        "parent_area": "辽宁省铁岭市",
        "value": 1
    },
    {
        "lng": "123.735372",
        "lat": "42.229226",
        "areaCode": "辽宁省铁岭市铁岭县",
        "name": "辽宁省铁岭市铁岭县",
        "parent_area": "辽宁省铁岭市",
        "value": 1
    },
    {
        "lng": "122.545449",
        "lat": "42.392707",
        "areaCode": "辽宁省阜新市彰武县",
        "name": "辽宁省阜新市彰武县",
        "parent_area": "辽宁省阜新市",
        "value": 1
    },
    {
        "lng": "123.035484",
        "lat": "41.156116",
        "areaCode": "辽宁省鞍山市立山区",
        "name": "辽宁省鞍山市立山区",
        "parent_area": "辽宁省鞍山市",
        "value": 1
    },
    {
        "lng": "108.415558",
        "lat": "30.813622",
        "areaCode": "重庆市重庆市万州区",
        "name": "重庆市重庆市万州区",
        "parent_area": "重庆市重庆市",
        "value": 13
    },
    {
        "lng": "107.737481",
        "lat": "29.869413",
        "areaCode": "重庆市重庆市丰都县",
        "name": "重庆市重庆市丰都县",
        "parent_area": "重庆市重庆市",
        "value": 3
    },
    {
        "lng": "106.517559",
        "lat": "29.507928",
        "areaCode": "重庆市重庆市九龙坡区",
        "name": "重庆市重庆市九龙坡区",
        "parent_area": "重庆市重庆市",
        "value": 2
    },
    {
        "lng": "108.703448",
        "lat": "30.936611",
        "areaCode": "重庆市重庆市云阳县",
        "name": "重庆市重庆市云阳县",
        "parent_area": "重庆市重庆市",
        "value": 9
    },
    {
        "lng": "106.66843",
        "lat": "29.502683",
        "areaCode": "重庆市重庆市南岸区",
        "name": "重庆市重庆市南岸区",
        "parent_area": "重庆市重庆市",
        "value": 2
    },
    {
        "lng": "107.105585",
        "lat": "29.163479",
        "areaCode": "重庆市重庆市南川区",
        "name": "重庆市重庆市南川区",
        "parent_area": "重庆市重庆市",
        "value": 1
    },
    {
        "lng": "106.282541",
        "lat": "29.978181",
        "areaCode": "重庆市重庆市合川区",
        "name": "重庆市重庆市合川区",
        "parent_area": "重庆市重庆市",
        "value": 3
    },
    {
        "lng": "107.339566",
        "lat": "30.333294",
        "areaCode": "重庆市重庆市垫江县",
        "name": "重庆市重庆市垫江县",
        "parent_area": "重庆市重庆市",
        "value": 2
    },
    {
        "lng": "108.671612",
        "lat": "31.953391",
        "areaCode": "重庆市重庆市城口县",
        "name": "重庆市重庆市城口县",
        "parent_area": "重庆市重庆市",
        "value": 2
    },
    {
        "lng": "105.728405",
        "lat": "29.713114",
        "areaCode": "重庆市重庆市大足区",
        "name": "重庆市重庆市大足区",
        "parent_area": "重庆市重庆市",
        "value": 1
    },
    {
        "lng": "109.470473",
        "lat": "31.024602",
        "areaCode": "重庆市重庆市奉节县",
        "name": "重庆市重庆市奉节县",
        "parent_area": "重庆市重庆市",
        "value": 7
    },
    {
        "lng": "109.885546",
        "lat": "31.080519",
        "areaCode": "重庆市重庆市巫山县",
        "name": "重庆市重庆市巫山县",
        "parent_area": "重庆市重庆市",
        "value": 8
    },
    {
        "lng": "109.576403",
        "lat": "31.40488",
        "areaCode": "重庆市重庆市巫溪县",
        "name": "重庆市重庆市巫溪县",
        "parent_area": "重庆市重庆市",
        "value": 6
    },
    {
        "lng": "106.547454",
        "lat": "29.408475",
        "areaCode": "重庆市重庆市巴南区",
        "name": "重庆市重庆市巴南区",
        "parent_area": "重庆市重庆市",
        "value": 1
    },
    {
        "lng": "108.399498",
        "lat": "31.166644",
        "areaCode": "重庆市重庆市开县",
        "name": "重庆市重庆市开县",
        "parent_area": "重庆市重庆市",
        "value": 6
    },
    {
        "lng": "108.044538",
        "lat": "30.305268",
        "areaCode": "重庆市重庆市忠县",
        "name": "重庆市重庆市忠县",
        "parent_area": "重庆市重庆市",
        "value": 1
    },
    {
        "lng": "108.172578",
        "lat": "29.299462",
        "areaCode": "重庆市重庆市彭水苗族土家族自治县",
        "name": "重庆市重庆市彭水苗族土家族自治县",
        "parent_area": "重庆市重庆市",
        "value": 2
    },
    {
        "lng": "107.776097",
        "lat": "30.660553",
        "areaCode": "重庆市重庆市梁平县",
        "name": "重庆市重庆市梁平县",
        "parent_area": "重庆市重庆市",
        "value": 1
    },
    {
        "lng": "106.464465",
        "lat": "29.547193",
        "areaCode": "重庆市重庆市沙坪坝区",
        "name": "重庆市重庆市沙坪坝区",
        "parent_area": "重庆市重庆市",
        "value": 1
    },
    {
        "lng": "107.39642",
        "lat": "29.709278",
        "areaCode": "重庆市重庆市涪陵区",
        "name": "重庆市重庆市涪陵区",
        "parent_area": "重庆市重庆市",
        "value": 2
    },
    {
        "lng": "106.57544",
        "lat": "29.55909",
        "areaCode": "重庆市重庆市渝中区",
        "name": "重庆市重庆市渝中区",
        "parent_area": "重庆市重庆市",
        "value": 2
    },
    {
        "lng": "106.637559",
        "lat": "29.723927",
        "areaCode": "重庆市重庆市渝北区",
        "name": "重庆市重庆市渝北区",
        "parent_area": "重庆市重庆市",
        "value": 5
    },
    {
        "lng": "106.233475",
        "lat": "29.598347",
        "areaCode": "重庆市重庆市璧山县",
        "name": "重庆市重庆市璧山县",
        "parent_area": "重庆市重庆市",
        "value": 1
    },
    {
        "lng": "108.120414",
        "lat": "30.006109",
        "areaCode": "重庆市重庆市石柱土家族自治县",
        "name": "重庆市重庆市石柱土家族自治县",
        "parent_area": "重庆市重庆市",
        "value": 4
    },
    {
        "lng": "109.013574",
        "lat": "28.453448",
        "areaCode": "重庆市重庆市秀山土家族苗族自治县",
        "name": "重庆市重庆市秀山土家族苗族自治县",
        "parent_area": "重庆市重庆市",
        "value": 2
    },
    {
        "lng": "106.657484",
        "lat": "29.034114",
        "areaCode": "重庆市重庆市綦江区",
        "name": "重庆市重庆市綦江区",
        "parent_area": "重庆市重庆市",
        "value": 1
    },
    {
        "lng": "105.60142",
        "lat": "29.411307",
        "areaCode": "重庆市重庆市荣昌县",
        "name": "重庆市重庆市荣昌县",
        "parent_area": "重庆市重庆市",
        "value": 1
    },
    {
        "lng": "107.087531",
        "lat": "29.86352",
        "areaCode": "重庆市重庆市长寿区",
        "name": "重庆市重庆市长寿区",
        "parent_area": "重庆市重庆市",
        "value": 4
    },
    {
        "lng": "108.777591",
        "lat": "29.538813",
        "areaCode": "重庆市重庆市黔江区",
        "name": "重庆市重庆市黔江区",
        "parent_area": "重庆市重庆市",
        "value": 3
    },
    {
        "lng": "108.245378",
        "lat": "34.534018",
        "areaCode": "陕西省咸阳市乾县",
        "name": "陕西省咸阳市乾县",
        "parent_area": "陕西省咸阳市",
        "value": 1
    },
    {
        "lng": "108.206551",
        "lat": "34.266138",
        "areaCode": "陕西省咸阳市武功县",
        "name": "陕西省咸阳市武功县",
        "parent_area": "陕西省咸阳市",
        "value": 1
    },
    {
        "lng": "110.888408",
        "lat": "33.537533",
        "areaCode": "陕西省商洛市商南县",
        "name": "陕西省商洛市商南县",
        "parent_area": "陕西省商洛市",
        "value": 1
    },
    {
        "lng": "109.947472",
        "lat": "33.868855",
        "areaCode": "陕西省商洛市商州区",
        "name": "陕西省商洛市商州区",
        "parent_area": "陕西省商洛市",
        "value": 1
    },
    {
        "lng": "109.888549",
        "lat": "33.537968",
        "areaCode": "陕西省商洛市山阳县",
        "name": "陕西省商洛市山阳县",
        "parent_area": "陕西省商洛市",
        "value": 1
    },
    {
        "lng": "110.154427",
        "lat": "34.097071",
        "areaCode": "陕西省商洛市洛南县",
        "name": "陕西省商洛市洛南县",
        "parent_area": "陕西省商洛市",
        "value": 1
    },
    {
        "lng": "109.368547",
        "lat": "32.394804",
        "areaCode": "陕西省安康市平利县",
        "name": "陕西省安康市平利县",
        "parent_area": "陕西省安康市",
        "value": 1
    },
    {
        "lng": "109.371557",
        "lat": "32.839864",
        "areaCode": "陕西省安康市旬阳县",
        "name": "陕西省安康市旬阳县",
        "parent_area": "陕西省安康市",
        "value": 2
    },
    {
        "lng": "109.033596",
        "lat": "32.701196",
        "areaCode": "陕西省安康市汉滨区",
        "name": "陕西省安康市汉滨区",
        "parent_area": "陕西省安康市",
        "value": 1
    },
    {
        "lng": "110.119587",
        "lat": "32.814846",
        "areaCode": "陕西省安康市白河县",
        "name": "陕西省安康市白河县",
        "parent_area": "陕西省安康市",
        "value": 2
    },
    {
        "lng": "108.254427",
        "lat": "33.044602",
        "areaCode": "陕西省安康市石泉县",
        "name": "陕西省安康市石泉县",
        "parent_area": "陕西省安康市",
        "value": 1
    },
    {
        "lng": "108.541594",
        "lat": "32.525786",
        "areaCode": "陕西省安康市紫阳县",
        "name": "陕西省安康市紫阳县",
        "parent_area": "陕西省安康市",
        "value": 1
    },
    {
        "lng": "107.627447",
        "lat": "34.449777",
        "areaCode": "陕西省宝鸡市岐山县",
        "name": "陕西省宝鸡市岐山县",
        "parent_area": "陕西省宝鸡市",
        "value": 1
    },
    {
        "lng": "107.156419",
        "lat": "34.377481",
        "areaCode": "陕西省宝鸡市渭滨区",
        "name": "陕西省宝鸡市渭滨区",
        "parent_area": "陕西省宝鸡市",
        "value": 1
    },
    {
        "lng": "107.756398",
        "lat": "34.280376",
        "areaCode": "陕西省宝鸡市眉县",
        "name": "陕西省宝鸡市眉县",
        "parent_area": "陕西省宝鸡市",
        "value": 1
    },
    {
        "lng": "111.073628",
        "lat": "39.033796",
        "areaCode": "陕西省榆林市府谷县",
        "name": "陕西省榆林市府谷县",
        "parent_area": "陕西省榆林市",
        "value": 1
    },
    {
        "lng": "110.190451",
        "lat": "37.761398",
        "areaCode": "陕西省榆林市米脂县",
        "name": "陕西省榆林市米脂县",
        "parent_area": "陕西省榆林市",
        "value": 1
    },
    {
        "lng": "107.340613",
        "lat": "33.162399",
        "areaCode": "陕西省汉中市城固县",
        "name": "陕西省汉中市城固县",
        "parent_area": "陕西省汉中市",
        "value": 2
    },
    {
        "lng": "107.773393",
        "lat": "32.989397",
        "areaCode": "陕西省汉中市西乡县",
        "name": "陕西省汉中市西乡县",
        "parent_area": "陕西省汉中市",
        "value": 3
    },
    {
        "lng": "109.498596",
        "lat": "34.504",
        "areaCode": "陕西省渭南市临渭区",
        "name": "陕西省渭南市临渭区",
        "parent_area": "陕西省渭南市",
        "value": 1
    },
    {
        "lng": "110.155396",
        "lat": "35.243872",
        "areaCode": "陕西省渭南市合阳县",
        "name": "陕西省渭南市合阳县",
        "parent_area": "陕西省渭南市",
        "value": 1
    },
    {
        "lng": "109.186437",
        "lat": "34.75726",
        "areaCode": "陕西省渭南市富平县",
        "name": "陕西省渭南市富平县",
        "parent_area": "陕西省渭南市",
        "value": 2
    },
    {
        "lng": "108.61142",
        "lat": "34.115021",
        "areaCode": "陕西省西安市户县",
        "name": "陕西省西安市户县",
        "parent_area": "陕西省西安市",
        "value": 1
    },
    {
        "lng": "108.953401",
        "lat": "34.299148",
        "areaCode": "陕西省西安市未央区",
        "name": "陕西省西安市未央区",
        "parent_area": "陕西省西安市",
        "value": 3
    },
    {
        "lng": "108.940498",
        "lat": "34.236474",
        "areaCode": "陕西省西安市碑林区",
        "name": "陕西省西安市碑林区",
        "parent_area": "陕西省西安市",
        "value": 1
    },
    {
        "lng": "108.91358",
        "lat": "34.16329",
        "areaCode": "陕西省西安市长安区",
        "name": "陕西省西安市长安区",
        "parent_area": "陕西省西安市",
        "value": 1
    },
    {
        "lng": "109.232463",
        "lat": "34.668363",
        "areaCode": "陕西省西安市阎良区",
        "name": "陕西省西安市阎良区",
        "parent_area": "陕西省西安市",
        "value": 2
    },
    {
        "lng": "109.081417",
        "lat": "35.075322",
        "areaCode": "陕西省铜川市王益区",
        "name": "陕西省铜川市王益区",
        "parent_area": "陕西省铜川市",
        "value": 1
    },
    {
        "lng": "101.772414",
        "lat": "36.634497",
        "areaCode": "青海省西宁市城西区",
        "name": "青海省西宁市城西区",
        "parent_area": "青海省西宁市",
        "value": 1
    },
    {
        "lng": "130.598533",
        "lat": "45.760964",
        "areaCode": "黑龙江省七台河市勃利县",
        "name": "黑龙江省七台河市勃利县",
        "parent_area": "黑龙江省七台河市",
        "value": 1
    },
    {
        "lng": "128.913459",
        "lat": "47.733954",
        "areaCode": "黑龙江省伊春市伊春区",
        "name": "黑龙江省伊春市伊春区",
        "parent_area": "黑龙江省伊春市",
        "value": 1
    },
    {
        "lng": "129.911645",
        "lat": "46.735327",
        "areaCode": "黑龙江省佳木斯市汤原县",
        "name": "黑龙江省佳木斯市汤原县",
        "parent_area": "黑龙江省佳木斯市",
        "value": 1
    },
    {
        "lng": "130.725549",
        "lat": "47.028817",
        "areaCode": "黑龙江省佳木斯市桦川县",
        "name": "黑龙江省佳木斯市桦川县",
        "parent_area": "黑龙江省佳木斯市",
        "value": 1
    },
    {
        "lng": "127.173529",
        "lat": "44.937843",
        "areaCode": "黑龙江省哈尔滨市五常市",
        "name": "黑龙江省哈尔滨市五常市",
        "parent_area": "黑龙江省哈尔滨市",
        "value": 1
    },
    {
        "lng": "126.319623",
        "lat": "45.388112",
        "areaCode": "黑龙江省哈尔滨市双城市",
        "name": "黑龙江省哈尔滨市双城市",
        "parent_area": "黑龙江省哈尔滨市",
        "value": 1
    },
    {
        "lng": "126.594399",
        "lat": "45.89521",
        "areaCode": "黑龙江省哈尔滨市呼兰区",
        "name": "黑龙江省哈尔滨市呼兰区",
        "parent_area": "黑龙江省哈尔滨市",
        "value": 1
    },
    {
        "lng": "126.516483",
        "lat": "45.808593",
        "areaCode": "黑龙江省哈尔滨市松北区",
        "name": "黑龙江省哈尔滨市松北区",
        "parent_area": "黑龙江省哈尔滨市",
        "value": 1
    },
    {
        "lng": "126.655604",
        "lat": "45.797776",
        "areaCode": "黑龙江省哈尔滨市道外区",
        "name": "黑龙江省哈尔滨市道外区",
        "parent_area": "黑龙江省哈尔滨市",
        "value": 1
    },
    {
        "lng": "126.623432",
        "lat": "45.761844",
        "areaCode": "黑龙江省哈尔滨市道里区",
        "name": "黑龙江省哈尔滨市道里区",
        "parent_area": "黑龙江省哈尔滨市",
        "value": 3
    },
    {
        "lng": "126.964356",
        "lat": "45.554275",
        "areaCode": "黑龙江省哈尔滨市阿城区",
        "name": "黑龙江省哈尔滨市阿城区",
        "parent_area": "黑龙江省哈尔滨市",
        "value": 1
    },
    {
        "lng": "126.669624",
        "lat": "45.71362",
        "areaCode": "黑龙江省哈尔滨市香坊区",
        "name": "黑龙江省哈尔滨市香坊区",
        "parent_area": "黑龙江省哈尔滨市",
        "value": 1
    },
    {
        "lng": "125.140473",
        "lat": "46.567678",
        "areaCode": "黑龙江省大庆市龙凤区",
        "name": "黑龙江省大庆市龙凤区",
        "parent_area": "黑龙江省大庆市",
        "value": 1
    },
    {
        "lng": "129.633478",
        "lat": "44.58746",
        "areaCode": "黑龙江省牡丹江市东安区",
        "name": "黑龙江省牡丹江市东安区",
        "parent_area": "黑龙江省牡丹江市",
        "value": 1
    },
    {
        "lng": "130.530559",
        "lat": "44.924785",
        "areaCode": "黑龙江省牡丹江市穆棱市",
        "name": "黑龙江省牡丹江市穆棱市",
        "parent_area": "黑龙江省牡丹江市",
        "value": 1
    },
    {
        "lng": "126.29462",
        "lat": "46.258095",
        "areaCode": "黑龙江省绥化市兰西县",
        "name": "黑龙江省绥化市兰西县",
        "parent_area": "黑龙江省绥化市",
        "value": 1
    },
    {
        "lng": "126.936509",
        "lat": "47.456904",
        "areaCode": "黑龙江省绥化市海伦市",
        "name": "黑龙江省绥化市海伦市",
        "parent_area": "黑龙江省绥化市",
        "value": 1
    },
    {
        "lng": "126.100489",
        "lat": "46.710685",
        "areaCode": "黑龙江省绥化市青冈县",
        "name": "黑龙江省绥化市青冈县",
        "parent_area": "黑龙江省绥化市",
        "value": 1
    },
    {
        "lng": "125.968537",
        "lat": "46.056938",
        "areaCode": "黑龙江省绥化市肇东市",
        "name": "黑龙江省绥化市肇东市",
        "parent_area": "黑龙江省绥化市",
        "value": 1
    },
    {
        "lng": "123.63651",
        "lat": "47.215504",
        "areaCode": "黑龙江省齐齐哈尔市富拉尔基区",
        "name": "黑龙江省齐齐哈尔市富拉尔基区",
        "parent_area": "黑龙江省齐齐哈尔市",
        "value": 1
    }
]